MMOX 111940Z 15004KT 12SM SCT030 SCT210 27/01 A3011 RMK 8/106 RTS,MMOX,2020-12-11T19:40:00Z,17.0,-96.72,27.0,1.0,150,4,,12.0,30.109253,,,,,,,,,,,SCT,3000,SCT,21000,,,,,VFR,,,,,,,,,,,,METAR,1528.0
KVOA 111940Z AUTO 17009KT 8SM 25/13 A3005 RMK A01,KVOA,2020-12-11T19:40:00Z,29.23,-87.78,25.0,13.0,170,9,,8.0,30.050198,,,TRUE,TRUE,,,,,,,,,,,,,,,,,,,,,,,,,,,SPECI,53.0
KSKX 111940Z AUTO 26011KT 3SM -SN BR FEW008 SCT017 BKN023 M01/M03 A2985 RMK AO2 PK WND 26032/1925 RAB13E25SNB25 P0000 FZRANO,KSKX,2020-12-11T19:40:00Z,36.45,-105.67,-1.0,-3.0,260,11,,3.0,29.84941,,,TRUE,TRUE,,,,TRUE,,-SN BR,FEW,800,SCT,1700,BKN,2300,,,MVFR,,,,,,0.005,,,,,,SPECI,2163.0
KPKV 111940Z AUTO 19006KT 7SM SCT023 BKN030 OVC070 24/20 A2984 RMK AO2 T02350200,KPKV,2020-12-11T19:40:00Z,28.65,-96.68,23.5,20.0,190,6,,7.0,29.840551,,,TRUE,TRUE,,,,,,,SCT,2300,BKN,3000,OVC,7000,,,MVFR,,,,,,,,,,,,SPECI,8.0
CYMT 111940Z AUTO 32005KT 6SM -SN OVC014 M02/M04 A2994 RMK SLP167,CYMT,2020-12-11T19:40:00Z,49.77,-74.52,-2.0,-4.0,320,5,,6.0,29.940945,1016.7,,TRUE,,,,,,,-SN,OVC,1400,,,,,,,MVFR,,,,,,,,,,,,SPECI,388.0
CYMO 111940Z AUTO 31008KT 9SM OVC026 M09/M12 A3027 RMK SLP251,CYMO,2020-12-11T19:40:00Z,51.28,-80.62,-9.0,-12.0,310,8,,9.0,30.268702,1025.1,,TRUE,,,,,,,,OVC,2600,,,,,,,MVFR,,,,,,,,,,,,SPECI,8.0
CYGL 111940Z 29011G16KT 5SM -SN BKN008 OVC010 M09/M10 A3008 RMK SF5SC3 SLP206,CYGL,2020-12-11T19:40:00Z,53.62,-77.7,-9.0,-10.0,290,11,16,5.0,30.079725,1020.6,,,,,,,,,-SN,BKN,800,OVC,1000,,,,,IFR,,,,,,,,,,,,SPECI,192.0
CYER 111940Z AUTO 34006KT 9SM SCT019 OVC110 M13/M16 A3036 RMK SLP282,CYER,2020-12-11T19:40:00Z,56.02,-87.68,-13.0,-16.0,340,6,,9.0,30.360237,1028.2,,TRUE,,,,,,,,SCT,1900,OVC,11000,,,,,VFR,,,,,,,,,,,,SPECI,11.0
PAFM 111939Z AUTO 00000KT 3/4SM HZ OVC002 M32/M35 A3042 RMK AO2 FZRANO,PAFM,2020-12-11T19:39:00Z,67.1,-157.85,-32.0,-35.0,0,0,,0.75,30.41929,,,TRUE,TRUE,,,,TRUE,,HZ,OVC,200,,,,,,,LIFR,,,,,,,,,,,,SPECI,79.0
KVUO 111939Z AUTO 11006KT 4SM -RA BKN017 OVC023 06/03 A3007 RMK AO2 P0006 T00610033,KVUO,2020-12-11T19:39:00Z,45.62,-122.65,6.1,3.3,110,6,,4.0,30.070866,,,TRUE,TRUE,,,,,,-RA,BKN,1700,OVC,2300,,,,,MVFR,,,,,,0.06,,,,,,SPECI,7.0
KPUB 111939Z 08003KT 3SM BR SCT008 BKN012 OVC025 M01/M03 A2987 RMK AO2 SNB09E37 P0000 T10061028,KPUB,2020-12-11T19:39:00Z,38.28,-104.5,-0.6,-2.8,80,3,,3.0,29.870079,,,,TRUE,,,,,,BR,SCT,800,BKN,1200,OVC,2500,,,MVFR,,,,,,0.005,,,,,,SPECI,1441.0
KNOZ 111939Z AUTO 21008KT 10SM BKN011 OVC016 17/ A3005 RMK AO2 T0172 ,KNOZ,2020-12-11T19:39:00Z,32.53,-114.5,17.2,,210,8,,10.0,30.050198,,,TRUE,TRUE,,,,,,,BKN,1100,OVC,1600,,,,,MVFR,,,,,,,,,,,,SPECI,78.0
KFFX 111939Z AUTO 05009G15KT 10SM SCT018 SCT055 OVC065 05/01 A2998 RMK AO2 T00520011,KFFX,2020-12-11T19:39:00Z,43.43,-86.0,5.2,1.1,50,9,15,10.0,29.97933,,,TRUE,TRUE,,,,,,,SCT,1800,SCT,5500,OVC,6500,,,VFR,,,,,,,,,,,,METAR,234.0
KCTB 111939Z AUTO 02006KT 3SM -SN BR OVC003 M06/M07 A3002 RMK AO2 P0000 T10611072,KCTB,2020-12-11T19:39:00Z,48.6,-112.37,-6.1,-7.2,20,6,,3.0,30.02067,,,TRUE,TRUE,,,,,,-SN BR,OVC,300,,,,,,,LIFR,,,,,,0.005,,,,,,SPECI,1172.0
KCOE 111939Z AUTO 00000KT 3SM -SN BR SCT008 BKN012 OVC019 01/M01 A3002 RMK AO2 UPB07E39SNE07B39 P0000 FZRANO,KCOE,2020-12-11T19:39:00Z,47.77,-116.82,1.0,-1.0,0,0,,3.0,30.02067,,,TRUE,TRUE,,,,TRUE,,-SN BR,SCT,800,BKN,1200,OVC,1900,,,MVFR,,,,,,0.005,,,,,,SPECI,693.0
KBIS 111939Z 07004KT 3SM R31/5000VP6000FT BR OVC004 M05/M06 A3015 RMK AO2 SNB31E34 P0000 T10501061,KBIS,2020-12-11T19:39:00Z,46.77,-100.75,-5.0,-6.1,70,4,,3.0,30.15059,,,,TRUE,,,,,,BR,OVC,400,,,,,,,LIFR,,,,,,0.005,,,,,,SPECI,506.0
CYXS 111939Z AUTO 27003KT 9SM OVC007 M05/M06 A3002 RMK SLP213,CYXS,2020-12-11T19:39:00Z,53.88,-122.68,-5.0,-6.0,270,3,,9.0,30.02067,1021.3,,TRUE,,,,,,,,OVC,700,,,,,,,IFR,,,,,,,,,,,,SPECI,685.0
CYKL 111939Z AUTO 24002KT 9SM SCT060 SCT079 OVC120 M08/M09 A2977 RMK SLP125,CYKL,2020-12-11T19:39:00Z,54.8,-66.8,-8.0,-9.0,240,2,,9.0,29.769686,1012.5,,TRUE,,,,,,,,SCT,6000,SCT,7900,OVC,12000,,,VFR,,,,,,,,,,,,METAR,507.0
PPIT 111938Z AUTO 05024G38KT 1 1/4SM -SN BR M17/M18 A2984 RMK AO2 PK WND 05038/1932 SNE01B23 P0000 FZRANO TSNO $,PPIT,2020-12-11T19:38:00Z,60.9,-162.43,-17.0,-18.0,50,24,38,1.25,29.840551,,,TRUE,TRUE,TRUE,,TRUE,TRUE,,-SN BR,,,,,,,,,,,,,,,0.005,,,,,,SPECI,4.0
PAGA 111938Z AUTO 00000KT 3/4SM BR VV002 M38/ A3033 RMK AO2 FZRANO,PAGA,2020-12-11T19:38:00Z,64.73,-156.93,-38.0,,0,0,,0.75,30.33071,,,TRUE,TRUE,,,,TRUE,,BR,OVX,0,,,,,,,LIFR,,,,,,,,,,,200,SPECI,39.0
KRIL 111938Z AUTO 23006KT 3/4SM -SN BKN018 OVC055 M01/M03 A2988 RMK AO2 WSHFT 1906 SNB05 P0002 T10061033,KRIL,2020-12-11T19:38:00Z,39.53,-107.73,-0.6,-3.3,230,6,,0.75,29.878937,,,TRUE,TRUE,,,,,,-SN,BKN,1800,OVC,5500,,,,,LIFR,,,,,,0.02,,,,,,SPECI,1683.0
KMLT 111938Z AUTO 00000KT 10SM FEW021 BKN026 01/M02 A3006 RMK AO2 T00061022,KMLT,2020-12-11T19:38:00Z,45.65,-68.7,0.6,-2.2,0,0,,10.0,30.059055,,,TRUE,TRUE,,,,,,,FEW,2100,BKN,2600,,,,,MVFR,,,,,,,,,,,,SPECI,121.0
KBPI 111938Z AUTO 00000KT 1SM -SN BR BKN023 BKN030 OVC041 M05/M07 A2985 RMK AO2 SNE10B28 P0000 T10501067,KBPI,2020-12-11T19:38:00Z,42.58,-110.1,-5.0,-6.7,0,0,,1.0,29.84941,,,TRUE,TRUE,,,,,,-SN BR,BKN,2300,BKN,3000,OVC,4100,,,IFR,,,,,,0.005,,,,,,SPECI,2120.0
KAMW 111938Z AUTO 05012KT 5SM -RA BR OVC009 03/01 A2987 RMK AO2 P0002 T00280011,KAMW,2020-12-11T19:38:00Z,41.98,-93.62,2.8,1.1,50,12,,5.0,29.870079,,,TRUE,TRUE,,,,,,-RA BR,OVC,900,,,,,,,IFR,,,,,,0.02,,,,,,SPECI,282.0
CYNM 111938Z AUTO 33013G18KT 9SM -SN SCT010 OVC035 M07/M08 A3009 RMK SLP212,CYNM,2020-12-11T19:38:00Z,49.77,-77.78,-7.0,-8.0,330,13,18,9.0,30.088583,1021.2,,TRUE,,,,,,,-SN,SCT,1000,OVC,3500,,,,,VFR,,,,,,,,,,,,SPECI,276.0
CYJF 111938Z 00000KT 2SM -SNSG VV038 M15/M18 A3007 RMK SN8 SLP209,CYJF,2020-12-11T19:38:00Z,60.23,-123.47,-15.0,-18.0,0,0,,2.0,30.070866,1020.9,,,,,TRUE,,,,,OVX,0,,,,,,,LIFR,,,,,,,,,,,3800,SPECI,215.0
CYAH 111938Z AUTO 27007KT 9SM -SN SCT015 BKN024 OVC029 M09/M12 A2996 RMK SLP174,CYAH,2020-12-11T19:38:00Z,53.75,-73.67,-9.0,-12.0,270,7,,9.0,29.958662,1017.4,,TRUE,,,,,,,-SN,SCT,1500,BKN,2400,OVC,2900,,,MVFR,,,,,,,,,,,,SPECI,298.0
PACD 111937Z AUTO 05013G22KT 10SM -RA BKN019 BKN028 OVC039 03/00 A2924 RMK AO2 PK WND 08027/1901 P0000 T00280000 TSNO $,PACD,2020-12-11T19:37:00Z,55.22,-162.72,2.8,0.0,50,13,22,10.0,29.241142,,,TRUE,TRUE,TRUE,,TRUE,,,-RA,BKN,1900,BKN,2800,OVC,3900,,,MVFR,,,,,,0.005,,,,,,SPECI,23.0
LEST 111937Z 30006KT 270V330 3000 RA SCT007 BKN014 10/09 Q1013 TEMPO 6000 NSW,LEST,2020-12-11T19:37:00Z,42.88,-8.42,10.0,9.0,300,6,,1.86,29.911417,,,,,,,,,,RA,SCT,700,BKN,1400,,,,,IFR,,,,,,,,,,,,SPECI,363.0
LEPA 111937Z 04002KT 6000 RA FEW025 SCT029 16/15 Q1003 NOSIG,LEPA,2020-12-11T19:37:00Z,39.55,2.73,16.0,15.0,40,2,,3.73,29.616142,,,,,,TRUE,,,,RA,FEW,2500,SCT,2900,,,,,MVFR,,,,,,,,,,,,SPECI,8.0
KY70 111937Z AUTO 04010KT 10SM OVC012 04/00 A2997 RMK AO2 T00400001,KY70,2020-12-11T19:37:00Z,42.93,-85.07,4.0,0.1,40,10,,10.0,29.970472,,,TRUE,TRUE,,,,,,,OVC,1200,,,,,,,MVFR,,,,,,,,,,,,SPECI,247.0
KXWA 111937Z AUTO 35004KT 1/2SM FZFG OVC003 M06/M07 A3011 RMK AO2 T10561072,KXWA,2020-12-11T19:37:00Z,48.27,-103.75,-5.6,-7.2,350,4,,0.5,30.109253,,,TRUE,TRUE,,,,,,FZFG,OVC,300,,,,,,,LIFR,,,,,,,,,,,,SPECI,717.0
KOXR 111937Z 26007KT 10SM BKN027 15/08 A3013 RMK AO2 T01500083 $,KOXR,2020-12-11T19:37:00Z,34.2,-119.2,15.0,8.3,260,7,,10.0,30.129921,,,,TRUE,TRUE,,,,,,BKN,2700,,,,,,,MVFR,,,,,,,,,,,,SPECI,12.0
KLXT 111937Z AUTO 32006KT 3SM BR OVC003 07/07 A2972 RMK AO2 RAB15E33 P0000 T00670067,KLXT,2020-12-11T19:37:00Z,38.97,-94.37,6.7,6.7,320,6,,3.0,29.719488,,,TRUE,TRUE,,,,,,BR,OVC,300,,,,,,,LIFR,,,,,,0.005,,,,,,SPECI,306.0
KHYX 111937Z AUTO 03010G16KT 10SM OVC017 05/00 A3001 RMK AO2,KHYX,2020-12-11T19:37:00Z,43.43,-83.87,5.0,0.0,30,10,16,10.0,30.008858,,,TRUE,TRUE,,,,,,,OVC,1700,,,,,,,MVFR,,,,,,,,,,,,SPECI,181.0
KDTO 111937Z 26008KT 10SM BKN014 17/14 A2982 RMK AO2 T01720144,KDTO,2020-12-11T19:37:00Z,33.2,-97.2,17.2,14.4,260,8,,10.0,29.819881,,,,TRUE,,,,,,,BKN,1400,,,,,,,MVFR,,,,,,,,,,,,SPECI,199.0
KASE 111937Z 36006KT 6SM -SN BKN019 BKN025 OVC033 M03/M06 A2982 RMK AO2 P0000 T10281061,KASE,2020-12-11T19:37:00Z,39.23,-106.87,-2.8,-6.1,360,6,,6.0,29.819881,,,,TRUE,,,,,,-SN,BKN,1900,BKN,2500,OVC,3300,,,MVFR,,,,,,0.005,,,,,,SPECI,2384.0
ETAD 111937Z AUTO 00000KT 1600 R23/1300VP1500 -DZ BR VV004 02/02 A2929 RMK AO2 VIS 1600V2800 RAE17DZB17E29DZB34 CIG 003 RWY24 SLP925 $,ETAD,2020-12-11T19:37:00Z,49.98,6.7,2.0,2.0,0,0,,0.99,29.291338,992.5,,TRUE,TRUE,TRUE,,,,,-DZ BR,OVX,0,,,,,,,LIFR,,,,,,,,,,,400,METAR,365.0
CZVL 111937Z AUTO 16007KT 1 3/4SM BR OVC003 M08/M09 A3011 RMK SLP250,CZVL,2020-12-11T19:37:00Z,53.67,-113.85,-8.0,-9.0,160,7,,1.75,30.109253,1025.0,,TRUE,,,,,,,BR,OVC,300,,,,,,,LIFR,,,,,,,,,,,,SPECI,685.0
CYVR 111937Z 05007KT 20SM -RA FEW010 BKN016 BKN028 06/04 A3007 RMK SC2SC4SC1 SLP184,CYVR,2020-12-11T19:37:00Z,49.17,-123.17,6.0,4.0,50,7,,20.0,30.070866,1018.4,,,,,,,,,-RA,FEW,1000,BKN,1600,BKN,2800,,,MVFR,,,,,,,,,,,,SPECI,2.0
SBSP 111936Z 19007KT 110V270 7000 -RA FEW015 FEW037TCU OVC040 21/17 Q1017 RERA,SBSP,2020-12-11T19:36:00Z,-23.62,-46.65,21.0,17.0,190,7,,4.35,30.029528,,,,,,,,,,-RA,FEW,1500,FEW,3700,OVC,4000,,,MVFR,,,,,,,,,,,,SPECI,802.0
SASJ 111936Z 09012KT 9000 -TSRA SCT040TCU FEW050CB 39/12 Q1005,SASJ,2020-12-11T19:36:00Z,-24.38,-65.1,39.0,12.0,90,12,,5.59,29.675198,,,,,,,,,,-TSRA,SCT,4000,FEW,5000,,,,,VFR,,,,,,,,,,,,SPECI,913.0
KOGD 111936Z 22008KT 10SM BKN019 OVC046 01/M07 A3001 RMK AO2 T00061067,KOGD,2020-12-11T19:36:00Z,41.2,-112.02,0.6,-6.7,220,8,,10.0,30.008858,,,,TRUE,,,,,,,BKN,1900,OVC,4600,,,,,MVFR,,,,,,,,,,,,SPECI,1356.0
KMWT 111936Z AUTO 00000KT 3SM RA BR SCT029 BKN040 OVC080 14/13 A2981 RMK AO2 P0016 T01440133,KMWT,2020-12-11T19:36:00Z,34.55,-93.58,14.4,13.3,0,0,,3.0,29.811024,,,TRUE,TRUE,,,,,,RA BR,SCT,2900,BKN,4000,OVC,8000,,,MVFR,,,,,,0.16,,,,,,SPECI,220.0
KCQM 111936Z AUTO 00000KT 10SM OVC015 M03/M06 A3015 RMK AO2,KCQM,2020-12-11T19:36:00Z,47.82,-92.68,-3.0,-6.0,0,0,,10.0,30.15059,,,TRUE,TRUE,,,,,,,OVC,1500,,,,,,,MVFR,,,,,,,,,,,,SPECI,406.0
KBZN 111936Z 31003KT 1 3/4SM -SN BR OVC026 M06/M08 A2993 RMK AO2 P0000 T10561078,KBZN,2020-12-11T19:36:00Z,45.78,-111.17,-5.6,-7.8,310,3,,1.75,29.929134,,,,TRUE,,,,,,-SN BR,OVC,2600,,,,,,,IFR,,,,,,0.005,,,,,,SPECI,1349.0
KATY 111936Z AUTO 05011KT 10SM SCT009 M02/M04 A3006 RMK AO2 T10171044,KATY,2020-12-11T19:36:00Z,44.9,-97.15,-1.7,-4.4,50,11,,10.0,30.059055,,,TRUE,TRUE,,,,,,,SCT,900,,,,,,,VFR,,,,,,,,,,,,SPECI,531.0
KAMN 111936Z AUTO 03007KT 10SM OVC019 06/02 A2999 RMK AO2 T00600023,KAMN,2020-12-11T19:36:00Z,43.32,-84.68,6.0,2.3,30,7,,10.0,29.991142,,,TRUE,TRUE,,,,,,,OVC,1900,,,,,,,MVFR,,,,,,,,,,,,SPECI,228.0
KAKO 111936Z AUTO 35011KT 8SM -SN BKN009 BKN021 OVC035 M04/M06 A2989 RMK AO2 P0000 T10391056,KAKO,2020-12-11T19:36:00Z,40.17,-103.22,-3.9,-5.6,350,11,,8.0,29.890747,,,TRUE,TRUE,,,,,,-SN,BKN,900,BKN,2100,OVC,3500,,,IFR,,,,,,0.005,,,,,,SPECI,1431.0
KADC 111936Z AUTO 07007KT 10SM OVC005 M03/M04 A3012 RMK AO2,KADC,2020-12-11T19:36:00Z,46.45,-95.22,-3.0,-4.0,70,7,,10.0,30.121063,,,TRUE,TRUE,,,,,,,OVC,500,,,,,,,IFR,,,,,,,,,,,,SPECI,416.0
CYLW 111936Z AUTO 34005KT 2 1/4SM -SN SCT013 OVC026 01/01 A3003 RMK SLP194,CYLW,2020-12-11T19:36:00Z,49.95,-119.37,1.0,1.0,340,5,,2.25,30.029528,1019.4,,TRUE,,,,,,,-SN,SCT,1300,OVC,2600,,,,,IFR,,,,,,,,,,,,SPECI,420.0
CYGW 111936Z AUTO 30015G21KT 7SM -SN OVC027 M07/M09 A3007 RMK SLP183,CYGW,2020-12-11T19:36:00Z,55.27,-77.77,-7.0,-9.0,300,15,21,7.0,30.070866,1018.3,,TRUE,,,,,,,-SN,OVC,2700,,,,,,,MVFR,,,,,,,,,,,,SPECI,13.0
CYFR 111936Z 09008KT 15SM OVC012 M15/M17 A3024 RMK SC8 SLP259,CYFR,2020-12-11T19:36:00Z,61.17,-113.68,-15.0,-17.0,90,8,,15.0,30.239174,1025.9,,,,,,,,,,OVC,1200,,,,,,,MVFR,,,,,,,,,,,,SPECI,159.0
YPTN 111935Z AUTO 05005KT 9999 VCTS NCD 26/22 Q1009 RETS RF00/0////// VCTS-NE,YPTN,2020-12-11T19:35:00Z,-14.52,132.38,26.0,22.0,50,5,,6.21,29.793306,,,TRUE,,,,,,,VCTS VCTS,CLR,,,,,,,,VFR,,,,,,,,,,,,SPECI,135.0
PAUT 111935Z AUTO 08026G32KT 10SM OVC012 03/02 A2921 RMK AO2 P0001 T00340020 PWINO,PAUT,2020-12-11T19:35:00Z,54.13,-165.6,3.4,2.0,80,26,32,10.0,29.208662,,,TRUE,TRUE,,,,,TRUE,,OVC,1200,,,,,,,MVFR,,,,,,0.01,,,,,,SPECI,25.0
PAKX 111935Z AUTO 00000KT 10SM CLR M12/M13 A2989 RMK AO2,PAKX,2020-12-11T19:35:00Z,,,-12.0,-13.0,0,0,,10.0,29.890747,,,TRUE,TRUE,,,,,,,CLR,,,,,,,,VFR,,,,,,,,,,,,METAR,
PAGS 111935Z AUTO 32004KT 3SM -RA BR BKN008 OVC013 01/00 A3011 RMK AO2 UPE06RAB06 CIG 008V012 P0001 FZRANO,PAGS,2020-12-11T19:35:00Z,58.42,-135.7,1.0,0.0,320,4,,3.0,30.109253,,,TRUE,TRUE,,,,TRUE,,-RA BR,BKN,800,OVC,1300,,,,,IFR,,,,,,0.01,,,,,,METAR,9.0
PAAD 111935Z AUTO 24007KT 3/4SM BR OVC010 M21/M23 A3054 RMK AO2 T12101231,PAAD,2020-12-11T19:35:00Z,70.13,-146.28,-21.0,-23.1,240,7,,0.75,30.540354,,,TRUE,TRUE,,,,,,BR,OVC,1000,,,,,,,LIFR,,,,,,,,,,,,SPECI,8.0
KZPH 111935Z AUTO 16005KT 10SM CLR 22/09 A3013 RMK A02 T02160086,KZPH,2020-12-11T19:35:00Z,28.23,-82.15,21.6,8.6,160,5,,10.0,30.129921,,,TRUE,TRUE,,,,,,,CLR,,,,,,,,VFR,,,,,,,,,,,,SPECI,26.0
KY63 111935Z AUTO 05006KT 10SM OVC004 M03/M04 A3013 RMK AO2 T10311037,KY63,2020-12-11T19:35:00Z,45.98,-96.0,-3.1,-3.7,50,6,,10.0,30.129921,,,TRUE,TRUE,,,,,,,OVC,400,,,,,,,LIFR,,,,,,,,,,,,SPECI,367.0
KY51 111935Z AUTO 05010G18KT 10SM SCT100 02/M01 A2998 RMK AO1 T00201010,KY51,2020-12-11T19:35:00Z,43.58,-90.9,2.0,-1.0,50,10,18,10.0,29.97933,,,TRUE,TRUE,,,,,,,SCT,10000,,,,,,,VFR,,,,,,,,,,,,METAR,390.0
KY49 111935Z AUTO 06003KT 10SM OVC004 M04/M05 A3014 RMK AO2 T10381049,KY49,2020-12-11T19:35:00Z,47.15,-94.65,-3.8,-4.9,60,3,,10.0,30.138779,,,TRUE,TRUE,,,,,,,OVC,400,,,,,,,LIFR,,,,,,,,,,,,SPECI,413.0
KY31 111935Z AUTO 01006KT 10SM OVC020 05/00 A3001 RMK AO2 T00480000,KY31,2020-12-11T19:35:00Z,44.25,-84.18,4.8,0.0,10,6,,10.0,30.008858,,,TRUE,TRUE,,,,,,,OVC,2000,,,,,,,MVFR,,,,,,,,,,,,METAR,264.0
KY23 111935Z AUTO 01006KT 10SM SCT025 02/M03 A3009 RMK AO2 T00201033,KY23,2020-12-11T19:35:00Z,45.3,-91.63,2.0,-3.3,10,6,,10.0,30.088583,,,TRUE,TRUE,,,,,,,SCT,2500,,,,,,,VFR,,,,,,,,,,,,SPECI,322.0
KY19 111935Z AUTO 00000KT M1/4SM FZFG OVC002 M07/M07 A3014 RMK AO2,KY19,2020-12-11T19:35:00Z,46.77,-100.9,-7.0,-7.0,0,0,,0.25,30.138779,,,TRUE,TRUE,,,,,,FZFG,OVC,200,,,,,,,LIFR,,,,,,,,,,,,METAR,591.0
KXSA 111935Z AUTO 19010G14KT 10SM CLR 17/08 A3014 RMK AO2 T01700081,KXSA,2020-12-11T19:35:00Z,37.87,-76.9,17.0,8.1,190,10,14,10.0,30.138779,,,TRUE,TRUE,,,,,,,CLR,,,,,,,,VFR,,,,,,,,,,,,SPECI,41.0
KXNX 111935Z AUTO VRB06G11KT 10SM CLR 18/08 A3003 RMK A01,KXNX,2020-12-11T19:35:00Z,36.38,-86.42,18.0,8.0,0,6,11,10.0,30.029528,,,TRUE,TRUE,,,,,,,CLR,,,,,,,,VFR,,,,,,,,,,,,SPECI,178.0
KXLL 111935Z AUTO 21008KT 10SM CLR 12/05 A3011 RMK AO2,KXLL,2020-12-11T19:35:00Z,40.57,-75.48,12.0,5.0,210,8,,10.0,30.109253,,,TRUE,TRUE,,,,,,,CLR,,,,,,,,VFR,,,,,,,,,,,,SPECI,118.0
KXER 111935Z AUTO 18013KT 10SM FEW029 FEW065 23/16 A3001 RMK A01,KXER,2020-12-11T19:35:00Z,,,23.0,16.0,180,13,,10.0,30.008858,,,TRUE,TRUE,,,,,,,FEW,2900,FEW,6500,,,,,VFR,,,,,,,,,,,,METAR,
KXBP 111935Z AUTO 32008KT 10SM SCT028 SCT037 SCT047 14/09 A2986 RMK AO2 T01440090,KXBP,2020-12-11T19:35:00Z,33.18,-97.83,14.4,9.0,320,8,,10.0,29.861221,,,TRUE,TRUE,,,,,,,SCT,2800,SCT,3700,SCT,4700,,,VFR,,,,,,,,,,,,METAR,256.0
KX60 111935Z AUTO 00000KT 10SM CLR 21/08 A3013 RMK AO2 T02140077,KX60,2020-12-11T19:35:00Z,29.35,-82.47,21.4,7.7,0,0,,10.0,30.129921,,,TRUE,TRUE,,,,,,,CLR,,,,,,,,VFR,,,,,,,,,,,,SPECI,21.0
KX26 111935Z AUTO 03009KT 10SM CLR 22/13 A3012 RMK AO2 T02170133,KX26,2020-12-11T19:35:00Z,27.82,-80.5,21.7,13.3,30,9,,10.0,30.121063,,,TRUE,TRUE,,,,,,,CLR,,,,,,,,VFR,,,,,,,,,,,,SPECI,5.0
KWWR 111935Z AUTO 30008G15KT 10SM OVC026 05/M01 A2989 RMK AO2,KWWR,2020-12-11T19:35:00Z,36.45,-99.52,5.0,-1.0,300,8,15,10.0,29.890747,,,TRUE,TRUE,,,,,,,OVC,2600,,,,,,,MVFR,,,,,,,,,,,,METAR,664.0
KWDR 111935Z AUTO 00000KT 10SM CLR 17/03 A3014 RMK AO2,KWDR,2020-12-11T19:35:00Z,33.98,-83.67,17.0,3.0,0,0,,10.0,30.138779,,,TRUE,TRUE,,,,,,,CLR,,,,,,,,VFR,,,,,,,,,,,,METAR,280.0
KW99 111935Z AUTO 00000KT 10SM CLR 21/03 A3003 RMK AO2 T02060031,KW99,2020-12-11T19:35:00Z,39.0,-79.15,20.6,3.1,0,0,,10.0,30.029528,,,TRUE,TRUE,,,,,,,CLR,,,,,,,,VFR,,,,,,,,,,,,SPECI,288.0
KW96 111935Z AUTO 21006KT 10SM CLR 17/08 A3013 RMK AO1 T01700075,KW96,2020-12-11T19:35:00Z,37.5,-77.12,17.0,7.5,210,6,,10.0,30.129921,,,TRUE,TRUE,,,,,,,CLR,,,,,,,,VFR,,,,,,,,,,,,SPECI,35.0
KW81 111935Z AUTO 24006KT 10SM CLR A3013 RMK AO1,KW81,2020-12-11T19:35:00Z,37.18,-78.1,,,240,6,,10.0,30.129921,,,TRUE,TRUE,,,,,,,CLR,,,,,,,,VFR,,,,,,,,,,,,SPECI,121.0
KW78 111935Z AUTO 22005KT 10SM CLR 18/06 A3014 RMK AO1 T01790057,KW78,2020-12-11T19:35:00Z,36.7,-78.85,17.9,5.7,220,5,,10.0,30.138779,,,TRUE,TRUE,,,,,,,CLR,,,,,,,,VFR,,,,,,,,,,,,SPECI,120.0
KW43 111935Z AUTO 10SM SCT090 BKN120 00/M05 A2997 RMK AO2,KW43,2020-12-11T19:35:00Z,44.67,-104.57,0.0,-5.0,,,,10.0,29.970472,,,TRUE,TRUE,,,,,,,SCT,9000,BKN,12000,,,,,VFR,,,,,,,,,,,,SPECI,1292.0
KW29 111935Z AUTO 18009KT 10SM CLR 13/05 A3012 RMK AO2,KW29,2020-12-11T19:35:00Z,38.98,-76.33,13.0,5.0,180,9,,10.0,30.121063,,,TRUE,TRUE,,,,,,,CLR,,,,,,,,VFR,,,,,,,,,,,,METAR,1.0
KW22 111935Z AUTO 23008KT 10SM CLR 17/01 A3005 RMK AO2,KW22,2020-12-11T19:35:00Z,39.0,-80.27,17.0,1.0,230,8,,10.0,30.050198,,,TRUE,TRUE,,,,,,,CLR,,,,,,,,VFR,,,,,,,,,,,,SPECI,497.0
KW13 111935Z AUTO 25005KT 10SM CLR 17/02 A3008 RMK AO1 T01720019,KW13,2020-12-11T19:35:00Z,38.08,-78.95,17.2,1.9,250,5,,10.0,30.079725,,,TRUE,TRUE,,,,,,,CLR,,,,,,,,VFR,,,,,,,,,,,,SPECI,440.0
KVYS 111935Z AUTO 08009KT 10SM BKN013 OVC075 07/04 A2988 RMK AO2 T00700044,KVYS,2020-12-11T19:35:00Z,41.35,-89.15,7.0,4.4,80,9,,10.0,29.878937,,,TRUE,TRUE,,,,,,,BKN,1300,OVC,7500,,,,,MVFR,,,,,,,,,,,,SPECI,198.0
KVWU 111935Z AUTO 00000KT 10SM OVC004 M06/M07 A3019 RMK AO2,KVWU,2020-12-11T19:35:00Z,48.15,-94.52,-6.0,-7.0,0,0,,10.0,30.188976,,,TRUE,TRUE,,,,,,,OVC,400,,,,,,,LIFR,,,,,,,,,,,,METAR,359.0
KVVV 111935Z AUTO 01009KT 10SM OVC011 M02/M04 A3011 RMK AO2,KVVV,2020-12-11T19:35:00Z,45.3,-96.42,-2.0,-4.0,10,9,,10.0,30.109253,,,TRUE,TRUE,,,,,,,OVC,1100,,,,,,,MVFR,,,,,,,,,,,,SPECI,334.0
KVUJ 111935Z AUTO 22006KT 10SM SCT031 17/10 A3018 RMK AO2 T01710096,KVUJ,2020-12-11T19:35:00Z,35.42,-80.15,17.1,9.6,220,6,,10.0,30.180119,,,TRUE,TRUE,,,,,,,SCT,3100,,,,,,,VFR,,,,,,,,,,,,METAR,174.0
KVTP 111935Z AUTO 24009G19KT 2 1/2SM -SN SCT006 BKN009 OVC019 M07/M07 A2974 RMK AO2,KVTP,2020-12-11T19:35:00Z,37.5,-105.17,-7.0,-7.0,240,9,19,2.5,29.740158,,,TRUE,TRUE,,,,,,-SN,SCT,600,BKN,900,OVC,1900,,,IFR,,,,,,,,,,,,SPECI,3086.0
KVTI 111935Z AUTO 05015KT 7SM -RA OVC011 03/03 A2989 RMK AO2 T00330031,KVTI,2020-12-11T19:35:00Z,42.22,-92.02,3.3,3.1,50,15,,7.0,29.890747,,,TRUE,TRUE,,,,,,-RA,OVC,1100,,,,,,,MVFR,,,,,,,,,,,,SPECI,256.0
KVNW 111935Z AUTO 21007KT 10SM CLR 15/04 A2990 RMK AO2,KVNW,2020-12-11T19:35:00Z,40.87,-84.62,15.0,4.0,210,7,,10.0,29.899607,,,TRUE,TRUE,,,,,,,CLR,,,,,,,,VFR,,,,,,,,,,,,SPECI,238.0
KVNC 111935Z AUTO 08006G12KT 9SM CLR 23/09 A3009 RMK AO2,KVNC,2020-12-11T19:35:00Z,27.07,-82.43,23.0,9.0,80,6,12,9.0,30.088583,,,TRUE,TRUE,,,,,,,CLR,,,,,,,,VFR,,,,,,,,,,,,SPECI,4.0
KVLL 111935Z AUTO 04008KT 7SM CLR 09/03 A2996 RMK AO2 T00910033,KVLL,2020-12-11T19:35:00Z,42.55,-83.18,9.1,3.3,40,8,,7.0,29.958662,,,TRUE,TRUE,,,,,,,CLR,,,,,,,,VFR,,,,,,,,,,,,SPECI,214.0
KVKY 111935Z AUTO 00000KT 10SM CLR 23/13 A3006 RMK A01,KVKY,2020-12-11T19:35:00Z,29.25,-88.43,23.0,13.0,0,0,,10.0,30.059055,,,TRUE,TRUE,,,,,,,CLR,,,,,,,,VFR,,,,,,,,,,,,SPECI,32.0
KVKS 111935Z AUTO 16012G19KT 10SM CLR 22/10 A2994 RMK A01,KVKS,2020-12-11T19:35:00Z,32.23,-90.93,22.0,10.0,160,12,19,10.0,29.940945,,,TRUE,TRUE,,,,,,,CLR,,,,,,,,VFR,,,,,,,,,,,,SPECI,31.0
KVJI 111935Z AUTO 24006KT 10SM CLR 16/M04 A3009 RMK AO2 T01641039,KVJI,2020-12-11T19:35:00Z,36.68,-82.03,16.4,-3.9,240,6,,10.0,30.088583,,,TRUE,TRUE,,,,,,,CLR,,,,,,,,VFR,,,,,,,,,,,,SPECI,636.0
KVGC 111935Z AUTO 17003KT 10SM CLR 11/01 A2999 RMK AO2,KVGC,2020-12-11T19:35:00Z,42.85,-75.57,11.0,1.0,170,3,,10.0,29.991142,,,TRUE,TRUE,,,,,,,CLR,,,,,,,,VFR,,,,,,,,,,,,SPECI,346.0
KVES 111935Z AUTO 20007KT 10SM CLR 16/03 A2991 RMK AO2,KVES,2020-12-11T19:35:00Z,40.2,-84.53,16.0,3.0,200,7,,10.0,29.911417,,,TRUE,TRUE,,,,,,,CLR,,,,,,,,VFR,,,,,,,,,,,,METAR,308.0
KVER 111935Z AUTO 14007KT 10SM OVC026 A2974 RMK AO2,KVER,2020-12-11T19:35:00Z,38.95,-92.68,,,140,7,,10.0,29.740158,,,TRUE,TRUE,,,,,,,OVC,2600,,,,,,,MVFR,,,,,,,,,,,,SPECI,209.0
KVDI 111935Z AUTO 00000KT 10SM CLR 21/04 A3013 RMK AO2,KVDI,2020-12-11T19:35:00Z,32.2,-82.37,21.0,4.0,0,0,,10.0,30.129921,,,TRUE,TRUE,,,,,,,CLR,,,,,,,,VFR,,,,,,,,,,,,METAR,81.0
KVDF 111935Z AUTO 22003KT 10SM CLR 23/09 A3012 RMK AO2,KVDF,2020-12-11T19:35:00Z,28.02,-82.33,23.0,9.0,220,3,,10.0,30.121063,,,TRUE,TRUE,,,,,,,CLR,,,,,,,,VFR,,,,,,,,,,,,SPECI,5.0
KVBW 111935Z AUTO 19008KT 10SM CLR 18/03 A3006 RMK AO1 T01770030,KVBW,2020-12-11T19:35:00Z,38.37,-78.97,17.7,3.0,190,8,,10.0,30.059055,,,TRUE,TRUE,,,,,,,CLR,,,,,,,,VFR,,,,,,,,,,,,SPECI,362.0
KUXL 111935Z AUTO 14012G15KT 10SM SCT070 23/14 A2993 RMK AO2 T02310143,KUXL,2020-12-11T19:35:00Z,30.13,-93.38,23.1,14.3,140,12,15,10.0,29.929134,,,TRUE,TRUE,,,,,,,SCT,7000,,,,,,,VFR,,,,,,,,,,,,SPECI,2.0
KUVA 111935Z AUTO 27005KT 10SM BKN120 23/13 A2988 RMK AO2 T02260131,KUVA,2020-12-11T19:35:00Z,29.22,-99.75,22.6,13.1,270,5,,10.0,29.878937,,,TRUE,TRUE,,,,,,,BKN,12000,,,,,,,VFR,,,,,,,,,,,,SPECI,285.0
KUTA 111935Z AUTO 17011KT 10SM CLR 18/11 A2993 RMK AO2 TSNO,KUTA,2020-12-11T19:35:00Z,34.68,-90.35,18.0,11.0,170,11,,10.0,29.929134,,,TRUE,TRUE,,,TRUE,,,,CLR,,,,,,,,VFR,,,,,,,,,,,,SPECI,58.0
KUOX 111935Z AUTO 19009KT 160V220 10SM CLR 18/10 A2998 RMK AO2 PWINO,KUOX,2020-12-11T19:35:00Z,34.38,-89.53,18.0,10.0,190,9,,10.0,29.97933,,,TRUE,TRUE,,,,,TRUE,,CLR,,,,,,,,VFR,,,,,,,,,,,,SPECI,123.0
KUNU 111935Z AUTO 04010G16KT 10SM SCT019 SCT031 OVC050 02/M02 A3002 RMK AO2 T00181016,KUNU,2020-12-11T19:35:00Z,43.42,-88.7,1.8,-1.6,40,10,16,10.0,30.02067,,,TRUE,TRUE,,,,,,,SCT,1900,SCT,3100,OVC,5000,,,VFR,,,,,,,,,,,,METAR,281.0
KUNI 111935Z AUTO 21009KT 10SM CLR 19/02 A3001 RMK AO2 T01850022,KUNI,2020-12-11T19:35:00Z,39.22,-82.23,18.5,2.2,210,9,,10.0,30.008858,,,TRUE,TRUE,,,,,,,CLR,,,,,,,,VFR,,,,,,,,,,,,SPECI,232.0
KULS 111935Z AUTO 32010KT 210V330 2 1/2SM -SN BKN007 BKN016 OVC022 00/M01 A2986 RMK AO2 VIS 2 1/2V4,KULS,2020-12-11T19:35:00Z,37.6,-101.37,0.0,-1.0,320,10,,2.5,29.861221,,,TRUE,TRUE,,,,,,-SN,BKN,700,BKN,1600,OVC,2200,,,IFR,,,,,,,,,,,,METAR,934.0
KUKT 111935Z AUTO 19007G12KT 10SM CLR 13/05 A3010 RMK A01,KUKT,2020-12-11T19:35:00Z,40.43,-75.38,13.0,5.0,190,7,12,10.0,30.100393,,,TRUE,TRUE,,,,,,,CLR,,,,,,,,VFR,,,,,,,,,,,,SPECI,156.0
KUKL 111935Z AUTO 31008KT 10SM BKN016 06/01 A2977 RMK AO2 T00560009,KUKL,2020-12-11T19:35:00Z,38.3,-95.73,5.6,0.9,310,8,,10.0,29.769686,,,TRUE,TRUE,,,,,,,BKN,1600,,,,,,,MVFR,,,,,,,,,,,,SPECI,357.0
KUCY 111935Z AUTO 19014KT 10SM BKN050 20/10 A2991 RMK A01,KUCY,2020-12-11T19:35:00Z,36.38,-88.98,20.0,10.0,190,14,,10.0,29.911417,,,TRUE,TRUE,,,,,,,BKN,5000,,,,,,,VFR,,,,,,,,,,,,SPECI,97.0
KUBE 111935Z AUTO 02009KT 10SM SCT022 01/M05 A3010 RMK AO2,KUBE,2020-12-11T19:35:00Z,45.5,-91.98,1.0,-5.0,20,9,,10.0,30.100393,,,TRUE,TRUE,,,,,,,SCT,2200,,,,,,,VFR,,,,,,,,,,,,SPECI,376.0
KU69 111935Z AUTO 27014G29KT 10SM SCT055 02/M12 A2989 RMK A01,KU69,2020-12-11T19:35:00Z,,,2.0,-12.0,270,14,29,10.0,29.890747,,,TRUE,TRUE,,,,,,,SCT,5500,,,,,,,VFR,,,,,,,,,,,,METAR,
KU68 111935Z AUTO 28013KT 10SM OVC041 M01/M05 A2993 RMK AO2,KU68,2020-12-11T19:35:00Z,44.92,-108.45,-1.0,-5.0,280,13,,10.0,29.929134,,,TRUE,TRUE,,,,,,,OVC,4100,,,,,,,VFR,,,,,,,,,,,,SPECI,1244.0
KU55 111935Z AUTO 29018G24KT 10SM CLR 03/M17 A3000 RMK A01,KU55,2020-12-11T19:35:00Z,37.85,-112.38,3.0,-17.0,290,18,24,10.0,30.0,,,TRUE,TRUE,,,,,,,CLR,,,,,,,,VFR,,,,,,,,,,,,METAR,2060.0
KU42 111935Z AUTO 06003KT 7SM SCT016 BKN039 OVC090 M01/M02 A3004 RMK AO1 T10071016,KU42,2020-12-11T19:35:00Z,40.62,-111.98,-0.7,-1.6,60,3,,7.0,30.041338,,,TRUE,TRUE,,,,,,,SCT,1600,BKN,3900,OVC,9000,,,VFR,,,,,,,,,,,,METAR,1399.0
KTYQ 111935Z AUTO 18009KT 10SM CLR 15/05 A2987 RMK AO2 T01510050,KTYQ,2020-12-11T19:35:00Z,40.03,-86.25,15.1,5.0,180,9,,10.0,29.870079,,,TRUE,TRUE,,,,,,,CLR,,,,,,,,VFR,,,,,,,,,,,,SPECI,279.0
KTYL 111935Z AUTO 31016G28KT 10SM CLR 13/M18 A3002 RMK AO2,KTYL,2020-12-11T19:35:00Z,34.45,-110.12,13.0,-18.0,310,16,28,10.0,30.02067,,,TRUE,TRUE,,,,,,,CLR,,,,,,,,VFR,,,,,,,,,,,,SPECI,1748.0
KTXW 111935Z AUTO 24007KT 10SM CLR 29/16 A2981 RMK AO2 T02940161,KTXW,2020-12-11T19:35:00Z,26.18,-97.97,29.4,16.1,240,7,,10.0,29.811024,,,TRUE,TRUE,,,,,,,CLR,,,,,,,,VFR,,,,,,,,,,,,SPECI,21.0
KTWM 111935Z AUTO 07007KT 10SM OVC025 M01/M06 A3014 RMK AO2,KTWM,2020-12-11T19:35:00Z,47.05,-91.75,-1.0,-6.0,70,7,,10.0,30.138779,,,TRUE,TRUE,,,,,,,OVC,2500,,,,,,,MVFR,,,,,,,,,,,,METAR,331.0
KTVY 111935Z AUTO 00000KT 10SM SCT038 BKN044 OVC070 01/M03 A3004 RMK AO2,KTVY,2020-12-11T19:35:00Z,40.62,-112.35,1.0,-3.0,0,0,,10.0,30.041338,,,TRUE,TRUE,,,,,,,SCT,3800,BKN,4400,OVC,7000,,,VFR,,,,,,,,,,,,METAR,1310.0
KTVI 111935Z AUTO 00000KT 10SM CLR 20/10 A3014 RMK AO2,KTVI,2020-12-11T19:35:00Z,30.9,-83.88,20.0,10.0,0,0,,10.0,30.138779,,,TRUE,TRUE,,,,,,,CLR,,,,,,,,VFR,,,,,,,,,,,,SPECI,74.0
KTTA 111935Z AUTO 00000KT 10SM CLR 18/08 A3013 RMK AO2 T01760083,KTTA,2020-12-11T19:35:00Z,35.58,-79.1,17.6,8.3,0,0,,10.0,30.129921,,,TRUE,TRUE,,,,,,,CLR,,,,,,,,VFR,,,,,,,,,,,,SPECI,71.0
KTSP 111935Z AUTO 32019KT 10SM CLR 09/M04 A3012 RMK AO2,KTSP,2020-12-11T19:35:00Z,35.13,-118.43,9.0,-4.0,320,19,,10.0,30.121063,,,TRUE,TRUE,,,,,,,CLR,,,,,,,,VFR,,,,,,,,,,,,METAR,1209.0
KTQK 111935Z AUTO 10SM OVC010 00/M02 A2986 RMK AO1 T10051023,KTQK,2020-12-11T19:35:00Z,38.47,-100.88,-0.5,-2.3,,,,10.0,29.861221,,,TRUE,TRUE,,,,,,,OVC,1000,,,,,,,MVFR,,,,,,,,,,,,METAR,906.0
KTQH 111935Z AUTO 27007KT 2SM BR OVC004 11/10 A2979 RMK AO2,KTQH,2020-12-11T19:35:00Z,35.93,-95.0,11.0,10.0,270,7,,2.0,29.790354,,,TRUE,TRUE,,,,,,BR,OVC,400,,,,,,,LIFR,,,,,,,,,,,,SPECI,265.0
KTPF 111935Z AUTO 23004KT 10SM OVC100 22/09 A3012 RMK AO2,KTPF,2020-12-11T19:35:00Z,27.92,-82.45,22.0,9.0,230,4,,10.0,30.121063,,,TRUE,TRUE,,,,,,,OVC,10000,,,,,,,VFR,,,,,,,,,,,,SPECI,1.0
KTOC 111935Z AUTO 00000KT 10SM CLR 18/05 A3012 RMK AO2 T01780048,KTOC,2020-12-11T19:35:00Z,34.6,-83.3,17.8,4.8,0,0,,10.0,30.121063,,,TRUE,TRUE,,,,,,,CLR,,,,,,,,VFR,,,,,,,,,,,,SPECI,292.0
KTOB 111935Z AUTO 03011KT 10SM CLR 02/M02 A3000 RMK AO2 PWINO,KTOB,2020-12-11T19:35:00Z,44.02,-92.82,2.0,-2.0,30,11,,10.0,30.0,,,TRUE,TRUE,,,,,TRUE,,CLR,,,,,,,,VFR,,,,,,,,,,,,SPECI,394.0
KTNU 111935Z AUTO 05012G20KT 3SM BR OVC007 03/03 A2985 RMK A01,KTNU,2020-12-11T19:35:00Z,41.67,-93.02,3.0,3.0,50,12,20,3.0,29.84941,,,TRUE,TRUE,,,,,,BR,OVC,700,,,,,,,IFR,,,,,,,,,,,,SPECI,287.0
KTNB 111935Z AUTO 00000KT 10SM 13/02 A3012 RMK AO2 T01310018,KTNB,2020-12-11T19:35:00Z,36.2,-81.65,13.1,1.8,0,0,,10.0,30.121063,,,TRUE,TRUE,,,,,,,,,,,,,,,,,,,,,,,,,,,SPECI,958.0
KTMK 111935Z AUTO 06006KT 10SM SCT017 OVC025 06/04 A3006 RMK AO2 P0004,KTMK,2020-12-11T19:35:00Z,45.42,-123.82,6.0,4.0,60,6,,10.0,30.059055,,,TRUE,TRUE,,,,,,,SCT,1700,OVC,2500,,,,,MVFR,,,,,,0.04,,,,,,SPECI,8.0
KTME 111935Z AUTO 16012KT 9SM 23/19 A2985 RMK AO2,KTME,2020-12-11T19:35:00Z,29.8,-95.9,23.0,19.0,160,12,,9.0,29.84941,,,TRUE,TRUE,,,,,,,,,,,,,,,,,,,,,,,,,,,METAR,49.0
KTMA 111935Z AUTO 14003KT 10SM CLR 20/07 A3011 RMK AO2 T01950068,KTMA,2020-12-11T19:35:00Z,31.43,-83.48,19.5,6.8,140,3,,10.0,30.109253,,,TRUE,TRUE,,,,,,,CLR,,,,,,,,VFR,,,,,,,,,,,,SPECI,105.0
KTKX 111935Z AUTO 19009G16KT 10SM BKN037 BKN055 BKN070 19/12 A2987 RMK AO2 TSNO,KTKX,2020-12-11T19:35:00Z,36.22,-90.03,19.0,12.0,190,9,16,10.0,29.870079,,,TRUE,TRUE,,,TRUE,,,,BKN,3700,BKN,5500,BKN,7000,,,VFR,,,,,,,,,,,,SPECI,73.0
KTKV 111935Z AUTO 05004KT 10SM SCT024 01/M05 A3008 RMK AO2 T00051053 PWINO,KTKV,2020-12-11T19:35:00Z,45.47,-89.82,0.5,-5.3,50,4,,10.0,30.079725,,,TRUE,TRUE,,,,,TRUE,,SCT,2400,,,,,,,VFR,,,,,,,,,,,,SPECI,449.0
KTKC 111935Z AUTO 02013KT 10SM BKN014 02/M03 A3004 RMK AO2 T00231026,KTKC,2020-12-11T19:35:00Z,44.25,-95.62,2.3,-2.6,20,13,,10.0,30.041338,,,TRUE,TRUE,,,,,,,BKN,1400,,,,,,,MVFR,,,,,,,,,,,,SPECI,408.0
KTIP 111935Z AUTO 24005KT 10SM SCT120 13/05 A2986 RMK AO2 T01310050,KTIP,2020-12-11T19:35:00Z,40.28,-88.15,13.1,5.0,240,5,,10.0,29.861221,,,TRUE,TRUE,,,,,,,SCT,12000,,,,,,,VFR,,,,,,,,,,,,SPECI,224.0
KTIF 111935Z AUTO 36009G16KT 10SM CLR 02/M04 A2995 RMK AO2 T00161039,KTIF,2020-12-11T19:35:00Z,41.97,-100.57,1.6,-3.9,360,9,16,10.0,29.949802,,,TRUE,TRUE,,,,,,,CLR,,,,,,,,VFR,,,,,,,,,,,,SPECI,888.0
KTHA 111935Z AUTO 20008G15KT 10SM FEW037 17/08 A3003 RMK A01,KTHA,2020-12-11T19:35:00Z,35.38,-86.25,17.0,8.0,200,8,15,10.0,30.029528,,,TRUE,TRUE,,,,,,,FEW,3700,,,,,,,VFR,,,,,,,,,,,,SPECI,333.0
KTFP 111935Z AUTO 18010KT 10SM CLR A2981 RMK AO2 PNO,KTFP,2020-12-11T19:35:00Z,27.92,-97.22,,,180,10,,10.0,29.811024,,,TRUE,TRUE,,,,,,,CLR,,,,,,,,VFR,,,,,,,,,,,,METAR,5.0
KTEX 111935Z AUTO 27010G17KT 5SM -SN SCT010 BKN022 OVC040 M04/M08 A2989 RMK AO2,KTEX,2020-12-11T19:35:00Z,37.95,-107.9,-4.0,-8.0,270,10,17,5.0,29.890747,,,TRUE,TRUE,,,,,,-SN,SCT,1000,BKN,2200,OVC,4000,,,MVFR,,,,,,,,,,,,SPECI,2760.0
KTEW 111935Z AUTO 03010G16KT 5SM BR BKN011 05/02 A2994 RMK AO2 T00470023,KTEW,2020-12-11T19:35:00Z,42.57,-84.42,4.7,2.3,30,10,16,5.0,29.940945,,,TRUE,TRUE,,,,,,BR,BKN,1100,,,,,,,MVFR,,,,,,,,,,,,SPECI,281.0
KTDF 111935Z AUTO 23004KT 10SM CLR 17/08 A3016 RMK AO2,KTDF,2020-12-11T19:35:00Z,36.28,-78.98,17.0,8.0,230,4,,10.0,30.159449,,,TRUE,TRUE,,,,,,,CLR,,,,,,,,VFR,,,,,,,,,,,,SPECI,180.0
KTCY 111935Z AUTO 12006KT 10SM CLR 13/03 A3017 RMK A01,KTCY,2020-12-11T19:35:00Z,37.68,-121.43,13.0,3.0,120,6,,10.0,30.171259,,,TRUE,TRUE,,,,,,,CLR,,,,,,,,VFR,,,,,,,,,,,,METAR,51.0
KTBX 111935Z AUTO M1/4SM FG OVC002 A2990 RMK AO2,KTBX,2020-12-11T19:35:00Z,43.47,-108.23,,,,,,0.25,29.899607,,,TRUE,TRUE,,,,,,FG,OVC,200,,,,,,,LIFR,,,,,,,,,,,,SPECI,2230.0
KTBR 111935Z AUTO 20006KT 10SM CLR 20/06 A3014 RMK AO2 T02030055,KTBR,2020-12-11T19:35:00Z,32.48,-81.73,20.3,5.5,200,6,,10.0,30.138779,,,TRUE,TRUE,,,,,,,CLR,,,,,,,,VFR,,,,,,,,,,,,SPECI,54.0
KTAZ 111935Z AUTO 19005KT 10SM SCT120 15/07 A2981 RMK AO2 T01450067,KTAZ,2020-12-11T19:35:00Z,39.53,-89.33,14.5,6.7,190,5,,10.0,29.811024,,,TRUE,TRUE,,,,,,,SCT,12000,,,,,,,VFR,,,,,,,,,,,,METAR,188.0
KT82 111935Z AUTO 25003KT 10SM CLR 19/14 A2987 RMK AO2 T01880135,KT82,2020-12-11T19:35:00Z,30.25,-98.92,18.8,13.5,250,3,,10.0,29.870079,,,TRUE,TRUE,,,,,,,CLR,,,,,,,,VFR,,,,,,,,,,,,METAR,509.0
KT74 111935Z AUTO 15007KT 10SM SCT041 SCT060 OVC110 19/18 A2982 RMK AO2 P0001 T01880178,KT74,2020-12-11T19:35:00Z,30.57,-97.45,18.8,17.8,150,7,,10.0,29.819881,,,TRUE,TRUE,,,,,,,SCT,4100,SCT,6000,OVC,11000,,,VFR,,,,,,0.01,,,,,,SPECI,169.0
KT69 111935Z AUTO 21008G13KT 10SM SCT028 SCT033 BKN040 26/18 A2982 RMK A01,KT69,2020-12-11T19:35:00Z,28.03,-97.55,26.0,18.0,210,8,13,10.0,29.819881,,,TRUE,TRUE,,,,,,,SCT,2800,SCT,3300,BKN,4000,,,VFR,,,,,,,,,,,,METAR,15.0
KT41 111935Z AUTO 12009KT 10SM SCT027 BKN032 OVC048 22/17 A2988 RMK AO2 T02170172,KT41,2020-12-11T19:35:00Z,29.67,-95.07,21.7,17.2,120,9,,10.0,29.878937,,,TRUE,TRUE,,,,,,,SCT,2700,BKN,3200,OVC,4800,,,VFR,,,,,,,,,,,,SPECI,8.0
KT35 111935Z AUTO 18006KT 10SM -RA SCT003 BKN065 OVC110 18/18 A2985 RMK AO2 P0001 T01820175,KT35,2020-12-11T19:35:00Z,30.88,-96.97,18.2,17.5,180,6,,10.0,29.84941,,,TRUE,TRUE,,,,,,-RA,SCT,300,BKN,6500,OVC,11000,,,VFR,,,,,,0.01,,,,,,SPECI,122.0
KT20 111935Z AUTO 14003KT 10SM SCT021 SCT029 23/18 A2983 RMK AO2 T02260184,KT20,2020-12-11T19:35:00Z,29.52,-97.47,22.6,18.4,140,3,,10.0,29.828741,,,TRUE,TRUE,,,,,,,SCT,2100,SCT,2900,,,,,VFR,,,,,,,,,,,,METAR,107.0
KSZY 111935Z AUTO 19011KT 160V230 10SM SCT047 18/09 A2998 RMK A01,KSZY,2020-12-11T19:35:00Z,,,18.0,9.0,190,11,,10.0,29.97933,,,TRUE,TRUE,,,,,,,SCT,4700,,,,,,,VFR,,,,,,,,,,,,SPECI,
KSYN 111935Z AUTO 04011KT 10SM SCT021 03/M02 A3004 RMK AO2 T00321016,KSYN,2020-12-11T19:35:00Z,44.47,-93.02,3.2,-1.6,40,11,,10.0,30.041338,,,TRUE,TRUE,,,,,,,SCT,2100,,,,,,,VFR,,,,,,,,,,,,SPECI,280.0
KSYM 111935Z AUTO 23011G16KT 10SM CLR 18/02 A3002 RMK AO2,KSYM,2020-12-11T19:35:00Z,38.22,-83.58,18.0,2.0,230,11,16,10.0,30.02067,,,TRUE,TRUE,,,,,,,CLR,,,,,,,,VFR,,,,,,,,,,,,SPECI,307.0
KSYI 111935Z AUTO 20009KT 10SM FEW040 17/10 A3003 RMK A01,KSYI,2020-12-11T19:35:00Z,35.57,-86.45,17.0,10.0,200,9,,10.0,30.029528,,,TRUE,TRUE,,,,,,,FEW,4000,,,,,,,VFR,,,,,,,,,,,,SPECI,244.0
KSYF 111935Z AUTO 35011KT 10SM OVC010 M01/M03 A2991 RMK AO2 T10111033 PWINO,KSYF,2020-12-11T19:35:00Z,39.77,-101.8,-1.1,-3.3,350,11,,10.0,29.911417,,,TRUE,TRUE,,,,,TRUE,,OVC,1000,,,,,,,MVFR,,,,,,,,,,,,SPECI,1041.0
KSXU 111935Z AUTO 28022G30KT 10SM SCT065 BKN075 10/M03 A2981 RMK AO2 T00991034,KSXU,2020-12-11T19:35:00Z,34.93,-104.65,9.9,-3.4,280,22,30,10.0,29.811024,,,TRUE,TRUE,,,,,,,SCT,6500,BKN,7500,,,,,VFR,,,,,,,,,,,,METAR,1465.0
KSXK 111935Z AUTO 04020G26KT 10SM CLR 03/01 A2992 RMK AO2,KSXK,2020-12-11T19:35:00Z,42.98,-96.17,3.0,1.0,40,20,26,10.0,29.920275,,,TRUE,TRUE,,,,,,,CLR,,,,,,,,VFR,,,,,,,,,,,,SPECI,430.0
KSWW 111935Z AUTO 29005KT 10SM CLR 16/07 A2989 RMK AO2 T01550066,KSWW,2020-12-11T19:35:00Z,32.47,-100.47,15.5,6.6,290,5,,10.0,29.890747,,,TRUE,TRUE,,,,,,,CLR,,,,,,,,VFR,,,,,,,,,,,,SPECI,718.0
KSVH 111935Z AUTO 00000KT 10SM CLR 17/06 A3012 RMK AO2 T01710064,KSVH,2020-12-11T19:35:00Z,35.75,-80.95,17.1,6.4,0,0,,10.0,30.121063,,,TRUE,TRUE,,,,,,,CLR,,,,,,,,VFR,,,,,,,,,,,,SPECI,286.0
KSVE 111935Z AUTO 00000KT 10SM BKN100 02/M05 A3010 RMK AO2,KSVE,2020-12-11T19:35:00Z,40.37,-120.57,2.0,-5.0,0,0,,10.0,30.100393,,,TRUE,TRUE,,,,,,,BKN,10000,,,,,,,VFR,,,,,,,,,,,,METAR,1263.0
KSVC 111935Z AUTO 28022G28KT 10SM CLR 10/00 A3004 RMK AO2 T00991001,KSVC,2020-12-11T19:35:00Z,32.63,-108.15,9.9,-0.1,280,22,28,10.0,30.041338,,,TRUE,TRUE,,,,,,,CLR,,,,,,,,VFR,,,,,,,,,,,,METAR,1638.0
KSUZ 111935Z AUTO 20008KT 3SM HZ BKN027 OVC033 17/14 A2984 RMK A01,KSUZ,2020-12-11T19:35:00Z,34.58,-92.48,17.0,14.0,200,8,,3.0,29.840551,,,TRUE,TRUE,,,,,,HZ,BKN,2700,OVC,3300,,,,,MVFR,,,,,,,,,,,,SPECI,114.0
KSUW 111935Z AUTO 06006KT 10SM OVC027 01/M04 A3017 RMK AO2 T00101038,KSUW,2020-12-11T19:35:00Z,46.68,-92.1,1.0,-3.8,60,6,,10.0,30.171259,,,TRUE,TRUE,,,,,,,OVC,2700,,,,,,,MVFR,,,,,,,,,,,,METAR,205.0
KSUT 111935Z AUTO 00000KT 10SM OVC050 19/13 A3014 RMK AO2 T01900127,KSUT,2020-12-11T19:35:00Z,33.93,-78.08,19.0,12.7,0,0,,10.0,30.138779,,,TRUE,TRUE,,,,,,,OVC,5000,,,,,,,VFR,,,,,,,,,,,,SPECI,6.0
KSTK 111935Z AUTO 03007KT 7SM BKN015 OVC026 00/M03 A2992 RMK AO2,KSTK,2020-12-11T19:35:00Z,40.62,-103.27,0.0,-3.0,30,7,,7.0,29.920275,,,TRUE,TRUE,,,,,,,BKN,1500,OVC,2600,,,,,MVFR,,,,,,,,,,,,SPECI,1228.0
KSTF 111935Z AUTO 19008KT 10SM BKN041 OVC049 18/11 A3003 RMK AO2,KSTF,2020-12-11T19:35:00Z,33.43,-88.85,18.0,11.0,190,8,,10.0,30.029528,,,TRUE,TRUE,,,,,,,BKN,4100,OVC,4900,,,,,VFR,,,,,,,,,,,,METAR,99.0
KSTE 111935Z AUTO 05008KT 10SM OVC120 00/M05 A3005 RMK AO2 T00031046,KSTE,2020-12-11T19:35:00Z,44.55,-89.53,0.3,-4.6,50,8,,10.0,30.050198,,,TRUE,TRUE,,,,,,,OVC,12000,,,,,,,VFR,,,,,,,,,,,,SPECI,335.0
KSRR 111935Z AUTO 27021G36KT 10SM CLR 07/M06 A2994 RMK AO2,KSRR,2020-12-11T19:35:00Z,33.47,-105.52,7.0,-6.0,270,21,36,10.0,29.940945,,,TRUE,TRUE,,,,,,,CLR,,,,,,,,VFR,,,,,,,,,,,,SPECI,2063.0
KSRE 111935Z AUTO 28008KT 10SM OVC023 09/04 A2982 RMK AO2,KSRE,2020-12-11T19:35:00Z,35.27,-96.68,9.0,4.0,280,8,,10.0,29.819881,,,TRUE,TRUE,,,,,,,OVC,2300,,,,,,,MVFR,,,,,,,,,,,,SPECI,306.0
KSRB 111935Z AUTO 22009KT 10SM CLR 18/06 A3003 RMK A01,KSRB,2020-12-11T19:35:00Z,36.05,-85.53,18.0,6.0,220,9,,10.0,30.029528,,,TRUE,TRUE,,,,,,,CLR,,,,,,,,VFR,,,,,,,,,,,,SPECI,303.0
KSPF 111935Z AUTO 06008KT 10SM FEW075 BKN085 00/M08 A2998 RMK AO2 PWINO,KSPF,2020-12-11T19:35:00Z,44.47,-103.78,0.0,-8.0,60,8,,10.0,29.97933,,,TRUE,TRUE,,,,,TRUE,,FEW,7500,BKN,8500,,,,,VFR,,,,,,,,,,,,METAR,1191.0
KSPB 111935Z AUTO 00000KT 5SM -RA BR BKN017 OVC027 06/04 A3007 RMK AO2 P0007 T00560044,KSPB,2020-12-11T19:35:00Z,45.77,-122.87,5.6,4.4,0,0,,5.0,30.070866,,,TRUE,TRUE,,,,,,-RA BR,BKN,1700,OVC,2700,,,,,MVFR,,,,,,0.07,,,,,,METAR,15.0
KSPA 111935Z AUTO 00000KT 10SM CLR 17/05 A3012 RMK AO2,KSPA,2020-12-11T19:35:00Z,34.92,-81.95,17.0,5.0,0,0,,10.0,30.121063,,,TRUE,TRUE,,,,,,,CLR,,,,,,,,VFR,,,,,,,,,,,,SPECI,242.0
KSOW 111935Z AUTO 21015G22KT 10SM CLR 07/00 A3005 RMK AO2,KSOW,2020-12-11T19:35:00Z,34.27,-110.0,7.0,0.0,210,15,22,10.0,30.050198,,,TRUE,TRUE,,,,,,,CLR,,,,,,,,VFR,,,,,,,,,,,,SPECI,1954.0
KSOA 111935Z AUTO VRB04G14KT 10SM CLR 22/05 A2991 RMK AO2,KSOA,2020-12-11T19:35:00Z,30.58,-100.65,22.0,5.0,0,4,14,10.0,29.911417,,,TRUE,TRUE,,,,,,,CLR,,,,,,,,VFR,,,,,,,,,,,,SPECI,654.0
KSNL 111935Z AUTO 31012KT 10SM BKN110 09/01 A2982 RMK AO2 T00860009,KSNL,2020-12-11T19:35:00Z,35.35,-96.95,8.6,0.9,310,12,,10.0,29.819881,,,TRUE,TRUE,,,,,,,BKN,11000,,,,,,,VFR,,,,,,,,,,,,SPECI,327.0
KSNK 111935Z AUTO 00000KT 10SM CLR 13/04 A2988 RMK AO2 T01250042,KSNK,2020-12-11T19:35:00Z,32.7,-100.95,12.5,4.2,0,0,,10.0,29.878937,,,TRUE,TRUE,,,,,,,CLR,,,,,,,,VFR,,,,,,,,,,,,SPECI,738.0
KSNH 111935Z AUTO 19012KT 10SM CLR 18/10 A2998 RMK A01,KSNH,2020-12-11T19:35:00Z,35.17,-88.22,18.0,10.0,190,12,,10.0,29.97933,,,TRUE,TRUE,,,,,,,CLR,,,,,,,,VFR,,,,,,,,,,,,SPECI,142.0
KSNC 111935Z AUTO 19009G18KT 8SM CLR 10/05 A3011 RMK AO2,KSNC,2020-12-11T19:35:00Z,41.38,-72.5,10.0,5.0,190,9,18,8.0,30.109253,,,TRUE,TRUE,,,,,,,CLR,,,,,,,,VFR,,,,,,,,,,,,SPECI,114.0
KSMS 111935Z AUTO 21004KT 10SM CLR 20/10 A3015 RMK AO2,KSMS,2020-12-11T19:35:00Z,34.0,-80.37,20.0,10.0,210,4,,10.0,30.15059,,,TRUE,TRUE,,,,,,,CLR,,,,,,,,VFR,,,,,,,,,,,,SPECI,53.0
KSME 111935Z AUTO 19005KT 10SM CLR 17/00 A3004 RMK AO2,KSME,2020-12-11T19:35:00Z,37.05,-84.62,17.0,0.0,190,5,,10.0,30.041338,,,TRUE,TRUE,,,,,,,CLR,,,,,,,,VFR,,,,,,,,,,,,METAR,279.0
KSMD 111935Z AUTO 19006KT 10SM CLR 14/05 A2989 RMK A01,KSMD,2020-12-11T19:35:00Z,41.15,-85.15,14.0,5.0,190,6,,10.0,29.890747,,,TRUE,TRUE,,,,,,,CLR,,,,,,,,VFR,,,,,,,,,,,,METAR,252.0
KSLR 111935Z AUTO 23007KT 10SM RA OVC006 17/17 A2986 RMK AO2 P0001 T01670167,KSLR,2020-12-11T19:35:00Z,33.17,-95.62,16.7,16.7,230,7,,10.0,29.861221,,,TRUE,TRUE,,,,,,RA,OVC,600,,,,,,,IFR,,,,,,0.01,,,,,,SPECI,144.0
KSLO 111935Z AUTO 00000KT 10SM SCT031 BKN070 20/11 A2984 RMK AO2 T02000111,KSLO,2020-12-11T19:35:00Z,38.65,-88.97,20.0,11.1,0,0,,10.0,29.840551,,,TRUE,TRUE,,,,,,,SCT,3100,BKN,7000,,,,,VFR,,,,,,,,,,,,SPECI,173.0
KSLH 111935Z AUTO 33007G14KT 10SM SCT020 03/00 A3004 RMK AO2,KSLH,2020-12-11T19:35:00Z,45.65,-84.52,3.0,0.0,330,7,14,10.0,30.041338,,,TRUE,TRUE,,,,,,,SCT,2000,,,,,,,VFR,,,,,,,,,,,,METAR,193.0
KSLB 111935Z AUTO 06021KT 10SM SCT019 BKN030 04/00 A2986 RMK AO2,KSLB,2020-12-11T19:35:00Z,42.6,-95.23,4.0,0.0,60,21,,10.0,29.861221,,,TRUE,TRUE,,,,,,,SCT,1900,BKN,3000,,,,,MVFR,,,,,,,,,,,,METAR,450.0
KSJX 111935Z AUTO 01009G15KT 10SM BKN022 02/M03 A3007 RMK AO2 T00211030,KSJX,2020-12-11T19:35:00Z,45.7,-85.57,2.1,-3.0,10,9,15,10.0,30.070866,,,TRUE,TRUE,,,,,,,BKN,2200,,,,,,,MVFR,,,,,,,,,,,,METAR,202.0
KSJS 111935Z AUTO 24004KT 10SM CLR 19/02 A3003 RMK AO2 T01890024,KSJS,2020-12-11T19:35:00Z,37.75,-82.63,18.9,2.4,240,4,,10.0,30.029528,,,TRUE,TRUE,,,,,,,CLR,,,,,,,,VFR,,,,,,,,,,,,SPECI,359.0
KSIF 111935Z AUTO 21004KT 10SM CLR 18/04 A3013 RMK AO2 T01790043,KSIF,2020-12-11T19:35:00Z,36.43,-79.85,17.9,4.3,210,4,,10.0,30.129921,,,TRUE,TRUE,,,,,,,CLR,,,,,,,,VFR,,,,,,,,,,,,SPECI,206.0
KSHL 111935Z AUTO 04019KT 10SM BKN110 03/M02 A2992 RMK AO2,KSHL,2020-12-11T19:35:00Z,43.22,-95.83,3.0,-2.0,40,19,,10.0,29.920275,,,TRUE,TRUE,,,,,,,BKN,11000,,,,,,,VFR,,,,,,,,,,,,SPECI,430.0
KSHD 111935Z AUTO 20007KT 10SM CLR 18/03 A3009 RMK AO2 T01800028,KSHD,2020-12-11T19:35:00Z,38.27,-78.9,18.0,2.8,200,7,,10.0,30.088583,,,TRUE,TRUE,,,,,,,CLR,,,,,,,,VFR,,,,,,,,,,,,SPECI,360.0
KSGS 111935Z AUTO 01008KT 10SM SCT022 03/M03 A3008 RMK AO2 T00281026 PWINO,KSGS,2020-12-11T19:35:00Z,44.87,-93.03,2.8,-2.6,10,8,,10.0,30.079725,,,TRUE,TRUE,,,,,TRUE,,SCT,2200,,,,,,,VFR,,,,,,,,,,,,METAR,250.0
KSFY 111935Z AUTO 05013G16KT 10SM RA OVC011 04/03 A2991 RMK AO2 P0006,KSFY,2020-12-11T19:35:00Z,42.05,-90.12,4.0,3.0,50,13,16,10.0,29.911417,,,TRUE,TRUE,,,,,,RA,OVC,1100,,,,,,,MVFR,,,,,,0.06,,,,,,METAR,188.0
KSFQ 111935Z AUTO 17009KT 10SM SCT034 20/12 A3016 RMK AO2 T01950120,KSFQ,2020-12-11T19:35:00Z,36.68,-76.6,19.5,12.0,170,9,,10.0,30.159449,,,TRUE,TRUE,,,,,,,SCT,3400,,,,,,,VFR,,,,,,,,,,,,SPECI,19.0
KSEZ 111935Z AUTO 18007KT 10SM BKN015 BKN021 08/03 A3008 RMK AO2,KSEZ,2020-12-11T19:35:00Z,34.85,-111.78,8.0,3.0,180,7,,10.0,30.079725,,,TRUE,TRUE,,,,,,,BKN,1500,BKN,2100,,,,,MVFR,,,,,,,,,,,,SPECI,1455.0
KSEP 111935Z AUTO 23009G15KT 10SM SCT018 SCT024 20/14 A2985 RMK AO2 T02030139,KSEP,2020-12-11T19:35:00Z,32.22,-98.17,20.3,13.9,230,9,15,10.0,29.84941,,,TRUE,TRUE,,,,,,,SCT,1800,SCT,2400,,,,,VFR,,,,,,,,,,,,SPECI,399.0
KSEM 111935Z AUTO 13004KT 9SM CLR 20/11 A3007 RMK AO2,KSEM,2020-12-11T19:35:00Z,32.35,-86.98,20.0,11.0,130,4,,9.0,30.070866,,,TRUE,TRUE,,,,,,,CLR,,,,,,,,VFR,,,,,,,,,,,,SPECI,48.0
KSEF 111935Z AUTO 10003KT 10SM BKN060 22/10 A3011 RMK AO2 T02220100,KSEF,2020-12-11T19:35:00Z,27.45,-81.35,22.2,10.0,100,3,,10.0,30.109253,,,TRUE,TRUE,,,,,,,BKN,6000,,,,,,,VFR,,,,,,,,,,,,SPECI,17.0
KSDC 111935Z AUTO 00000KT 10SM BKN100 11/02 A2998 RMK AO2,KSDC,2020-12-11T19:35:00Z,43.23,-77.12,11.0,2.0,0,0,,10.0,29.97933,,,TRUE,TRUE,,,,,,,BKN,10000,,,,,,,VFR,,,,,,,,,,,,METAR,127.0
KSDA 111935Z AUTO 04010KT 10SM OVC010 04/04 A2979 RMK AO2,KSDA,2020-12-11T19:35:00Z,40.75,-95.42,4.0,4.0,40,10,,10.0,29.790354,,,TRUE,TRUE,,,,,,,OVC,1000,,,,,,,MVFR,,,,,,,,,,,,METAR,293.0
KSCX 111935Z AUTO VRB06G14KT 10SM CLR 16/04 A3005 RMK A01,KSCX,2020-12-11T19:35:00Z,36.45,-84.58,16.0,4.0,0,6,14,10.0,30.050198,,,TRUE,TRUE,,,,,,,CLR,,,,,,,,VFR,,,,,,,,,,,,SPECI,462.0
KSCR 111935Z AUTO 20007KT 10SM CLR 18/09 A3014 RMK AO2 T01770090,KSCR,2020-12-11T19:35:00Z,35.7,-79.5,17.7,9.0,200,7,,10.0,30.138779,,,TRUE,TRUE,,,,,,,CLR,,,,,,,,VFR,,,,,,,,,,,,SPECI,182.0
KSCD 111935Z AUTO 24007KT 10SM SCT038 19/10 A3009 RMK AO2 T01920101,KSCD,2020-12-11T19:35:00Z,33.17,-86.3,19.2,10.1,240,7,,10.0,30.088583,,,TRUE,TRUE,,,,,,,SCT,3800,,,,,,,VFR,,,,,,,,,,,,SPECI,164.0
KSBS 111935Z AUTO 22007KT 10SM OVC027 M02/M07 A2983 RMK AO1 T10191067,KSBS,2020-12-11T19:35:00Z,40.52,-106.87,-1.9,-6.7,220,7,,10.0,29.828741,,,TRUE,TRUE,,,,,,,OVC,2700,,,,,,,MVFR,,,,,,,,,,,,METAR,2097.0
KSBO 111935Z AUTO 26005KT 10SM CLR 21/06 A3014 RMK AO2,KSBO,2020-12-11T19:35:00Z,32.62,-82.37,21.0,6.0,260,5,,10.0,30.138779,,,TRUE,TRUE,,,,,,,CLR,,,,,,,,VFR,,,,,,,,,,,,SPECI,98.0
KSAA 111935Z AUTO 25010G15KT 10SM SCT013 BKN026 OVC034 M02/M06 A2984 RMK AO2,KSAA,2020-12-11T19:35:00Z,41.45,-106.8,-2.0,-6.0,250,10,15,10.0,29.840551,,,TRUE,TRUE,,,,,,,SCT,1300,BKN,2600,OVC,3400,,,MVFR,,,,,,,,,,,,SPECI,2093.0
KS52 111935Z AUTO 00000KT 10SM SCT036 SCT080 BKN110 M02/M02 A3004 RMK AO2 T10201024,KS52,2020-12-11T19:35:00Z,48.42,-120.15,-2.0,-2.4,0,0,,10.0,30.041338,,,TRUE,TRUE,,,,,,,SCT,3600,SCT,8000,BKN,11000,,,VFR,,,,,,,,,,,,METAR,517.0
KS39 111935Z AUTO 08005KT 10SM FEW045 FEW060 OVC090 01/M04 A3004 RMK AO2,KS39,2020-12-11T19:35:00Z,44.28,-120.9,1.0,-4.0,80,5,,10.0,30.041338,,,TRUE,TRUE,,,,,,,FEW,4500,FEW,6000,OVC,9000,,,VFR,,,,,,,,,,,,SPECI,987.0
KS33 111935Z AUTO 10SM SCT022 SCT030 OVC050 03/M02 A3005 RMK AO2,KS33,2020-12-11T19:35:00Z,44.67,-121.15,3.0,-2.0,,,,10.0,30.050198,,,TRUE,TRUE,,,,,,,SCT,2200,SCT,3000,OVC,5000,,,VFR,,,,,,,,,,,,SPECI,739.0
KS25 111935Z AUTO 00000KT 1/4SM FZFG OVC001 M07/M06 A3013 RMK AO2 PWINO,KS25,2020-12-11T19:35:00Z,47.8,-103.25,-7.0,-6.0,0,0,,0.25,30.129921,,,TRUE,TRUE,,,,,TRUE,FZFG,OVC,100,,,,,,,LIFR,,,,,,,,,,,,SPECI,632.0
KS21 111935Z AUTO 19007G13KT 10SM SCT033 OVC040 01/M05 A3005 RMK AO2,KS21,2020-12-11T19:35:00Z,43.88,-121.45,1.0,-5.0,190,7,13,10.0,30.050198,,,TRUE,TRUE,,,,,,,SCT,3300,OVC,4000,,,,,VFR,,,,,,,,,,,,METAR,1269.0
KRZT 111935Z AUTO 20006G09KT 10SM CLR 17/00 A2998 RMK AO2 PWINO,KRZT,2020-12-11T19:35:00Z,39.43,-83.02,17.0,0.0,200,6,9,10.0,29.97933,,,TRUE,TRUE,,,,,TRUE,,CLR,,,,,,,,VFR,,,,,,,,,,,,SPECI,217.0
KRZN 111935Z AUTO 05008G15KT 10SM OVC021 01/M04 A3013 RMK AO2 T00111040,KRZN,2020-12-11T19:35:00Z,45.82,-92.37,1.1,-4.0,50,8,15,10.0,30.129921,,,TRUE,TRUE,,,,,,,OVC,2100,,,,,,,MVFR,,,,,,,,,,,,METAR,301.0
KRZL 111935Z AUTO 33007KT 10SM CLR 08/04 A2987 RMK AO2,KRZL,2020-12-11T19:35:00Z,40.95,-87.18,8.0,4.0,330,7,,10.0,29.870079,,,TRUE,TRUE,,,,,,,CLR,,,,,,,,VFR,,,,,,,,,,,,SPECI,210.0
KRYW 111935Z AUTO 24003KT 5SM BR OVC003 18/18 A2986 RMK AO2 T01800175,KRYW,2020-12-11T19:35:00Z,30.5,-97.97,18.0,17.5,240,3,,5.0,29.861221,,,TRUE,TRUE,,,,,,BR,OVC,300,,,,,,,LIFR,,,,,,,,,,,,SPECI,370.0
KRYV 111935Z AUTO 04010G16KT 10SM -RA SCT014 OVC031 01/01 A2999 RMK AO2 P0001 T00140014,KRYV,2020-12-11T19:35:00Z,43.17,-88.72,1.4,1.4,40,10,16,10.0,29.991142,,,TRUE,TRUE,,,,,,-RA,SCT,1400,OVC,3100,,,,,VFR,,,,,,0.01,,,,,,SPECI,249.0
KRWV 111935Z AUTO 22005KT 10SM OVC003 18/18 A2987 RMK AO2 T01810176,KRWV,2020-12-11T19:35:00Z,30.52,-96.7,18.1,17.6,220,5,,10.0,29.870079,,,TRUE,TRUE,,,,,,,OVC,300,,,,,,,LIFR,,,,,,,,,,,,METAR,116.0
KRVL 111935Z AUTO 09003KT 5SM HZ CLR 11/02 A3003 RMK AO2,KRVL,2020-12-11T19:35:00Z,40.68,-77.63,11.0,2.0,90,3,,5.0,30.029528,,,TRUE,TRUE,,,,,,HZ,CLR,,,,,,,,MVFR,,,,,,,,,,,,SPECI,250.0
KRVJ 111935Z AUTO 21005KT 10SM CLR 21/07 A3013 RMK AO2 T02100075,KRVJ,2020-12-11T19:35:00Z,32.07,-82.15,21.0,7.5,210,5,,10.0,30.129921,,,TRUE,TRUE,,,,,,,CLR,,,,,,,,VFR,,,,,,,,,,,,METAR,60.0
KRUQ 111935Z AUTO 21004KT 10SM CLR 17/07 A3013 RMK AO2 T01670065,KRUQ,2020-12-11T19:35:00Z,35.65,-80.52,16.7,6.5,210,4,,10.0,30.129921,,,TRUE,TRUE,,,,,,,CLR,,,,,,,,VFR,,,,,,,,,,,,SPECI,231.0
KRUG 111935Z AUTO 00000KT 3/4SM BR OVC002 M06/M06 A3015 RMK AO2,KRUG,2020-12-11T19:35:00Z,48.38,-100.02,-6.0,-6.0,0,0,,0.75,30.15059,,,TRUE,TRUE,,,,,,BR,OVC,200,,,,,,,LIFR,,,,,,,,,,,,METAR,469.0
KRTS 111935Z AUTO VRB04KT 10SM CLR 03/M08 A3005 RMK AO2,KRTS,2020-12-11T19:35:00Z,39.67,-119.88,3.0,-8.0,0,4,,10.0,30.050198,,,TRUE,TRUE,,,,,,,CLR,,,,,,,,VFR,,,,,,,,,,,,SPECI,1537.0
KRSV 111935Z AUTO 19012KT 10SM CLR 17/08 A2988 RMK AO2 T01700084,KRSV,2020-12-11T19:35:00Z,39.02,-87.65,17.0,8.4,190,12,,10.0,29.878937,,,TRUE,TRUE,,,,,,,CLR,,,,,,,,VFR,,,,,,,,,,,,SPECI,139.0
KRSN 111935Z AUTO 19010KT 10SM SCT037 SCT060 SCT070 20/12 A2994 RMK AO2 T02030120,KRSN,2020-12-11T19:35:00Z,32.52,-92.58,20.3,12.0,190,10,,10.0,29.940945,,,TRUE,TRUE,,,,,,,SCT,3700,SCT,6000,SCT,7000,,,VFR,,,,,,,,,,,,SPECI,86.0
KRRT 111935Z AUTO 00000KT 10SM OVC007 M05/M07 A3020 RMK AO2,KRRT,2020-12-11T19:35:00Z,48.93,-95.33,-5.0,-7.0,0,0,,10.0,30.200787,,,TRUE,TRUE,,,,,,,OVC,700,,,,,,,IFR,,,,,,,,,,,,METAR,327.0
KRRL 111935Z AUTO 06009KT 10SM SCT025 02/M04 A3006 RMK AO2 T00151043 TSNO,KRRL,2020-12-11T19:35:00Z,45.2,-89.72,1.5,-4.3,60,9,,10.0,30.059055,,,TRUE,TRUE,,,TRUE,,,,SCT,2500,,,,,,,VFR,,,,,,,,,,,,METAR,397.0
KRPJ 111935Z AUTO 05018KT 10SM -RA SCT012 BKN050 OVC075 05/04 A2988 RMK AO2 T00470039,KRPJ,2020-12-11T19:35:00Z,41.88,-89.08,4.7,3.9,50,18,,10.0,29.878937,,,TRUE,TRUE,,,,,,-RA,SCT,1200,BKN,5000,OVC,7500,,,VFR,,,,,,,,,,,,SPECI,234.0
KRPD 111935Z AUTO 02010KT 10SM SCT022 02/M03 A3011 RMK AO2 T00151031,KRPD,2020-12-11T19:35:00Z,45.42,-91.77,1.5,-3.1,20,10,,10.0,30.109253,,,TRUE,TRUE,,,,,,,SCT,2200,,,,,,,VFR,,,,,,,,,,,,METAR,334.0
KROX 111935Z AUTO 09003KT 10SM OVC006 M01/M08 A3019 RMK AO2 TSNO,KROX,2020-12-11T19:35:00Z,48.85,-95.7,-1.0,-8.0,90,3,,10.0,30.188976,,,TRUE,TRUE,,,TRUE,,,,OVC,600,,,,,,,IFR,,,,,,,,,,,,METAR,320.0
KROS 111935Z AUTO 02009G14KT 10SM OVC020 01/M04 A3012 RMK AO2 T00051037,KROS,2020-12-11T19:35:00Z,45.7,-92.95,0.5,-3.7,20,9,14,10.0,30.121063,,,TRUE,TRUE,,,,,,,OVC,2000,,,,,,,MVFR,,,,,,,,,,,,SPECI,282.0
KRNV 111935Z AUTO 19012G19KT 10SM CLR 19/12 A2994 RMK AO2 T01910119,KRNV,2020-12-11T19:35:00Z,33.77,-90.75,19.1,11.9,190,12,19,10.0,29.940945,,,TRUE,TRUE,,,,,,,CLR,,,,,,,,VFR,,,,,,,,,,,,SPECI,42.0
KRNP 111935Z AUTO 03008KT 10SM OVC012 05/02 A2998 RMK AO2 T00530022,KRNP,2020-12-11T19:35:00Z,43.0,-84.13,5.3,2.2,30,8,,10.0,29.97933,,,TRUE,TRUE,,,,,,,OVC,1200,,,,,,,MVFR,,,,,,,,,,,,METAR,224.0
KRNH 111935Z AUTO 05011KT 10SM CLR 03/M04 A3009 RMK AO2 T00271039,KRNH,2020-12-11T19:35:00Z,45.15,-92.53,2.7,-3.9,50,11,,10.0,30.088583,,,TRUE,TRUE,,,,,,,CLR,,,,,,,,VFR,,,,,,,,,,,,SPECI,302.0
KRNC 111935Z AUTO 22007KT 10SM CLR 18/06 A3003 RMK A01,KRNC,2020-12-11T19:35:00Z,35.7,-85.85,18.0,6.0,220,7,,10.0,30.029528,,,TRUE,TRUE,,,,,,,CLR,,,,,,,,VFR,,,,,,,,,,,,SPECI,310.0
KRMY 111935Z AUTO 03005KT 10SM CLR 09/02 A2991 RMK AO2 T00850023,KRMY,2020-12-11T19:35:00Z,42.25,-84.95,8.5,2.3,30,5,,10.0,29.911417,,,TRUE,TRUE,,,,,,,CLR,,,,,,,,VFR,,,,,,,,,,,,METAR,285.0
KRMN 111935Z AUTO 20008KT 10SM CLR 18/M04 A3015 RMK AO2 T01761041,KRMN,2020-12-11T19:35:00Z,38.4,-77.45,17.6,-4.1,200,8,,10.0,30.15059,,,TRUE,TRUE,,,,,,,CLR,,,,,,,,VFR,,,,,,,,,,,,SPECI,50.0
KRLD 111935Z AUTO 23004KT 10SM OVC080 06/01 A3009 RMK AO2 T00560011,KRLD,2020-12-11T19:35:00Z,46.3,-119.3,5.6,1.1,230,4,,10.0,30.088583,,,TRUE,TRUE,,,,,,,OVC,8000,,,,,,,VFR,,,,,,,,,,,,SPECI,118.0
KRKW 111935Z AUTO VRB06KT 10SM CLR 14/04 A3007 RMK A01,KRKW,2020-12-11T19:35:00Z,35.92,-84.68,14.0,4.0,0,6,,10.0,30.070866,,,TRUE,TRUE,,,,,,,CLR,,,,,,,,VFR,,,,,,,,,,,,SPECI,505.0
KRKR 111935Z AUTO 00000KT 10SM -RA OVC019 15/13 A2980 RMK AO2 P0001,KRKR,2020-12-11T19:35:00Z,35.02,-94.62,15.0,13.0,0,0,,10.0,29.799213,,,TRUE,TRUE,,,,,,-RA,OVC,1900,,,,,,,MVFR,,,,,,0.01,,,,,,SPECI,136.0
KRID 111935Z AUTO 18014KT 10SM CLR 16/07 A2993 RMK AO2,KRID,2020-12-11T19:35:00Z,39.75,-84.85,16.0,7.0,180,14,,10.0,29.929134,,,TRUE,TRUE,,,,,,,CLR,,,,,,,,VFR,,,,,,,,,,,,METAR,346.0
KRHP 111935Z AUTO 00000KT 10SM CLR 18/04 A3007 RMK AO2 T01800038,KRHP,2020-12-11T19:35:00Z,35.18,-83.85,18.0,3.8,0,0,,10.0,30.070866,,,TRUE,TRUE,,,,,,,CLR,,,,,,,,VFR,,,,,,,,,,,,SPECI,515.0
KRGK 111935Z AUTO 08007KT 10SM CLR 03/M03 A3006 RMK AO2,KRGK,2020-12-11T19:35:00Z,44.58,-92.48,3.0,-3.0,80,7,,10.0,30.059055,,,TRUE,TRUE,,,,,,,CLR,,,,,,,,VFR,,,,,,,,,,,,METAR,238.0
KRGA 111935Z AUTO 21006KT 10SM CLR 18/05 A3002 RMK AO2,KRGA,2020-12-11T19:35:00Z,37.63,-84.33,18.0,5.0,210,6,,10.0,30.02067,,,TRUE,TRUE,,,,,,,CLR,,,,,,,,VFR,,,,,,,,,,,,SPECI,301.0
KRFI 111935Z AUTO 22005KT 4SM SCT006 BKN016 OVC026 17/16 A2987 RMK AO2 T01650155,KRFI,2020-12-11T19:35:00Z,32.15,-94.85,16.5,15.5,220,5,,4.0,29.870079,,,TRUE,TRUE,,,,,,,SCT,600,BKN,1600,OVC,2600,,,MVFR,,,,,,,,,,,,SPECI,133.0
KREG 111935Z AUTO 19009G15KT 10SM OVC055 23/10 A3000 RMK AO2 T02300101,KREG,2020-12-11T19:35:00Z,30.17,-90.93,23.0,10.1,190,9,15,10.0,30.0,,,TRUE,TRUE,,,,,,,OVC,5500,,,,,,,VFR,,,,,,,,,,,,SPECI,3.0
KRDK 111935Z AUTO 04015KT 10SM -UP OVC010 03/03 A2980 RMK AO2,KRDK,2020-12-11T19:35:00Z,41.02,-95.27,3.0,3.0,40,15,,10.0,29.799213,,,TRUE,TRUE,,,,,,UP,OVC,1000,,,,,,,MVFR,,,,,,,,,,,,METAR,317.0
KRCZ 111935Z AUTO 19003KT 10SM CLR 19/09 A3013 RMK AO2 T01900085,KRCZ,2020-12-11T19:35:00Z,34.88,-79.77,19.0,8.5,190,3,,10.0,30.129921,,,TRUE,TRUE,,,,,,,CLR,,,,,,,,VFR,,,,,,,,,,,,SPECI,110.0
KRCX 111935Z AUTO 03009KT 10SM 03/M03 A3010 RMK AO2 T00261034,KRCX,2020-12-11T19:35:00Z,45.5,-91.0,2.6,-3.4,30,9,,10.0,30.100393,,,TRUE,TRUE,,,,,,,,,,,,,,,,,,,,,,,,,,,METAR,373.0
KRCV 111935Z AUTO 36011KT 1/4SM SN BKN004 OVC009 M04/M06 A2980 RMK AO2 T10371056,KRCV,2020-12-11T19:35:00Z,37.72,-106.35,-3.7,-5.6,360,11,,0.25,29.799213,,,TRUE,TRUE,,,,,,SN,BKN,400,OVC,900,,,,,LIFR,,,,,,,,,,,,SPECI,2418.0
KRCM 111935Z AUTO 33003KT 2 1/2SM BR OVC010 10/08 A2972 RMK AO2,KRCM,2020-12-11T19:35:00Z,38.78,-93.8,10.0,8.0,330,3,,2.5,29.719488,,,TRUE,TRUE,,,,,,BR,OVC,1000,,,,,,,IFR,,,,,,,,,,,,METAR,242.0
KRBO 111935Z AUTO 24008G15KT 10SM SCT032 27/18 A2982 RMK AO2 T02720183,KRBO,2020-12-11T19:35:00Z,27.78,-97.68,27.2,18.3,240,8,15,10.0,29.819881,,,TRUE,TRUE,,,,,,,SCT,3200,,,,,,,VFR,,,,,,,,,,,,SPECI,24.0
KRAW 111935Z AUTO 19006KT 10SM RA OVC018 12/11 A2973 RMK AO2 T01190110,KRAW,2020-12-11T19:35:00Z,38.35,-93.35,11.9,11.0,190,6,,10.0,29.731298,,,TRUE,TRUE,,,,,,RA,OVC,1800,,,,,,,MVFR,,,,,,,,,,,,METAR,285.0
KRAS 111935Z AUTO 15010KT 7SM HZ BKN055 22/19 A2984 RMK AO2 T02210193,KRAS,2020-12-11T19:35:00Z,27.82,-97.08,22.1,19.3,150,10,,7.0,29.840551,,,TRUE,TRUE,,,,,,HZ,BKN,5500,,,,,,,VFR,,,,,,,,,,,,SPECI,3.0
KPZZ 111935Z AUTO 14010KT 9SM FEW026 22/17 A2999 RMK A01,KPZZ,2020-12-11T19:35:00Z,28.43,-91.03,22.0,17.0,140,10,,9.0,29.991142,,,TRUE,TRUE,,,,,,,FEW,2600,,,,,,,VFR,,,,,,,,,,,,SPECI,25.0
KPZQ 111935Z AUTO 36008KT 10SM OVC019 04/00 A3005 RMK AO2 T00360002,KPZQ,2020-12-11T19:35:00Z,45.4,-83.82,3.6,0.2,360,8,,10.0,30.050198,,,TRUE,TRUE,,,,,,,OVC,1900,,,,,,,MVFR,,,,,,,,,,,,SPECI,199.0
KPYX 111935Z AUTO 33009KT 10SM SCT022 BKN028 OVC065 04/M01 A2985 RMK AO2 T00411012,KPYX,2020-12-11T19:35:00Z,36.42,-100.75,4.1,-1.2,330,9,,10.0,29.84941,,,TRUE,TRUE,,,,,,,SCT,2200,BKN,2800,OVC,6500,,,MVFR,,,,,,,,,,,,SPECI,890.0
KPXE 111935Z AUTO 22005KT 10SM CLR 20/05 A3011 RMK AO2 T01980050,KPXE,2020-12-11T19:35:00Z,32.52,-83.77,19.8,5.0,220,5,,10.0,30.109253,,,TRUE,TRUE,,,,,,,CLR,,,,,,,,VFR,,,,,,,,,,,,SPECI,126.0
KPWC 111935Z AUTO 08004KT 10SM OVC005 M02/M04 A3017 RMK AO2,KPWC,2020-12-11T19:35:00Z,46.72,-94.38,-2.0,-4.0,80,4,,10.0,30.171259,,,TRUE,TRUE,,,,,,,OVC,500,,,,,,,IFR,,,,,,,,,,,,SPECI,394.0
KPVW 111935Z AUTO 31004KT 10SM CLR 08/00 A2985 RMK AO2 T00810000,KPVW,2020-12-11T19:35:00Z,34.17,-101.72,8.1,0.0,310,4,,10.0,29.84941,,,TRUE,TRUE,,,,,,,CLR,,,,,,,,VFR,,,,,,,,,,,,SPECI,1029.0
KPVJ 111935Z AUTO 31005KT 10SM OVC110 10/04 A2983 RMK AO2 T00950043,KPVJ,2020-12-11T19:35:00Z,34.72,-97.22,9.5,4.3,310,5,,10.0,29.828741,,,TRUE,TRUE,,,,,,,OVC,11000,,,,,,,VFR,,,,,,,,,,,,SPECI,287.0
KPVF 111935Z AUTO 23005KT 10SM CLR 07/00 A3016 RMK AO1,KPVF,2020-12-11T19:35:00Z,38.72,-120.75,7.0,0.0,230,5,,10.0,30.159449,,,TRUE,TRUE,,,,,,,CLR,,,,,,,,VFR,,,,,,,,,,,,SPECI,788.0
KPVE 111935Z AUTO 19010G16KT 10SM CLR 18/09 A2997 RMK A01,KPVE,2020-12-11T19:35:00Z,35.65,-88.2,18.0,9.0,190,10,16,10.0,29.970472,,,TRUE,TRUE,,,,,,,CLR,,,,,,,,VFR,,,,,,,,,,,,SPECI,146.0
KPVB 111935Z AUTO 05013G18KT 10SM BKN011 BKN025 OVC033 01/01 A2994 RMK AO1 P0002 T00140014,KPVB,2020-12-11T19:35:00Z,42.68,-90.43,1.4,1.4,50,13,18,10.0,29.940945,,,TRUE,TRUE,,,,,,,BKN,1100,BKN,2500,OVC,3300,,,MVFR,,,,,,0.02,,,,,,SPECI,311.0
KPUJ 111935Z AUTO 18003KT 10SM CLR 18/02 A3009 RMK AO2,KPUJ,2020-12-11T19:35:00Z,33.92,-84.93,18.0,2.0,180,3,,10.0,30.088583,,,TRUE,TRUE,,,,,,,CLR,,,,,,,,VFR,,,,,,,,,,,,SPECI,385.0
KPTT 111935Z AUTO 33012KT 10SM OVC016 03/M01 A2984 RMK AO2 T00301010,KPTT,2020-12-11T19:35:00Z,37.7,-98.75,3.0,-1.0,330,12,,10.0,29.840551,,,TRUE,TRUE,,,,,,,OVC,1600,,,,,,,MVFR,,,,,,,,,,,,SPECI,594.0
KPTS 111935Z AUTO 26005KT 7SM BKN016 OVC025 09/07 A2974 RMK AO2 T00850067,KPTS,2020-12-11T19:35:00Z,37.45,-94.73,8.5,6.7,260,5,,7.0,29.740158,,,TRUE,TRUE,,,,,,,BKN,1600,OVC,2500,,,,,MVFR,,,,,,,,,,,,SPECI,286.0
KPTD 111935Z AUTO 23008KT 10SM CLR 09/01 A2997 RMK AO2,KPTD,2020-12-11T19:35:00Z,44.68,-74.95,9.0,1.0,230,8,,10.0,29.970472,,,TRUE,TRUE,,,,,,,CLR,,,,,,,,VFR,,,,,,,,,,,,SPECI,144.0
KPTB 111935Z AUTO 20006KT 10SM CLR 18/08 A3014 RMK AO2 T01800077,KPTB,2020-12-11T19:35:00Z,37.17,-77.52,18.0,7.7,200,6,,10.0,30.138779,,,TRUE,TRUE,,,,,,,CLR,,,,,,,,VFR,,,,,,,,,,,,METAR,56.0
KPSO 111935Z AUTO 23010G15KT 3SM -SN OVC013 00/M03 A2984 RMK AO2 T10041033,KPSO,2020-12-11T19:35:00Z,37.28,-107.05,-0.4,-3.3,230,10,15,3.0,29.840551,,,TRUE,TRUE,,,,,,-SN,OVC,1300,,,,,,,MVFR,,,,,,,,,,,,SPECI,2332.0
KPSN 111935Z AUTO 17004KT 10SM -DZ SCT004 BKN039 OVC080 16/16 A2985 RMK AO2 P0002 T01680168,KPSN,2020-12-11T19:35:00Z,31.78,-95.7,16.8,16.8,170,4,,10.0,29.84941,,,TRUE,TRUE,,,,,,-DZ,SCT,400,BKN,3900,OVC,8000,,,VFR,,,,,,0.02,,,,,,SPECI,124.0
KPSK 111935Z AUTO 25003KT 10SM CLR 17/03 A3011 RMK AO2 T01650032,KPSK,2020-12-11T19:35:00Z,37.13,-80.67,16.5,3.2,250,3,,10.0,30.109253,,,TRUE,TRUE,,,,,,,CLR,,,,,,,,VFR,,,,,,,,,,,,METAR,629.0
KPRS 111935Z AUTO 17005G16KT 10SM CLR 19/03 A3000 RMK AO2 T01920026,KPRS,2020-12-11T19:35:00Z,29.63,-104.35,19.2,2.6,170,5,16,10.0,30.0,,,TRUE,TRUE,,,,,,,CLR,,,,,,,,VFR,,,,,,,,,,,,SPECI,890.0
KPRO 111935Z AUTO 06010G15KT 10SM -RA OVC008 03/01 A2986 RMK AO2 T00270013,KPRO,2020-12-11T19:35:00Z,41.83,-94.17,2.7,1.3,60,10,15,10.0,29.861221,,,TRUE,TRUE,,,,,,-RA,OVC,800,,,,,,,IFR,,,,,,,,,,,,METAR,308.0
KPRG 111935Z 10SM CLR 17/08 A2987 RMK AO2 T01670083,KPRG,2020-12-11T19:35:00Z,39.7,-87.67,16.7,8.3,,,,10.0,29.870079,,,,TRUE,,,,,,,CLR,,,,,,,,VFR,,,,,,,,,,,,SPECI,197.0
KPQN 111935Z 06015G19KT 10SM 02/M02 A3000 RMK AO2,KPQN,2020-12-11T19:35:00Z,43.98,-96.28,2.0,-2.0,60,15,19,10.0,30.0,,,,TRUE,,,,,,,,,,,,,,,,,,,,,,,,,,,SPECI,529.0
KPPQ 111935Z AUTO 05003KT 10SM SCT047 OVC070 11/09 A2981 RMK AO2 T01050093,KPPQ,2020-12-11T19:35:00Z,39.63,-90.78,10.5,9.3,50,3,,10.0,29.811024,,,TRUE,TRUE,,,,,,,SCT,4700,OVC,7000,,,,,VFR,,,,,,,,,,,,SPECI,215.0
KPPO 111935Z AUTO 09004KT 10SM CLR 08/04 A2989 RMK AO2 T00820041,KPPO,2020-12-11T19:35:00Z,41.57,-86.73,8.2,4.1,90,4,,10.0,29.890747,,,TRUE,TRUE,,,,,,,CLR,,,,,,,,VFR,,,,,,,,,,,,SPECI,242.0
KPPA 111935Z AUTO 33008KT 10SM SCT023 OVC050 06/M01 A2986 RMK AO2 T00551010,KPPA,2020-12-11T19:35:00Z,35.62,-101.0,5.5,-1.0,330,8,,10.0,29.861221,,,TRUE,TRUE,,,,,,,SCT,2300,OVC,5000,,,,,VFR,,,,,,,,,,,,SPECI,989.0
KPOY 111935Z AUTO 32008KT 5SM BR OVC003 M04/M05 A2988 RMK AO2,KPOY,2020-12-11T19:35:00Z,44.87,-108.8,-4.0,-5.0,320,8,,5.0,29.878937,,,TRUE,TRUE,,,,,,BR,OVC,300,,,,,,,LIFR,,,,,,,,,,,,SPECI,1547.0
KPOV 111935Z AUTO 23006KT 10SM CLR 14/01 A2994 RMK AO2 T01420009 PWINO,KPOV,2020-12-11T19:35:00Z,41.22,-81.25,14.2,0.9,230,6,,10.0,29.940945,,,TRUE,TRUE,,,,,TRUE,,CLR,,,,,,,,VFR,,,,,,,,,,,,SPECI,363.0
KPNT 111935Z AUTO 07012KT 3SM RA BKN012 BKN022 OVC070 08/06 A2989 RMK AO2 T00750057,KPNT,2020-12-11T19:35:00Z,40.92,-88.62,7.5,5.7,70,12,,3.0,29.890747,,,TRUE,TRUE,,,,,,RA,BKN,1200,BKN,2200,OVC,7000,,,MVFR,,,,,,,,,,,,METAR,199.0
KPNM 111935Z AUTO 03008KT 10SM OVC015 01/M03 A3012 RMK AO2,KPNM,2020-12-11T19:35:00Z,45.53,-93.6,1.0,-3.0,30,8,,10.0,30.121063,,,TRUE,TRUE,,,,,,,OVC,1500,,,,,,,MVFR,,,,,,,,,,,,METAR,298.0
KPMV 111935Z AUTO 03011G14KT 10SM OVC011 04/01 A2981 RMK AO2 T00350007,KPMV,2020-12-11T19:35:00Z,40.95,-95.92,3.5,0.7,30,11,14,10.0,29.811024,,,TRUE,TRUE,,,,,,,OVC,1100,,,,,,,MVFR,,,,,,,,,,,,SPECI,365.0
KPMU 111935Z AUTO 17006KT 10SM CLR 19/11 A2995 RMK AO2,KPMU,2020-12-11T19:35:00Z,34.37,-89.9,19.0,11.0,170,6,,10.0,29.949802,,,TRUE,TRUE,,,,,,,CLR,,,,,,,,VFR,,,,,,,,,,,,SPECI,67.0
KPMH 111935Z AUTO 21007KT 160V230 10SM CLR 20/01 A3001 RMK AO2 T01950012,KPMH,2020-12-11T19:35:00Z,38.83,-82.85,19.5,1.2,210,7,,10.0,30.008858,,,TRUE,TRUE,,,,,,,CLR,,,,,,,,VFR,,,,,,,,,,,,METAR,200.0
KPLU 111935Z AUTO 00000KT 10SM FEW055 OVC075 07/04 A3006 RMK AO2,KPLU,2020-12-11T19:35:00Z,47.1,-122.28,7.0,4.0,0,0,,10.0,30.059055,,,TRUE,TRUE,,,,,,,FEW,5500,OVC,7500,,,,,VFR,,,,,,,,,,,,SPECI,164.0
KPLR 111935Z AUTO 19005KT 10SM CLR 19/09 A3009 RMK A01,KPLR,2020-12-11T19:35:00Z,33.57,-86.25,19.0,9.0,190,5,,10.0,30.088583,,,TRUE,TRUE,,,,,,,CLR,,,,,,,,VFR,,,,,,,,,,,,METAR,145.0
KPLD 111935Z AUTO 21007KT 10SM CLR 16/01 A2989 RMK AO2,KPLD,2020-12-11T19:35:00Z,40.45,-84.98,16.0,1.0,210,7,,10.0,29.890747,,,TRUE,TRUE,,,,,,,CLR,,,,,,,,VFR,,,,,,,,,,,,SPECI,282.0
KPJC 111935Z AUTO 18005KT 10SM CLR 16/01 A2998 RMK AO2,KPJC,2020-12-11T19:35:00Z,40.8,-80.17,16.0,1.0,180,5,,10.0,29.97933,,,TRUE,TRUE,,,,,,,CLR,,,,,,,,VFR,,,,,,,,,,,,METAR,273.0
KPIM 111935Z AUTO 19009KT 10SM CLR 19/05 A3011 RMK AO2 T01940045,KPIM,2020-12-11T19:35:00Z,32.83,-84.88,19.4,4.5,190,9,,10.0,30.109253,,,TRUE,TRUE,,,,,,,CLR,,,,,,,,VFR,,,,,,,,,,,,SPECI,274.0
KPHT 111935Z AUTO 18011G17KT 10SM FEW038 18/10 A2994 RMK A01,KPHT,2020-12-11T19:35:00Z,36.33,-88.38,18.0,10.0,180,11,17,10.0,29.940945,,,TRUE,TRUE,,,,,,,FEW,3800,,,,,,,VFR,,,,,,,,,,,,SPECI,172.0
KPHN 111935Z AUTO 36006KT 7SM SCT014 07/03 A2997 RMK AO2,KPHN,2020-12-11T19:35:00Z,42.92,-82.52,7.0,3.0,360,6,,7.0,29.970472,,,TRUE,TRUE,,,,,,,SCT,1400,,,,,,,VFR,,,,,,,,,,,,METAR,195.0
KPGV 111935Z AUTO 16005KT 10SM SCT035 SCT046 SCT060 21/12 A3016 RMK AO2,KPGV,2020-12-11T19:35:00Z,35.63,-77.4,21.0,12.0,160,5,,10.0,30.159449,,,TRUE,TRUE,,,,,,,SCT,3500,SCT,4600,SCT,6000,,,VFR,,,,,,,,,,,,SPECI,6.0
KPEZ 111935Z AUTO 00000KT 10SM SCT024 25/17 A2984 RMK AO2 T02480166,KPEZ,2020-12-11T19:35:00Z,28.95,-98.52,24.8,16.6,0,0,,10.0,29.840551,,,TRUE,TRUE,,,,,,,SCT,2400,,,,,,,VFR,,,,,,,,,,,,SPECI,126.0
KPEX 111935Z AUTO 04010G14KT 10SM OVC009 M01/M02 A3010 RMK AO2,KPEX,2020-12-11T19:35:00Z,45.37,-94.73,-1.0,-2.0,40,10,14,10.0,30.100393,,,TRUE,TRUE,,,,,,,OVC,900,,,,,,,IFR,,,,,,,,,,,,METAR,359.0
KPEA 111935Z AUTO 05005KT 3SM RA OVC008 03/03 A2985 RMK AO2 T00330028,KPEA,2020-12-11T19:35:00Z,41.4,-92.95,3.3,2.8,50,5,,3.0,29.84941,,,TRUE,TRUE,,,,,,RA,OVC,800,,,,,,,IFR,,,,,,,,,,,,METAR,264.0
KPDC 111935Z AUTO 00000KT 4SM RA CLR 02/00 A2997 RMK AO2 P0002 T00151001,KPDC,2020-12-11T19:35:00Z,43.02,-91.12,1.5,-0.1,0,0,,4.0,29.970472,,,TRUE,TRUE,,,,,,RA,CLR,,,,,,,,MVFR,,,,,,0.02,,,,,,METAR,201.0
KPCZ 111935Z AUTO 04007KT 10SM BKN120 02/M03 A3005 RMK AO2 T00231033,KPCZ,2020-12-11T19:35:00Z,44.33,-89.02,2.3,-3.3,40,7,,10.0,30.050198,,,TRUE,TRUE,,,,,,,BKN,12000,,,,,,,VFR,,,,,,,,,,,,METAR,248.0
KPCW 111935Z AUTO 21005KT 10SM CLR 13/05 A2992 RMK AO2,KPCW,2020-12-11T19:35:00Z,41.52,-82.87,13.0,5.0,210,5,,10.0,29.920275,,,TRUE,TRUE,,,,,,,CLR,,,,,,,,VFR,,,,,,,,,,,,SPECI,179.0
KPCM 111935Z AUTO 09005KT 10SM SCT050 23/09 A3014 RMK AO2,KPCM,2020-12-11T19:35:00Z,28.0,-82.17,23.0,9.0,90,5,,10.0,30.138779,,,TRUE,TRUE,,,,,,,SCT,5000,,,,,,,VFR,,,,,,,,,,,,SPECI,43.0
KPCD 111935Z AUTO 20011G15KT 180V260 10SM BKN031 BKN045 18/11 A2982 RMK AO2 T01770110,KPCD,2020-12-11T19:35:00Z,37.87,-89.87,17.7,11.0,200,11,15,10.0,29.819881,,,TRUE,TRUE,,,,,,,BKN,3100,BKN,4500,,,,,VFR,,,,,,,,,,,,SPECI,112.0
KPBX 111935Z AUTO 00000KT 10SM CLR 19/02 A3003 RMK AO2 T01890019,KPBX,2020-12-11T19:35:00Z,37.57,-82.57,18.9,1.9,0,0,,10.0,30.029528,,,TRUE,TRUE,,,,,,,CLR,,,,,,,,VFR,,,,,,,,,,,,SPECI,447.0
KPBH 111935Z AUTO 04008G15KT 10SM SCT025 00/M05 A3008 RMK AO2 T00041047,KPBH,2020-12-11T19:35:00Z,45.7,-90.4,0.4,-4.7,40,8,15,10.0,30.079725,,,TRUE,TRUE,,,,,,,SCT,2500,,,,,,,VFR,,,,,,,,,,,,METAR,445.0
KPAN 111935Z AUTO 27004KT 10SM BKN024 OVC029 08/01 A3010 RMK AO2,KPAN,2020-12-11T19:35:00Z,34.25,-111.33,8.0,1.0,270,4,,10.0,30.100393,,,TRUE,TRUE,,,,,,,BKN,2400,OVC,2900,,,,,MVFR,,,,,,,,,,,,METAR,1575.0
KPAE 111935Z 15006KT 10SM SCT013 OVC020 06/03 A3007 RMK AO2 T00560028,KPAE,2020-12-11T19:35:00Z,47.92,-122.28,5.6,2.8,150,6,,10.0,30.070866,,,,TRUE,,,,,,,SCT,1300,OVC,2000,,,,,MVFR,,,,,,,,,,,,METAR,166.0
KOZW 111935Z AUTO 36006KT 5SM HZ CLR 06/03 A2995 RMK AO2 T00640032,KOZW,2020-12-11T19:35:00Z,42.62,-83.98,6.4,3.2,360,6,,5.0,29.949802,,,TRUE,TRUE,,,,,,HZ,CLR,,,,,,,,MVFR,,,,,,,,,,,,SPECI,288.0
KOZS 111935Z AUTO 14006KT 7SM -RA SCT031 BKN050 OVC065 12/11 A2976 RMK AO2,KOZS,2020-12-11T19:35:00Z,37.97,-92.68,12.0,11.0,140,6,,7.0,29.760826,,,TRUE,TRUE,,,,,,-RA,SCT,3100,BKN,5000,OVC,6500,,,VFR,,,,,,,,,,,,SPECI,321.0
KOZA 111935Z AUTO 28018G29KT 10SM CLR 22/01 A2990 RMK AO2,KOZA,2020-12-11T19:35:00Z,30.73,-101.2,22.0,1.0,280,18,29,10.0,29.899607,,,TRUE,TRUE,,,,,,,CLR,,,,,,,,VFR,,,,,,,,,,,,SPECI,721.0
KOYM 111935Z AUTO 23006KT 10SM CLR 12/03 A3001 RMK AO2 PWINO,KOYM,2020-12-11T19:35:00Z,41.42,-78.5,12.0,3.0,230,6,,10.0,30.008858,,,TRUE,TRUE,,,,,TRUE,,CLR,,,,,,,,VFR,,,,,,,,,,,,SPECI,582.0
KOXV 111935Z AUTO 06008G14KT 2SM -RA OVC006 04/03 A2983 RMK AO2,KOXV,2020-12-11T19:35:00Z,41.28,-93.12,4.0,3.0,60,8,14,2.0,29.828741,,,TRUE,TRUE,,,,,,-RA,OVC,600,,,,,,,IFR,,,,,,,,,,,,METAR,280.0
KOXI 111935Z AUTO 32005KT 10SM CLR 09/03 A2988 RMK AO1,KOXI,2020-12-11T19:35:00Z,41.33,-86.67,9.0,3.0,320,5,,10.0,29.878937,,,TRUE,TRUE,,,,,,,CLR,,,,,,,,VFR,,,,,,,,,,,,SPECI,208.0
KOXD 111935Z AUTO 20009G15KT 10SM CLR 17/07 A2993 RMK AO2 T01670070,KOXD,2020-12-11T19:35:00Z,39.5,-84.78,16.7,7.0,200,9,15,10.0,29.929134,,,TRUE,TRUE,,,,,,,CLR,,,,,,,,VFR,,,,,,,,,,,,METAR,317.0
KOWP 111935Z AUTO 28007KT 250V320 10SM OVC036 10/04 A2980 RMK AO2 T00980039 PWINO,KOWP,2020-12-11T19:35:00Z,36.18,-96.15,9.8,3.9,280,7,,10.0,29.799213,,,TRUE,TRUE,,,,,TRUE,,OVC,3600,,,,,,,VFR,,,,,,,,,,,,METAR,267.0
KOWI 111935Z AUTO 30008KT 10SM OVC014 07/04 A2973 RMK AO2,KOWI,2020-12-11T19:35:00Z,38.53,-95.25,7.0,4.0,300,8,,10.0,29.731298,,,TRUE,TRUE,,,,,,,OVC,1400,,,,,,,MVFR,,,,,,,,,,,,SPECI,292.0
KOVS 111935Z AUTO 06005KT 3SM -RA BR OVC008 02/01 A2998 RMK AO2 RAE12B31SNB12E31 CIG 006V012 P0003 T00170011,KOVS,2020-12-11T19:35:00Z,43.15,-90.68,1.7,1.1,60,5,,3.0,29.97933,,,TRUE,TRUE,,,,,,-RA BR,OVC,800,,,,,,,IFR,,,,,,0.03,,,,,,METAR,205.0
KOVL 111935Z AUTO 05010G15KT 10SM CLR 01/M02 A3007 RMK AO2,KOVL,2020-12-11T19:35:00Z,44.78,-95.03,1.0,-2.0,50,10,15,10.0,30.070866,,,TRUE,TRUE,,,,,,,CLR,,,,,,,,VFR,,,,,,,,,,,,SPECI,329.0
KOSC 111935Z AUTO 01010KT 10SM OVC015 05/02 A3002 RMK AO2 T00500016,KOSC,2020-12-11T19:35:00Z,44.45,-83.4,5.0,1.6,10,10,,10.0,30.02067,,,TRUE,TRUE,,,,,,,OVC,1500,,,,,,,MVFR,,,,,,,,,,,,METAR,191.0
KOSA 111935Z AUTO 18006KT 10SM SCT010 17/16 A2984 RMK AO1 P0002 T01700161,KOSA,2020-12-11T19:35:00Z,33.1,-94.97,17.0,16.1,180,6,,10.0,29.840551,,,TRUE,TRUE,,,,,,,SCT,1000,,,,,,,VFR,,,,,,0.02,,,,,,SPECI,108.0
KORS 111935Z AUTO 18008KT 10SM BKN037 BKN046 BKN070 08/05 A3006 RMK AO2,KORS,2020-12-11T19:35:00Z,48.7,-122.92,8.0,5.0,180,8,,10.0,30.059055,,,TRUE,TRUE,,,,,,,BKN,3700,BKN,4600,BKN,7000,,,VFR,,,,,,,,,,,,SPECI,7.0
KORK 111935Z AUTO 19007KT 10SM BKN027 BKN035 OVC055 17/12 A2983 RMK AO2,KORK,2020-12-11T19:35:00Z,34.83,-92.25,17.0,12.0,190,7,,10.0,29.828741,,,TRUE,TRUE,,,,,,,BKN,2700,BKN,3500,OVC,5500,,,MVFR,,,,,,,,,,,,SPECI,166.0
KORG 111935Z AUTO 17011G15KT 10SM SCT031 BKN039 OVC050 23/15 A2994 RMK AO2 T02300147,KORG,2020-12-11T19:35:00Z,30.07,-93.8,23.0,14.7,170,11,15,10.0,29.940945,,,TRUE,TRUE,,,,,,,SCT,3100,BKN,3900,OVC,5000,,,VFR,,,,,,,,,,,,METAR,2.0
KOQN 111935Z AUTO 21004KT 10SM CLR 13/05 A3010 RMK AO2,KOQN,2020-12-11T19:35:00Z,39.98,-75.58,13.0,5.0,210,4,,10.0,30.100393,,,TRUE,TRUE,,,,,,,CLR,,,,,,,,VFR,,,,,,,,,,,,SPECI,141.0
KOPN 111935Z AUTO 20005KT 10SM CLR 20/05 A3012 RMK AO2,KOPN,2020-12-11T19:35:00Z,32.95,-84.27,20.0,5.0,200,5,,10.0,30.121063,,,TRUE,TRUE,,,,,,,CLR,,,,,,,,VFR,,,,,,,,,,,,SPECI,241.0
KOPL 111935Z AUTO 17014G18KT 10SM SCT050 22/13 A2996 RMK AO2 T02180125,KOPL,2020-12-11T19:35:00Z,30.55,-92.1,21.8,12.5,170,14,18,10.0,29.958662,,,TRUE,TRUE,,,,,,,SCT,5000,,,,,,,VFR,,,,,,,,,,,,METAR,22.0
KOOA 111935Z AUTO 07013KT 3SM -RA OVC007 05/05 A2984 RMK AO2 P0001 T00500045,KOOA,2020-12-11T19:35:00Z,41.23,-92.5,5.0,4.5,70,13,,3.0,29.840551,,,TRUE,TRUE,,,,,,-RA,OVC,700,,,,,,,IFR,,,,,,0.01,,,,,,METAR,256.0
KONZ 111935Z AUTO 08008KT 7SM CLR 09/04 A2993 RMK AO2 T00930038,KONZ,2020-12-11T19:35:00Z,42.1,-83.15,9.3,3.8,80,8,,7.0,29.929134,,,TRUE,TRUE,,,,,,,CLR,,,,,,,,VFR,,,,,,,,,,,,SPECI,179.0
KONX 111935Z AUTO 15007KT 10SM SCT038 SCT045 SCT050 18/12 A3016 RMK AO2 T01770123,KONX,2020-12-11T19:35:00Z,36.4,-76.02,17.7,12.3,150,7,,10.0,30.159449,,,TRUE,TRUE,,,,,,,SCT,3800,SCT,4500,SCT,5000,,,VFR,,,,,,,,,,,,SPECI,4.0
KONP 111935Z AUTO 18011G17KT 10SM SCT035 BKN041 OVC050 07/06 A3007 RMK AO2 P0001,KONP,2020-12-11T19:35:00Z,44.57,-124.05,7.0,6.0,180,11,17,10.0,30.070866,,,TRUE,TRUE,,,,,,,SCT,3500,BKN,4100,OVC,5000,,,VFR,,,,,,0.01,,,,,,SPECI,43.0
KONM 111935Z AUTO 30015G22KT 10SM CLR 12/M10 A2995 RMK AO2 T01211098,KONM,2020-12-11T19:35:00Z,34.02,-106.9,12.1,-9.8,300,15,22,10.0,29.949802,,,TRUE,TRUE,,,,,,,CLR,,,,,,,,VFR,,,,,,,,,,,,SPECI,1467.0
KONL 111935Z AUTO 01015G20KT 10SM OVC014 00/M03 A2996 RMK AO2 T00011032,KONL,2020-12-11T19:35:00Z,42.47,-98.68,0.1,-3.2,10,15,20,10.0,29.958662,,,TRUE,TRUE,,,,,,,OVC,1400,,,,,,,MVFR,,,,,,,,,,,,SPECI,619.0
KONA 111935Z AUTO 04008KT 10SM BKN120 03/M01 A3004 RMK AO2,KONA,2020-12-11T19:35:00Z,44.07,-91.7,3.0,-1.0,40,8,,10.0,30.041338,,,TRUE,TRUE,,,,,,,BKN,12000,,,,,,,VFR,,,,,,,,,,,,SPECI,200.0
KOMH 111935Z AUTO 18009G15KT 10SM CLR 17/03 A3010 RMK AO2,KOMH,2020-12-11T19:35:00Z,38.25,-78.05,17.0,3.0,180,9,15,10.0,30.100393,,,TRUE,TRUE,,,,,,,CLR,,,,,,,,VFR,,,,,,,,,,,,SPECI,136.0
KOLZ 111935Z AUTO 05015G22KT 7SM FEW008 SCT034 02/01 A2991 RMK A01,KOLZ,2020-12-11T19:35:00Z,42.67,-91.97,2.0,1.0,50,15,22,7.0,29.911417,,,TRUE,TRUE,,,,,,,FEW,800,SCT,3400,,,,,VFR,,,,,,,,,,,,METAR,328.0
KOLY 111935Z AUTO 18008KT 10SM CLR 18/09 A2986 RMK AO2 T01750089,KOLY,2020-12-11T19:35:00Z,38.72,-88.18,17.5,8.9,180,8,,10.0,29.861221,,,TRUE,TRUE,,,,,,,CLR,,,,,,,,VFR,,,,,,,,,,,,SPECI,144.0
KOLG 111935Z AUTO 05008KT 10SM OVC021 01/M04 A3012 RMK AO1,KOLG,2020-12-11T19:35:00Z,46.3,-91.82,1.0,-4.0,50,8,,10.0,30.121063,,,TRUE,TRUE,,,,,,,OVC,2100,,,,,,,MVFR,,,,,,,,,,,,SPECI,334.0
KOLE 111935Z AUTO 22006KT 10SM BKN095 11/02 A2996 RMK AO2,KOLE,2020-12-11T19:35:00Z,42.23,-78.37,11.0,2.0,220,6,,10.0,29.958662,,,TRUE,TRUE,,,,,,,BKN,9500,,,,,,,VFR,,,,,,,,,,,,SPECI,651.0
KOKZ 111935Z AUTO 21006KT 10SM CLR 19/04 A3012 RMK AO2 T01940045,KOKZ,2020-12-11T19:35:00Z,32.97,-82.83,19.4,4.5,210,6,,10.0,30.121063,,,TRUE,TRUE,,,,,,,CLR,,,,,,,,VFR,,,,,,,,,,,,SPECI,128.0
KOKV 111935Z AUTO 14006KT 10SM CLR 16/04 A3005 RMK AO2,KOKV,2020-12-11T19:35:00Z,39.13,-78.15,16.0,4.0,140,6,,10.0,30.050198,,,TRUE,TRUE,,,,,,,CLR,,,,,,,,VFR,,,,,,,,,,,,METAR,213.0
KOKM 111935Z AUTO 30005KT 10SM OVC018 08/06 A2981 RMK AO2 T00820055,KOKM,2020-12-11T19:35:00Z,35.67,-95.95,8.2,5.5,300,5,,10.0,29.811024,,,TRUE,TRUE,,,,,,,OVC,1800,,,,,,,MVFR,,,,,,,,,,,,SPECI,215.0
KOIN 111935Z AUTO 35010KT 10SM OVC012 00/M01 A2992 RMK AO1 T10011009,KOIN,2020-12-11T19:35:00Z,39.83,-100.53,-0.1,-0.9,350,10,,10.0,29.920275,,,TRUE,TRUE,,,,,,,OVC,1200,,,,,,,MVFR,,,,,,,,,,,,METAR,810.0
KOGS 111935Z AUTO 00000KT 10SM CLR 08/01 A2996 RMK AO2,KOGS,2020-12-11T19:35:00Z,44.67,-75.47,8.0,1.0,0,0,,10.0,29.958662,,,TRUE,TRUE,,,,,,,CLR,,,,,,,,VFR,,,,,,,,,,,,SPECI,88.0
KOGA 111935Z AUTO 36010KT 10SM OVC080 02/M06 A2992 RMK AO2 T00231057,KOGA,2020-12-11T19:35:00Z,41.12,-101.77,2.3,-5.7,360,10,,10.0,29.920275,,,TRUE,TRUE,,,,,,,OVC,8000,,,,,,,VFR,,,,,,,,,,,,SPECI,991.0
KOEO 111935Z AUTO 02008KT 10SM SCT022 03/M03 A3013 RMK AO2 T00271026,KOEO,2020-12-11T19:35:00Z,45.32,-92.7,2.7,-2.6,20,8,,10.0,30.129921,,,TRUE,TRUE,,,,,,,SCT,2200,,,,,,,VFR,,,,,,,,,,,,SPECI,269.0
KOEL 111935Z AUTO 36011KT 7SM OVC007 M01/M02 A2987 RMK AO1 T10101020,KOEL,2020-12-11T19:35:00Z,39.12,-100.82,-1.0,-2.0,360,11,,7.0,29.870079,,,TRUE,TRUE,,,,,,,OVC,700,,,,,,,IFR,,,,,,,,,,,,METAR,924.0
KOEL 111935Z AUTO 36011KT 7SM OVC007 M01/M02 A2987 RMK AO1 T10101020,KOEL,2020-12-11T19:35:00Z,39.12,-100.82,-1.0,-2.0,360,11,,7.0,29.870079,,,TRUE,TRUE,,,,,,,OVC,700,,,,,,,IFR,,,,,,,,,,,,METAR,924.0
KOEB 111935Z AUTO 05005KT 7SM CLR 10/04 A2990 RMK AO2 T01000035,KOEB,2020-12-11T19:35:00Z,41.92,-85.05,10.0,3.5,50,5,,7.0,29.899607,,,TRUE,TRUE,,,,,,,CLR,,,,,,,,VFR,,,,,,,,,,,,METAR,291.0
KOCW 111935Z AUTO 13009KT 10SM CLR 20/13 A3015 RMK AO2 T02020131,KOCW,2020-12-11T19:35:00Z,35.57,-77.05,20.2,13.1,130,9,,10.0,30.15059,,,TRUE,TRUE,,,,,,,CLR,,,,,,,,VFR,,,,,,,,,,,,SPECI,10.0
KOCQ 111935Z AUTO 02009KT 10SM BKN027 BKN120 02/M03 A3008 RMK AO1 T00231031,KOCQ,2020-12-11T19:35:00Z,44.87,-87.92,2.3,-3.1,20,9,,10.0,30.079725,,,TRUE,TRUE,,,,,,,BKN,2700,BKN,12000,,,,,MVFR,,,,,,,,,,,,SPECI,181.0
KOBE 111935Z AUTO 00000KT 10SM SCT042 OVC060 22/11 A3011 RMK AO2,KOBE,2020-12-11T19:35:00Z,27.27,-80.85,22.0,11.0,0,0,,10.0,30.109253,,,TRUE,TRUE,,,,,,,SCT,4200,OVC,6000,,,,,VFR,,,,,,,,,,,,SPECI,11.0
KOAR 111935Z AUTO 29005KT 10SM CLR 12/05 A3020 RMK AO2,KOAR,2020-12-11T19:35:00Z,,,12.0,5.0,290,5,,10.0,30.200787,,,TRUE,TRUE,,,,,,,CLR,,,,,,,,VFR,,,,,,,,,,,,SPECI,
KO69 111935Z AUTO 31003KT 10SM BKN080 BKN090 10/03 A3019 RMK A01,KO69,2020-12-11T19:35:00Z,38.25,-122.6,10.0,3.0,310,3,,10.0,30.188976,,,TRUE,TRUE,,,,,,,BKN,8000,BKN,9000,,,,,VFR,,,,,,,,,,,,SPECI,26.0
KO22 111935Z AUTO 25006KT 10SM CLR 12/01 A3015 RMK A01,KO22,2020-12-11T19:35:00Z,38.03,-120.42,12.0,1.0,250,6,,10.0,30.15059,,,TRUE,TRUE,,,,,,,CLR,,,,,,,,VFR,,,,,,,,,,,,SPECI,637.0
KNRN 111935Z AUTO 01009KT 7SM UP OVC010 01/00 A2990 RMK AO2,KNRN,2020-12-11T19:35:00Z,39.85,-99.9,1.0,0.0,10,9,,7.0,29.899607,,,TRUE,TRUE,,,,,,UP,OVC,1000,,,,,,,MVFR,,,,,,,,,,,,METAR,726.0
KNOW 111935Z AUTO 00000KT 10SM CLR 07/04 A3007 RMK AO2 T00660042,KNOW,2020-12-11T19:35:00Z,48.13,-123.4,6.6,4.2,0,0,,10.0,30.070866,,,TRUE,TRUE,,,,,,,CLR,,,,,,,,VFR,,,,,,,,,,,,SPECI,3.0
KN38 111935Z AUTO 20012KT 10SM CLR 11/02 A2998 RMK AO2,KN38,2020-12-11T19:35:00Z,41.73,-77.4,11.0,2.0,200,12,,10.0,29.97933,,,TRUE,TRUE,,,,,,,CLR,,,,,,,,VFR,,,,,,,,,,,,SPECI,576.0
KN03 111935Z AUTO 18003KT 10SM CLR 10/02 A2998 RMK AO2,KN03,2020-12-11T19:35:00Z,42.6,-76.22,10.0,2.0,180,3,,10.0,29.97933,,,TRUE,TRUE,,,,,,,CLR,,,,,,,,VFR,,,,,,,,,,,,SPECI,361.0
KMZZ 111935Z AUTO 17011KT 7SM CLR 14/06 A2986 RMK AO2 T01410058,KMZZ,2020-12-11T19:35:00Z,40.48,-85.68,14.1,5.8,170,11,,7.0,29.861221,,,TRUE,TRUE,,,,,,,CLR,,,,,,,,VFR,,,,,,,,,,,,SPECI,260.0
KMZH 111935Z AUTO 04006KT 10SM OVC020 00/M04 A3012 RMK AO2,KMZH,2020-12-11T19:35:00Z,46.42,-92.8,0.0,-4.0,40,6,,10.0,30.121063,,,TRUE,TRUE,,,,,,,OVC,2000,,,,,,,MVFR,,,,,,,,,,,,METAR,331.0
KMYZ 111935Z AUTO 02011KT 10SM OVC015 03/00 A2979 RMK AO2,KMYZ,2020-12-11T19:35:00Z,39.85,-96.63,3.0,0.0,20,11,,10.0,29.790354,,,TRUE,TRUE,,,,,,,OVC,1500,,,,,,,MVFR,,,,,,,,,,,,SPECI,388.0
KMYJ 111935Z AUTO 15005KT 10SM SCT055 SCT075 OVC085 09/08 A2976 RMK AO2,KMYJ,2020-12-11T19:35:00Z,39.15,-91.82,9.0,8.0,150,5,,10.0,29.760826,,,TRUE,TRUE,,,,,,,SCT,5500,SCT,7500,OVC,8500,,,VFR,,,,,,,,,,,,SPECI,249.0
KMXO 111935Z AUTO 06014G20KT 5SM -RA SCT013 SCT038 03/03 A2989 RMK AO2,KMXO,2020-12-11T19:35:00Z,42.22,-91.17,3.0,3.0,60,14,20,5.0,29.890747,,,TRUE,TRUE,,,,,,-RA,SCT,1300,SCT,3800,,,,,MVFR,,,,,,,,,,,,METAR,251.0
KMWO 111935Z AUTO 19007KT 10SM CLR 18/05 A2996 RMK AO2 T01810047,KMWO,2020-12-11T19:35:00Z,39.53,-84.4,18.1,4.7,190,7,,10.0,29.958662,,,TRUE,TRUE,,,,,,,CLR,,,,,,,,VFR,,,,,,,,,,,,SPECI,197.0
KMWK 111935Z AUTO 21004KT 10SM CLR 16/05 A3015 RMK AO2 T01610048,KMWK,2020-12-11T19:35:00Z,36.47,-80.55,16.1,4.8,210,4,,10.0,30.15059,,,TRUE,TRUE,,,,,,,CLR,,,,,,,,VFR,,,,,,,,,,,,SPECI,374.0
KMVH 111935Z AUTO 12006KT 10SM FEW021 BKN033 M02/M05 A2998 RMK AO2,KMVH,2020-12-11T19:35:00Z,46.83,-108.93,-2.0,-5.0,120,6,,10.0,29.97933,,,TRUE,TRUE,,,,,,,FEW,2100,BKN,3300,,,,,VFR,,,,,,,,,,,,SPECI,1352.0
KMVE 111935Z AUTO 06010KT 10SM OVC013 01/M04 A3009 RMK AO2,KMVE,2020-12-11T19:35:00Z,44.97,-95.72,1.0,-4.0,60,10,,10.0,30.088583,,,TRUE,TRUE,,,,,,,OVC,1300,,,,,,,MVFR,,,,,,,,,,,,SPECI,319.0
KMUT 111935Z AUTO 06008KT 2SM -RA 05/05 A2988 RMK AO2,KMUT,2020-12-11T19:35:00Z,41.37,-91.15,5.0,5.0,60,8,,2.0,29.878937,,,TRUE,TRUE,,,,,,-RA,,,,,,,,,,,,,,,,,,,,,METAR,166.0
KMTV 111935Z AUTO 24005KT 10SM CLR 17/04 A3014 RMK AO2 T01730042,KMTV,2020-12-11T19:35:00Z,36.63,-80.02,17.3,4.2,240,5,,10.0,30.138779,,,TRUE,TRUE,,,,,,,CLR,,,,,,,,VFR,,,,,,,,,,,,METAR,276.0
KMRT 111935Z AUTO 22009KT 10SM CLR 16/05 A2995 RMK AO2 T01620045,KMRT,2020-12-11T19:35:00Z,40.22,-83.35,16.2,4.5,220,9,,10.0,29.949802,,,TRUE,TRUE,,,,,,,CLR,,,,,,,,VFR,,,,,,,,,,,,METAR,302.0
KMRN 111935Z AUTO 00000KT 10SM CLR 18/05 A3015 RMK AO2 T01750053,KMRN,2020-12-11T19:35:00Z,35.82,-81.62,17.5,5.3,0,0,,10.0,30.15059,,,TRUE,TRUE,,,,,,,CLR,,,,,,,,VFR,,,,,,,,,,,,SPECI,375.0
KMRJ 111935Z AUTO 06011KT 5SM -SN OVC004 01/01 A2995 RMK AO2 P0001,KMRJ,2020-12-11T19:35:00Z,42.88,-90.23,1.0,1.0,60,11,,5.0,29.949802,,,TRUE,TRUE,,,,,,-SN,OVC,400,,,,,,,LIFR,,,,,,0.01,,,,,,SPECI,350.0
KMQS 111935Z AUTO 20007KT 9SM CLR 12/05 A3011 RMK AO2,KMQS,2020-12-11T19:35:00Z,39.98,-75.87,12.0,5.0,200,7,,9.0,30.109253,,,TRUE,TRUE,,,,,,,CLR,,,,,,,,VFR,,,,,,,,,,,,SPECI,200.0
KMQJ 111935Z AUTO 17008KT 10SM CLR 16/08 A2989 RMK AO1,KMQJ,2020-12-11T19:35:00Z,39.85,-85.9,16.0,8.0,170,8,,10.0,29.890747,,,TRUE,TRUE,,,,,,,CLR,,,,,,,,VFR,,,,,,,,,,,,METAR,262.0
KMQI 111935Z AUTO 18006KT 10SM OVC042 17/11 A3018 RMK AO2 T01670109,KMQI,2020-12-11T19:35:00Z,35.92,-75.7,16.7,10.9,180,6,,10.0,30.180119,,,TRUE,TRUE,,,,,,,OVC,4200,,,,,,,VFR,,,,,,,,,,,,SPECI,3.0
KMQB 111935Z AUTO 04005KT 2 1/2SM -RA OVC008 05/05 A2985 RMK AO2 P0004 T00510049,KMQB,2020-12-11T19:35:00Z,40.52,-90.65,5.1,4.9,40,5,,2.5,29.84941,,,TRUE,TRUE,,,,,,-RA,OVC,800,,,,,,,IFR,,,,,,0.04,,,,,,SPECI,205.0
KMOX 111935Z AUTO 04005KT 10SM SCT008 M02/M04 A3012 RMK AO2,KMOX,2020-12-11T19:35:00Z,45.57,-95.97,-2.0,-4.0,40,5,,10.0,30.121063,,,TRUE,TRUE,,,,,,,SCT,800,,,,,,,VFR,,,,,,,,,,,,SPECI,346.0
KMOR 111935Z AUTO 28004KT 9SM CLR 17/04 A3006 RMK A01,KMOR,2020-12-11T19:35:00Z,36.18,-83.37,17.0,4.0,280,4,,9.0,30.059055,,,TRUE,TRUE,,,,,,,CLR,,,,,,,,VFR,,,,,,,,,,,,SPECI,393.0
KMOP 111935Z AUTO 02006KT 10SM SCT050 BKN070 OVC090 06/01 A3000 RMK AO2 T00550010,KMOP,2020-12-11T19:35:00Z,43.62,-84.73,5.5,1.0,20,6,,10.0,30.0,,,TRUE,TRUE,,,,,,,SCT,5000,BKN,7000,OVC,9000,,,VFR,,,,,,,,,,,,SPECI,229.0
KMNZ 111935Z AUTO 22011KT 10SM CLR 21/16 A2985 RMK AO2 T02060157,KMNZ,2020-12-11T19:35:00Z,31.67,-98.15,20.6,15.7,220,11,,10.0,29.84941,,,TRUE,TRUE,,,,,,,CLR,,,,,,,,VFR,,,,,,,,,,,,SPECI,397.0
KMNV 111935Z AUTO 25006KT 10SM CLR 18/06 A3006 RMK A01,KMNV,2020-12-11T19:35:00Z,35.55,-84.38,18.0,6.0,250,6,,10.0,30.059055,,,TRUE,TRUE,,,,,,,CLR,,,,,,,,VFR,,,,,,,,,,,,SPECI,306.0
KMNI 111935Z AUTO 24003KT 10SM CLR 18/07 A3015 RMK AO2,KMNI,2020-12-11T19:35:00Z,33.58,-80.22,18.0,7.0,240,3,,10.0,30.15059,,,TRUE,TRUE,,,,,,,CLR,,,,,,,,VFR,,,,,,,,,,,,METAR,29.0
KMNH 111935Z AUTO 01008KT 3SM UP SCT009 OVC018 M05/M07 A2983 RMK AO2,KMNH,2020-12-11T19:35:00Z,39.22,-104.65,-5.0,-7.0,10,8,,3.0,29.828741,,,TRUE,TRUE,,,,,,UP,SCT,900,OVC,1800,,,,,MVFR,,,,,,,,,,,,SPECI,2152.0
KMNE 111935Z AUTO 17006KT 10SM SCT070 BKN085 21/15 A2988 RMK AO2 T02060150,KMNE,2020-12-11T19:35:00Z,32.65,-93.3,20.6,15.0,170,6,,10.0,29.878937,,,TRUE,TRUE,,,,,,,SCT,7000,BKN,8500,,,,,VFR,,,,,,,,,,,,SPECI,84.0
KMMI 111935Z AUTO 24009KT 10SM CLR 18/05 A3009 RMK A01,KMMI,2020-12-11T19:35:00Z,35.4,-84.57,18.0,5.0,240,9,,10.0,30.088583,,,TRUE,TRUE,,,,,,,CLR,,,,,,,,VFR,,,,,,,,,,,,SPECI,252.0
KMLE 111935Z AUTO 01005KT 10SM RA OVC012 03/01 A2983 RMK AO2 T00320008,KMLE,2020-12-11T19:35:00Z,41.2,-96.12,3.2,0.8,10,5,,10.0,29.828741,,,TRUE,TRUE,,,,,,RA,OVC,1200,,,,,,,MVFR,,,,,,,,,,,,METAR,318.0
KMKS 111935Z AUTO 00000KT 10SM CLR 19/10 A3014 RMK AO2,KMKS,2020-12-11T19:35:00Z,33.18,-80.03,19.0,10.0,0,0,,10.0,30.138779,,,TRUE,TRUE,,,,,,,CLR,,,,,,,,VFR,,,,,,,,,,,,SPECI,22.0
KMKN 111935Z AUTO 24009G16KT 10SM SCT026 SCT034 20/13 A2983 RMK AO2 T02030127,KMKN,2020-12-11T19:35:00Z,31.92,-98.6,20.3,12.7,240,9,16,10.0,29.828741,,,TRUE,TRUE,,,,,,,SCT,2600,SCT,3400,,,,,VFR,,,,,,,,,,,,SPECI,428.0
KMKJ 111935Z AUTO 00000KT 10SM CLR 18/01 A3012 RMK AO2 T01810012,KMKJ,2020-12-11T19:35:00Z,36.88,-81.33,18.1,1.2,0,0,,10.0,30.121063,,,TRUE,TRUE,,,,,,,CLR,,,,,,,,VFR,,,,,,,,,,,,METAR,777.0
KMKG 111935Z 05012KT 10SM SCT020 BKN039 BKN060 07/01 A2996 RMK AO2 T00670011,KMKG,2020-12-11T19:35:00Z,43.17,-86.23,6.7,1.1,50,12,,10.0,29.958662,,,,TRUE,,,,,,,SCT,2000,BKN,3900,BKN,6000,,,VFR,,,,,,,,,,,,SPECI,190.0
KMJQ 111935Z AUTO 02018G23KT 10SM SCT110 02/M02 A2998 RMK AO2,KMJQ,2020-12-11T19:35:00Z,43.63,-94.98,2.0,-2.0,20,18,23,10.0,29.97933,,,TRUE,TRUE,,,,,,,SCT,11000,,,,,,,VFR,,,,,,,,,,,,SPECI,439.0
KMIS 111935Z AUTO 13004KT 10SM CLR 22/15 A3004 RMK A01,KMIS,2020-12-11T19:35:00Z,29.3,-88.85,22.0,15.0,130,4,,10.0,30.041338,,,TRUE,TRUE,,,,,,,CLR,,,,,,,,VFR,,,,,,,,,,,,SPECI,24.0
KMHL 111935Z AUTO 09003KT 3SM RA SCT003 OVC021 08/08 A2973 RMK AO2 P0001,KMHL,2020-12-11T19:35:00Z,39.1,-93.2,8.0,8.0,90,3,,3.0,29.731298,,,TRUE,TRUE,,,,,,RA,SCT,300,OVC,2100,,,,,MVFR,,,,,,0.01,,,,,,METAR,236.0
KMGN 111935Z AUTO 35006KT 10SM OVC018 02/M01 A3005 RMK AO2 T00251013,KMGN,2020-12-11T19:35:00Z,45.43,-84.92,2.5,-1.3,350,6,,10.0,30.050198,,,TRUE,TRUE,,,,,,,OVC,1800,,,,,,,MVFR,,,,,,,,,,,,METAR,205.0
KMGG 111935Z AUTO 05010KT 10SM 00/M02 A3011 RMK AO2 T00031022,KMGG,2020-12-11T19:35:00Z,45.23,-93.98,0.3,-2.2,50,10,,10.0,30.109253,,,TRUE,TRUE,,,,,,,,,,,,,,,,,,,,,,,,,,,SPECI,310.0
KMGC 111935Z AUTO 34007KT 5SM HZ CLR 07/03 A2990 RMK AO2,KMGC,2020-12-11T19:35:00Z,41.7,-86.82,7.0,3.0,340,7,,5.0,29.899607,,,TRUE,TRUE,,,,,,HZ,CLR,,,,,,,,MVFR,,,,,,,,,,,,METAR,199.0
KMFV 111935Z AUTO 17008KT 10SM SCT036 15/10 A3016 RMK AO2 T01510095,KMFV,2020-12-11T19:35:00Z,37.63,-75.77,15.1,9.5,170,8,,10.0,30.159449,,,TRUE,TRUE,,,,,,,SCT,3600,,,,,,,VFR,,,,,,,,,,,,SPECI,13.0
KMEZ 111935Z AUTO 00000KT 5SM SCT010 BKN055 OVC085 15/15 A2982 RMK AO2 P0002,KMEZ,2020-12-11T19:35:00Z,34.55,-94.2,15.0,15.0,0,0,,5.0,29.819881,,,TRUE,TRUE,,,,,,,SCT,1000,BKN,5500,OVC,8500,,,MVFR,,,,,,0.02,,,,,,SPECI,320.0
KMEV 111935Z AUTO VRB06KT 10SM CLR 07/M08 A3005 RMK AO2,KMEV,2020-12-11T19:35:00Z,38.98,-119.75,7.0,-8.0,0,6,,10.0,30.050198,,,TRUE,TRUE,,,,,,,CLR,,,,,,,,VFR,,,,,,,,,,,,SPECI,1437.0
KMDZ 111935Z AUTO 02009KT 10SM CLR 01/M04 A3005 RMK AO2 T00071042,KMDZ,2020-12-11T19:35:00Z,45.1,-90.3,0.7,-4.2,20,9,,10.0,30.050198,,,TRUE,TRUE,,,,,,,CLR,,,,,,,,VFR,,,,,,,,,,,,METAR,446.0
KMDQ 111935Z AUTO 20008KT 10SM SCT039 18/09 A3005 RMK A02 T01770092,KMDQ,2020-12-11T19:35:00Z,34.87,-86.55,17.7,9.2,200,8,,10.0,30.050198,,,TRUE,TRUE,,,,,,,SCT,3900,,,,,,,VFR,,,,,,,,,,,,SPECI,221.0
KMDJ 111935Z AUTO 16015KT 10SM FEW034 FEW046 22/16 A3003 RMK A01,KMDJ,2020-12-11T19:35:00Z,28.65,-89.8,22.0,16.0,160,15,,10.0,30.029528,,,TRUE,TRUE,,,,,,,FEW,3400,FEW,4600,,,,,VFR,,,,,,,,,,,,SPECI,20.0
KMDD 111935Z AUTO 25015G21KT 10SM CLR 18/04 A2988 RMK AO2 T01760040,KMDD,2020-12-11T19:35:00Z,32.03,-102.1,17.6,4.0,250,15,21,10.0,29.878937,,,TRUE,TRUE,,,,,,,CLR,,,,,,,,VFR,,,,,,,,,,,,SPECI,853.0
KMCX 111935Z AUTO 16003KT 10SM CLR 14/04 A2985 RMK AO2 T01360037,KMCX,2020-12-11T19:35:00Z,40.72,-86.77,13.6,3.7,160,3,,10.0,29.84941,,,TRUE,TRUE,,,,,,,CLR,,,,,,,,VFR,,,,,,,,,,,,SPECI,205.0
KMCJ 111935Z AUTO 15011G19KT 10SM SCT029 SCT039 BKN050 22/18 A2985 RMK A01,KMCJ,2020-12-11T19:35:00Z,29.72,-95.4,22.0,18.0,150,11,19,10.0,29.84941,,,TRUE,TRUE,,,,,,,SCT,2900,SCT,3900,BKN,5000,,,VFR,,,,,,,,,,,,SPECI,70.0
KMCD 111935Z AUTO 35010G14KT 10SM SCT013 SCT027 03/M01 A3005 RMK AO2 T00321008,KMCD,2020-12-11T19:35:00Z,45.85,-84.63,3.2,-0.8,350,10,14,10.0,30.050198,,,TRUE,TRUE,,,,,,,SCT,1300,SCT,2700,,,,,VFR,,,,,,,,,,,,SPECI,228.0
KMCC 111935Z AUTO 17005KT 10SM SCT120 09/02 A3017 RMK AO2,KMCC,2020-12-11T19:35:00Z,38.67,-121.4,9.0,2.0,170,5,,10.0,30.171259,,,TRUE,TRUE,,,,,,,SCT,12000,,,,,,,VFR,,,,,,,,,,,,SPECI,21.0
KMBY 111935Z AUTO 08006KT 2SM OVC002 07/06 A2975 RMK AO2,KMBY,2020-12-11T19:35:00Z,39.47,-92.43,7.0,6.0,80,6,,2.0,29.749016,,,TRUE,TRUE,,,,,,,OVC,200,,,,,,,LIFR,,,,,,,,,,,,SPECI,263.0
KMBT 111935Z AUTO 20008G14KT 9SM CLR 18/09 A3001 RMK A01,KMBT,2020-12-11T19:35:00Z,35.88,-86.38,18.0,9.0,200,8,14,9.0,30.008858,,,TRUE,TRUE,,,,,,,CLR,,,,,,,,VFR,,,,,,,,,,,,SPECI,187.0
KMAW 111935Z AUTO 19014KT 10SM SCT034 BKN041 BKN048 18/11 A2988 RMK AO2,KMAW,2020-12-11T19:35:00Z,36.6,-90.0,18.0,11.0,190,14,,10.0,29.878937,,,TRUE,TRUE,,,,,,,SCT,3400,BKN,4100,BKN,4800,,,VFR,,,,,,,,,,,,SPECI,88.0
KMAO 111935Z AUTO 26005KT 10SM CLR 20/07 A3013 RMK AO2,KMAO,2020-12-11T19:35:00Z,34.18,-79.33,20.0,7.0,260,5,,10.0,30.129921,,,TRUE,TRUE,,,,,,,CLR,,,,,,,,VFR,,,,,,,,,,,,SPECI,27.0
KMAN 111935Z AUTO 28004KT 10SM BKN060 05/M04 A3009 RMK A01,KMAN,2020-12-11T19:35:00Z,43.58,-116.52,5.0,-4.0,280,4,,10.0,30.088583,,,TRUE,TRUE,,,,,,,BKN,6000,,,,,,,VFR,,,,,,,,,,,,SPECI,773.0
KM75 111935Z AUTO 05008KT 10SM OVC007 M02/M03 A3008 RMK A01,KM75,2020-12-11T19:35:00Z,48.37,-107.92,-2.0,-3.0,50,8,,10.0,30.079725,,,TRUE,TRUE,,,,,,,OVC,700,,,,,,,IFR,,,,,,,,,,,,SPECI,687.0
KM54 111935Z AUTO 18012KT 10SM CLR 18/09 A2999 RMK A01,KM54,2020-12-11T19:35:00Z,36.18,-86.32,18.0,9.0,180,12,,10.0,29.991142,,,TRUE,TRUE,,,,,,,CLR,,,,,,,,VFR,,,,,,,,,,,,SPECI,168.0
KM40 111935Z AUTO 16010KT 10SM SCT044 19/11 A3003 RMK AO2,KM40,2020-12-11T19:35:00Z,33.87,-88.48,19.0,11.0,160,10,,10.0,30.029528,,,TRUE,TRUE,,,,,,,SCT,4400,,,,,,,VFR,,,,,,,,,,,,METAR,68.0
KM25 111935Z AUTO 19011G17KT 10SM SCT035 18/10 A2993 RMK AO2 PWINO,KM25,2020-12-11T19:35:00Z,36.77,-88.58,18.0,10.0,190,11,17,10.0,29.929134,,,TRUE,TRUE,,,,,TRUE,,SCT,3500,,,,,,,VFR,,,,,,,,,,,,SPECI,157.0
KM21 111935Z AUTO 19014KT 10SM CLR 17/06 A2995 RMK AO2 T01720058,KM21,2020-12-11T19:35:00Z,37.22,-87.15,17.2,5.8,190,14,,10.0,29.949802,,,TRUE,TRUE,,,,,,,CLR,,,,,,,,VFR,,,,,,,,,,,,SPECI,127.0
KM04 111935Z AUTO 20010G17KT 10SM BKN050 19/11 A2992 RMK A01,KM04,2020-12-11T19:35:00Z,35.58,-89.58,19.0,11.0,200,10,17,10.0,29.920275,,,TRUE,TRUE,,,,,,,BKN,5000,,,,,,,VFR,,,,,,,,,,,,SPECI,83.0
KM02 111935Z AUTO 22010G17KT 10SM CLR 18/08 A2997 RMK A01,KM02,2020-12-11T19:35:00Z,36.13,-87.43,18.0,8.0,220,10,17,10.0,29.970472,,,TRUE,TRUE,,,,,,,CLR,,,,,,,,VFR,,,,,,,,,,,,SPECI,268.0
KLYV 111935Z AUTO 04013G17KT 10SM 02/M03 A2999 RMK AO2,KLYV,2020-12-11T19:35:00Z,43.62,-96.22,2.0,-3.0,40,13,17,10.0,29.991142,,,TRUE,TRUE,,,,,,,,,,,,,,,,,,,,,,,,,,,SPECI,435.0
KLYO 111935Z AUTO 32012KT 10SM OVC016 02/M01 A2982 RMK AO2 T00251005,KLYO,2020-12-11T19:35:00Z,38.35,-98.23,2.5,-0.5,320,12,,10.0,29.819881,,,TRUE,TRUE,,,,,,,OVC,1600,,,,,,,MVFR,,,,,,,,,,,,SPECI,515.0
KLXY 111935Z AUTO 19008KT 10SM -RA OVC004 18/17 A2983 RMK AO2 P0001 T01750173,KLXY,2020-12-11T19:35:00Z,31.63,-96.52,17.5,17.3,190,8,,10.0,29.828741,,,TRUE,TRUE,,,,,,-RA,OVC,400,,,,,,,LIFR,,,,,,0.01,,,,,,SPECI,164.0
KLXN 111935Z AUTO 36016KT 10SM BKN012 BKN018 OVC065 00/M01 A2988 RMK AO2 T00011014,KLXN,2020-12-11T19:35:00Z,40.78,-99.77,0.1,-1.4,360,16,,10.0,29.878937,,,TRUE,TRUE,,,,,,,BKN,1200,BKN,1800,OVC,6500,,,MVFR,,,,,,,,,,,,SPECI,734.0
KLWA 111935Z AUTO 06010G19KT 7SM CLR 07/02 A2991 RMK AO2 T00700023,KLWA,2020-12-11T19:35:00Z,42.35,-86.25,7.0,2.3,60,10,19,7.0,29.911417,,,TRUE,TRUE,,,,,,,CLR,,,,,,,,VFR,,,,,,,,,,,,METAR,199.0
KLVN 111935Z AUTO 04009G17KT 10SM 03/M03 A3006 RMK AO2,KLVN,2020-12-11T19:35:00Z,44.63,-93.23,3.0,-3.0,40,9,17,10.0,30.059055,,,TRUE,TRUE,,,,,,,,,,,,,,,,,,,,,,,,,,,METAR,292.0
KLVL 111935Z AUTO 20005KT 10SM CLR 18/09 A3014 RMK AO1 T01840094,KLVL,2020-12-11T19:35:00Z,36.78,-77.8,18.4,9.4,200,5,,10.0,30.138779,,,TRUE,TRUE,,,,,,,CLR,,,,,,,,VFR,,,,,,,,,,,,METAR,98.0
KLUX 111935Z AUTO 00000KT 10SM CLR 20/06 A3013 RMK AO2,KLUX,2020-12-11T19:35:00Z,34.5,-81.95,20.0,6.0,0,0,,10.0,30.129921,,,TRUE,TRUE,,,,,,,CLR,,,,,,,,VFR,,,,,,,,,,,,SPECI,213.0
KLUV 111935Z AUTO 20003KT 10SM SCT075 SCT100 BKN120 12/03 A2988 RMK AO2,KLUV,2020-12-11T19:35:00Z,32.75,-101.92,12.0,3.0,200,3,,10.0,29.878937,,,TRUE,TRUE,,,,,,,SCT,7500,SCT,10000,BKN,12000,,,VFR,,,,,,,,,,,,SPECI,910.0
KLUM 111935Z AUTO 02010KT 10SM CLR 01/M04 A3008 RMK AO2 T00121040,KLUM,2020-12-11T19:35:00Z,44.9,-91.87,1.2,-4.0,20,10,,10.0,30.079725,,,TRUE,TRUE,,,,,,,CLR,,,,,,,,VFR,,,,,,,,,,,,METAR,271.0
KLUL 111935Z AUTO 18005KT 10SM SCT038 SCT044 OVC050 20/12 A3003 RMK A02 T02020119,KLUL,2020-12-11T19:35:00Z,31.67,-89.17,20.2,11.9,180,5,,10.0,30.029528,,,TRUE,TRUE,,,,,,,SCT,3800,SCT,4400,OVC,5000,,,VFR,,,,,,,,,,,,SPECI,74.0
KLUG 111935Z AUTO 22006G13KT 10SM FEW037 17/10 A3002 RMK A01,KLUG,2020-12-11T19:35:00Z,35.52,-86.8,17.0,10.0,220,6,13,10.0,30.02067,,,TRUE,TRUE,,,,,,,FEW,3700,,,,,,,VFR,,,,,,,,,,,,SPECI,218.0
KLUD 111935Z AUTO 29006KT 10SM BKN024 14/11 A2983 RMK AO2 T01420108,KLUD,2020-12-11T19:35:00Z,33.25,-97.58,14.2,10.8,290,6,,10.0,29.828741,,,TRUE,TRUE,,,,,,,BKN,2400,,,,,,,MVFR,,,,,,,,,,,,SPECI,319.0
KLUA 111935Z AUTO 21008KT 10SM CLR 19/01 A3005 RMK AO2,KLUA,2020-12-11T19:35:00Z,38.67,-78.5,19.0,1.0,210,8,,10.0,30.050198,,,TRUE,TRUE,,,,,,,CLR,,,,,,,,VFR,,,,,,,,,,,,METAR,273.0
KLRY 111935Z AUTO 25004KT 10SM SCT024 SCT110 11/08 A2974 RMK AO2,KLRY,2020-12-11T19:35:00Z,38.62,-94.35,11.0,8.0,250,4,,10.0,29.740158,,,TRUE,TRUE,,,,,,,SCT,2400,SCT,11000,,,,,VFR,,,,,,,,,,,,METAR,272.0
KLRU 111935Z AUTO 26022G31KT 10SM CLR 13/04 A3002 RMK AO2 T01270038,KLRU,2020-12-11T19:35:00Z,32.28,-106.92,12.7,3.8,260,22,31,10.0,30.02067,,,TRUE,TRUE,,,,,,,CLR,,,,,,,,VFR,,,,,,,,,,,,SPECI,1355.0
KLRO 111935Z AUTO VRB04KT 10SM CLR 20/12 A3014 RMK AO2,KLRO,2020-12-11T19:35:00Z,32.9,-79.78,20.0,12.0,0,4,,10.0,30.138779,,,TRUE,TRUE,,,,,,,CLR,,,,,,,,VFR,,,,,,,,,,,,METAR,3.0
KLRJ 111935Z AUTO 03016G23KT 10SM CLR 04/M01 A2991 RMK AO2,KLRJ,2020-12-11T19:35:00Z,42.77,-96.2,4.0,-1.0,30,16,23,10.0,29.911417,,,TRUE,TRUE,,,,,,,CLR,,,,,,,,VFR,,,,,,,,,,,,METAR,363.0
KLQK 111935Z AUTO 23005KT 10SM CLR 18/06 A3012 RMK AO2 T01760058,KLQK,2020-12-11T19:35:00Z,34.82,-82.7,17.6,5.8,230,5,,10.0,30.121063,,,TRUE,TRUE,,,,,,,CLR,,,,,,,,VFR,,,,,,,,,,,,SPECI,291.0
KLOT 111935Z AUTO 06013G18KT 10SM OVC014 06/04 A2990 RMK AO2 T00610037,KLOT,2020-12-11T19:35:00Z,41.6,-88.1,6.1,3.7,60,13,18,10.0,29.899607,,,TRUE,TRUE,,,,,,,OVC,1400,,,,,,,MVFR,,,,,,,,,,,,METAR,205.0
KLOM 111935Z AUTO 21008G15KT 10SM CLR 14/05 A3010 RMK AO2 T01350051,KLOM,2020-12-11T19:35:00Z,40.13,-75.27,13.5,5.1,210,8,15,10.0,30.100393,,,TRUE,TRUE,,,,,,,CLR,,,,,,,,VFR,,,,,,,,,,,,SPECI,87.0
KLNQ 111935Z AUTO 35003KT 10SM SCT042 BKN048 23/13 A3004 RMK AO2 T02260132,KLNQ,2020-12-11T19:35:00Z,29.35,-89.43,22.6,13.2,350,3,,10.0,30.041338,,,TRUE,TRUE,,,,,,,SCT,4200,BKN,4800,,,,,VFR,,,,,,,,,,,,SPECI,1.0
KLNP 111935Z AUTO 20004KT 10SM CLR 16/00 A3009 RMK AO2,KLNP,2020-12-11T19:35:00Z,36.98,-82.52,16.0,0.0,200,4,,10.0,30.088583,,,TRUE,TRUE,,,,,,,CLR,,,,,,,,VFR,,,,,,,,,,,,SPECI,817.0
KLNN 111935Z AUTO 27004KT 10SM CLR 13/02 A2994 RMK AO1 T01300015,KLNN,2020-12-11T19:35:00Z,41.68,-81.38,13.0,1.5,270,4,,10.0,29.940945,,,TRUE,TRUE,,,,,,,CLR,,,,,,,,VFR,,,,,,,,,,,,METAR,190.0
KLNL 111935Z AUTO 03007KT 10SM OVC019 00/M05 A3011 RMK AO2 T10031051,KLNL,2020-12-11T19:35:00Z,46.15,-89.22,-0.3,-5.1,30,7,,10.0,30.109253,,,TRUE,TRUE,,,,,,,OVC,1900,,,,,,,MVFR,,,,,,,,,,,,METAR,517.0
KLNC 111935Z AUTO 22006KT 10SM BKN006 OVC009 17/16 A2983 RMK AO2 T01700161,KLNC,2020-12-11T19:35:00Z,32.58,-96.72,17.0,16.1,220,6,,10.0,29.828741,,,TRUE,TRUE,,,,,,,BKN,600,OVC,900,,,,,IFR,,,,,,,,,,,,SPECI,152.0
KLNA 111935Z AUTO 08008KT 10SM SCT037 24/15 A3011 RMK AO2 T02350154 PNO,KLNA,2020-12-11T19:35:00Z,26.6,-80.08,23.5,15.4,80,8,,10.0,30.109253,,,TRUE,TRUE,,,,,,,SCT,3700,,,,,,,VFR,,,,,,,,,,,,SPECI,3.0
KLMO 111935Z AUTO 04004KT 2SM -SN OVC017 M01/M05 A2994 RMK AO2 T10131051,KLMO,2020-12-11T19:35:00Z,40.17,-105.17,-1.3,-5.1,40,4,,2.0,29.940945,,,TRUE,TRUE,,,,,,-SN,OVC,1700,,,,,,,IFR,,,,,,,,,,,,SPECI,1535.0
KLKU 111935Z AUTO 21009G18KT 150V230 10SM CLR 16/04 A3015 RMK AO2 T01640039,KLKU,2020-12-11T19:35:00Z,38.02,-77.97,16.4,3.9,210,9,18,10.0,30.15059,,,TRUE,TRUE,,,,,,,CLR,,,,,,,,VFR,,,,,,,,,,,,SPECI,146.0
KLKR 111935Z AUTO 00000KT 10SM CLR 18/07 A3014 RMK AO2,KLKR,2020-12-11T19:35:00Z,34.72,-80.85,18.0,7.0,0,0,,10.0,30.138779,,,TRUE,TRUE,,,,,,,CLR,,,,,,,,VFR,,,,,,,,,,,,METAR,166.0
KLJF 111935Z AUTO 04009KT 10SM SCT011 01/M02 A3009 RMK AO2,KLJF,2020-12-11T19:35:00Z,45.1,-94.52,1.0,-2.0,40,9,,10.0,30.088583,,,TRUE,TRUE,,,,,,,SCT,1100,,,,,,,VFR,,,,,,,,,,,,SPECI,347.0
KLHZ 111935Z AUTO 19004KT 10SM CLR 18/10 A3017 RMK AO2,KLHZ,2020-12-11T19:35:00Z,36.02,-78.33,18.0,10.0,190,4,,10.0,30.171259,,,TRUE,TRUE,,,,,,,CLR,,,,,,,,VFR,,,,,,,,,,,,METAR,104.0
KLHM 111935Z AUTO 16008KT 10SM CLR 10/02 A3015 RMK AO1,KLHM,2020-12-11T19:35:00Z,38.92,-121.35,10.0,2.0,160,8,,10.0,30.15059,,,TRUE,TRUE,,,,,,,CLR,,,,,,,,VFR,,,,,,,,,,,,SPECI,36.0
KLHB 111935Z AUTO 00000KT 10SM -RA OVC003 18/17 A2987 RMK AO2 P0001 T01760170,KLHB,2020-12-11T19:35:00Z,30.87,-96.62,17.6,17.0,0,0,,10.0,29.870079,,,TRUE,TRUE,,,,,,-RA,OVC,300,,,,,,,LIFR,,,,,,0.01,,,,,,SPECI,83.0
KLGC 111935Z AUTO 21003KT 10SM CLR 19/05 A3010 RMK AO2 T01930047,KLGC,2020-12-11T19:35:00Z,33.0,-85.07,19.3,4.7,210,3,,10.0,30.100393,,,TRUE,TRUE,,,,,,,CLR,,,,,,,,VFR,,,,,,,,,,,,SPECI,209.0
KLDM 111935Z AUTO 04008G15KT 10SM OVC085 04/00 A3000 RMK AO2 T00421001,KLDM,2020-12-11T19:35:00Z,43.97,-86.4,4.2,-0.1,40,8,15,10.0,30.0,,,TRUE,TRUE,,,,,,,OVC,8500,,,,,,,VFR,,,,,,,,,,,,METAR,194.0
KLDJ 111935Z AUTO 25006KT 10SM CLR 14/04 A3010 RMK AO2 T01410036,KLDJ,2020-12-11T19:35:00Z,40.62,-74.25,14.1,3.6,250,6,,10.0,30.100393,,,TRUE,TRUE,,,,,,,CLR,,,,,,,,VFR,,,,,,,,,,,,METAR,6.0
KLCG 111935Z AUTO 02016G22KT 10SM OVC015 03/M01 A2991 RMK AO2 T00281011,KLCG,2020-12-11T19:35:00Z,42.25,-96.98,2.8,-1.1,20,16,22,10.0,29.911417,,,TRUE,TRUE,,,,,,,OVC,1500,,,,,,,MVFR,,,,,,,,,,,,SPECI,434.0
KLBO 111935Z AUTO 16007KT 7SM RA BKN002 BKN041 BKN049 11/11 A2977 RMK AO2 P0001,KLBO,2020-12-11T19:35:00Z,37.65,-92.65,11.0,11.0,160,7,,7.0,29.769686,,,TRUE,TRUE,,,,,,RA,BKN,200,BKN,4100,BKN,4900,,,LIFR,,,,,,0.01,,,,,,SPECI,399.0
KLAM 111935Z AUTO 25022G31KT 10SM SCT007 BKN032 OVC046 01/M06 A2988 RMK AO2 T00111063,KLAM,2020-12-11T19:35:00Z,35.87,-106.27,1.1,-6.3,250,22,31,10.0,29.878937,,,TRUE,TRUE,,,,,,,SCT,700,BKN,3200,OVC,4600,,,VFR,,,,,,,,,,,,SPECI,2166.0
KL52 111935Z AUTO 00000KT 9SM CLR 13/07 A3016 RMK A01,KL52,2020-12-11T19:35:00Z,35.1,-120.62,13.0,7.0,0,0,,9.0,30.159449,,,TRUE,TRUE,,,,,,,CLR,,,,,,,,VFR,,,,,,,,,,,,SPECI,3.0
KL35 111935Z AUTO 24005G16KT 10SM SCT120 09/M36 A3013 RMK AO2,KL35,2020-12-11T19:35:00Z,34.27,-116.85,9.0,-36.0,240,5,16,10.0,30.129921,,,TRUE,TRUE,,,,,,,SCT,12000,,,,,,,VFR,,,,,,,,,,,,SPECI,2062.0
KL18 111935Z AUTO 00000KT 10SM SCT032 15/06 A3012 RMK AO2,KL18,2020-12-11T19:35:00Z,33.35,-117.25,15.0,6.0,0,0,,10.0,30.121063,,,TRUE,TRUE,,,,,,,SCT,3200,,,,,,,VFR,,,,,,,,,,,,SPECI,215.0
KL08 111935Z AUTO VRB04KT 10SM CLR 18/M00 A3004 RMK AO2,KL08,2020-12-11T19:35:00Z,33.27,-116.32,18.0,0.0,0,4,,10.0,30.041338,,,TRUE,TRUE,,,,,,,CLR,,,,,,,,VFR,,,,,,,,,,,,SPECI,156.0
KKY8 111935Z AUTO 19012KT 10SM CLR 18/08 A2993 RMK A01,KKY8,2020-12-11T19:35:00Z,37.95,-86.87,18.0,8.0,190,12,,10.0,29.929134,,,TRUE,TRUE,,,,,,,CLR,,,,,,,,VFR,,,,,,,,,,,,METAR,124.0
KKNB 111935Z AUTO 24010KT 10SM CLR 08/M05 A3004 RMK A01,KKNB,2020-12-11T19:35:00Z,37.02,-112.53,8.0,-5.0,240,10,,10.0,30.041338,,,TRUE,TRUE,,,,,,,CLR,,,,,,,,VFR,,,,,,,,,,,,METAR,1476.0
KK88 111935Z AUTO 28007KT 10SM SCT095 SCT120 07/03 A2977 RMK AO1 T00650033,KK88,2020-12-11T19:35:00Z,37.87,-95.38,6.5,3.3,280,7,,10.0,29.769686,,,TRUE,TRUE,,,,,,,SCT,9500,SCT,12000,,,,,VFR,,,,,,,,,,,,SPECI,308.0
KK82 111935Z AUTO 01013KT 10SM OVC009 01/00 A2985 RMK AO2,KK82,2020-12-11T19:35:00Z,39.77,-98.8,1.0,0.0,10,13,,10.0,29.84941,,,TRUE,TRUE,,,,,,,OVC,900,,,,,,,IFR,,,,,,,,,,,,SPECI,548.0
KK62 111935Z AUTO 21009G14KT 10SM CLR 18/02 A2998 RMK AO2,KK62,2020-12-11T19:35:00Z,38.7,-84.4,18.0,2.0,210,9,14,10.0,29.97933,,,TRUE,TRUE,,,,,,,CLR,,,,,,,,VFR,,,,,,,,,,,,METAR,274.0
KJZP 111935Z AUTO 21004KT 10SM CLR 17/04 A3014 RMK AO2 T01700041,KJZP,2020-12-11T19:35:00Z,34.45,-84.47,17.0,4.1,210,4,,10.0,30.138779,,,TRUE,TRUE,,,,,,,CLR,,,,,,,,VFR,,,,,,,,,,,,METAR,462.0
KJZI 111935Z AUTO 14005KT 9SM CLR 19/12 A3014 RMK AO2,KJZI,2020-12-11T19:35:00Z,32.7,-80.0,19.0,12.0,140,5,,9.0,30.138779,,,TRUE,TRUE,,,,,,,CLR,,,,,,,,VFR,,,,,,,,,,,,METAR,5.0
KJYR 111935Z AUTO 01015KT 6SM UP BR OVC008 01/M00 A2984 RMK AO2,KJYR,2020-12-11T19:35:00Z,40.9,-97.62,1.0,0.0,10,15,,6.0,29.840551,,,TRUE,TRUE,,,,,,BR UP,OVC,800,,,,,,,IFR,,,,,,,,,,,,SPECI,508.0
KJYO 111935Z AUTO 18009KT 10SM CLR 15/05 A3010 RMK AO2,KJYO,2020-12-11T19:35:00Z,39.07,-77.57,15.0,5.0,180,9,,10.0,30.100393,,,TRUE,TRUE,,,,,,,CLR,,,,,,,,VFR,,,,,,,,,,,,SPECI,112.0
KJYM 111935Z AUTO 07006KT 7SM CLR 10/04 A2989 RMK AO2 T01000039,KJYM,2020-12-11T19:35:00Z,41.92,-84.58,10.0,3.9,70,6,,7.0,29.890747,,,TRUE,TRUE,,,,,,,CLR,,,,,,,,VFR,,,,,,,,,,,,METAR,357.0
KJYL 111935Z AUTO 16004KT 10SM CLR 21/07 A3015 RMK AO2 T02080065,KJYL,2020-12-11T19:35:00Z,32.65,-81.6,20.8,6.5,160,4,,10.0,30.15059,,,TRUE,TRUE,,,,,,,CLR,,,,,,,,VFR,,,,,,,,,,,,SPECI,54.0
KJYG 111935Z AUTO 02014G17KT 10SM 02/M02 A3002 RMK AO2 PWINO,KJYG,2020-12-11T19:35:00Z,43.98,-94.55,2.0,-2.0,20,14,17,10.0,30.02067,,,TRUE,TRUE,,,,,TRUE,,,,,,,,,,,,,,,,,,,,,,METAR,323.0
KJXI 111935Z AUTO 19006KT 10SM OVC005 16/15 A2985 RMK AO2 P0001 T01550150,KJXI,2020-12-11T19:35:00Z,32.7,-94.95,15.5,15.0,190,6,,10.0,29.84941,,,TRUE,TRUE,,,,,,,OVC,500,,,,,,,IFR,,,,,,0.01,,,,,,SPECI,130.0
KJWY 111935Z AUTO 21004KT 7SM OVC006 17/17 A2984 RMK AO2 T01700170,KJWY,2020-12-11T19:35:00Z,32.45,-96.92,17.0,17.0,210,4,,7.0,29.840551,,,TRUE,TRUE,,,,,,,OVC,600,,,,,,,IFR,,,,,,,,,,,,SPECI,211.0
KJWN 111935Z AUTO 17006KT 10SM SCT040 18/09 A2998 RMK A01,KJWN,2020-12-11T19:35:00Z,36.18,-86.88,18.0,9.0,170,6,,10.0,29.97933,,,TRUE,TRUE,,,,,,,SCT,4000,,,,,,,VFR,,,,,,,,,,,,SPECI,149.0
KJWG 111935Z AUTO 30013KT 10SM OVC065 07/00 A2988 RMK AO2 T00710003,KJWG,2020-12-11T19:35:00Z,35.87,-98.42,7.1,0.3,300,13,,10.0,29.878937,,,TRUE,TRUE,,,,,,,OVC,6500,,,,,,,VFR,,,,,,,,,,,,METAR,469.0
KJVY 111935Z AUTO 19014G19KT 10SM CLR 19/05 A2993 RMK AO2 T01850052 TSNO,KJVY,2020-12-11T19:35:00Z,38.37,-85.73,18.5,5.2,190,14,19,10.0,29.929134,,,TRUE,TRUE,,,TRUE,,,,CLR,,,,,,,,VFR,,,,,,,,,,,,SPECI,141.0
KJVW 111935Z AUTO 19008G15KT 10SM SCT055 20/15 A2999 RMK AO2,KJVW,2020-12-11T19:35:00Z,32.3,-90.42,20.0,15.0,190,8,15,10.0,29.991142,,,TRUE,TRUE,,,,,,,SCT,5500,,,,,,,VFR,,,,,,,,,,,,METAR,73.0
KJTC 111935Z AUTO 27017G24KT 10SM CLR 09/M11 A3005 RMK AO2,KJTC,2020-12-11T19:35:00Z,34.13,-109.32,9.0,-11.0,270,17,24,10.0,30.050198,,,TRUE,TRUE,,,,,,,CLR,,,,,,,,VFR,,,,,,,,,,,,SPECI,2148.0
KJSY 111935Z AUTO 34004KT 1 1/2SM -SN SCT007 BKN015 OVC036 00/M03 A2999 RMK AO2 T10041031,KJSY,2020-12-11T19:35:00Z,45.35,-117.25,-0.4,-3.1,340,4,,1.5,29.991142,,,TRUE,TRUE,,,,,,-SN,SCT,700,BKN,1500,OVC,3600,,,IFR,,,,,,,,,,,,METAR,1256.0
KJSV 111935Z AUTO 00000KT 10SM -RA SCT050 BKN060 15/13 A2979 RMK AO2,KJSV,2020-12-11T19:35:00Z,35.43,-94.8,15.0,13.0,0,0,,10.0,29.790354,,,TRUE,TRUE,,,,,,-RA,SCT,5000,BKN,6000,,,,,VFR,,,,,,,,,,,,SPECI,158.0
KJSO 111935Z AUTO 26003KT 5SM RA SCT003 BKN006 OVC031 16/16 A2987 RMK AO2 P0032 T01600160,KJSO,2020-12-11T19:35:00Z,31.87,-95.22,16.0,16.0,260,3,,5.0,29.870079,,,TRUE,TRUE,,,,,,RA,SCT,300,BKN,600,OVC,3100,,,IFR,,,,,,0.32,,,,,,SPECI,204.0
KJOT 111935Z AUTO 04013G18KT 10SM OVC015 07/04 A2990 RMK AO2 T00740041,KJOT,2020-12-11T19:35:00Z,41.52,-88.18,7.4,4.1,40,13,18,10.0,29.899607,,,TRUE,TRUE,,,,,,,OVC,1500,,,,,,,MVFR,,,,,,,,,,,,METAR,175.0
KJNX 111935Z AUTO 21004KT 10SM SCT045 20/11 A3013 RMK AO2,KJNX,2020-12-11T19:35:00Z,35.53,-78.38,20.0,11.0,210,4,,10.0,30.129921,,,TRUE,TRUE,,,,,,,SCT,4500,,,,,,,VFR,,,,,,,,,,,,SPECI,41.0
KJMR 111935Z AUTO 00000KT 10SM OVC016 00/M03 A3014 RMK AO2,KJMR,2020-12-11T19:35:00Z,45.88,-93.27,0.0,-3.0,0,0,,10.0,30.138779,,,TRUE,TRUE,,,,,,,OVC,1600,,,,,,,MVFR,,,,,,,,,,,,METAR,301.0
KJKJ 111935Z AUTO 04005KT 10SM OVC006 M02/M06 A3017 RMK AO2,KJKJ,2020-12-11T19:35:00Z,46.83,-96.67,-2.0,-6.0,40,5,,10.0,30.171259,,,TRUE,TRUE,,,,,,,OVC,600,,,,,,,IFR,,,,,,,,,,,,METAR,280.0
KJHN 111935Z AUTO 33014KT 10SM BKN026 OVC031 02/M02 A2986 RMK AO2 T00191022,KJHN,2020-12-11T19:35:00Z,37.58,-101.73,1.9,-2.2,330,14,,10.0,29.861221,,,TRUE,TRUE,,,,,,,BKN,2600,OVC,3100,,,,,MVFR,,,,,,,,,,,,SPECI,1013.0
KJGG 111935Z AUTO 00000KT 10SM CLR 18/09 A3016 RMK AO1,KJGG,2020-12-11T19:35:00Z,37.23,-76.72,18.0,9.0,0,0,,10.0,30.159449,,,TRUE,TRUE,,,,,,,CLR,,,,,,,,VFR,,,,,,,,,,,,METAR,13.0
KJFZ 111935Z AUTO 22004KT 10SM CLR 16/01 A3009 RMK AO2 T01550005,KJFZ,2020-12-11T19:35:00Z,37.07,-81.8,15.5,0.5,220,4,,10.0,30.088583,,,TRUE,TRUE,,,,,,,CLR,,,,,,,,VFR,,,,,,,,,,,,METAR,809.0
KJFX 111935Z AUTO 00000KT 10SM FEW039 SCT048 20/11 A3005 RMK AO2 PWINO,KJFX,2020-12-11T19:35:00Z,33.9,-87.32,20.0,11.0,0,0,,10.0,30.050198,,,TRUE,TRUE,,,,,TRUE,,FEW,3900,SCT,4800,,,,,VFR,,,,,,,,,,,,METAR,144.0
KJDD 111935Z AUTO 20006KT 10SM RA SCT007 SCT048 OVC095 16/16 A2984 RMK AO2 P0001,KJDD,2020-12-11T19:35:00Z,32.75,-95.5,16.0,16.0,200,6,,10.0,29.840551,,,TRUE,TRUE,,,,,,RA,SCT,700,SCT,4800,OVC,9500,,,VFR,,,,,,0.01,,,,,,SPECI,127.0
KJCA 111935Z AUTO 15004KT 10SM CLR 18/06 A3012 RMK AO2 T01800063,KJCA,2020-12-11T19:35:00Z,34.18,-83.57,18.0,6.3,150,4,,10.0,30.121063,,,TRUE,TRUE,,,,,,,CLR,,,,,,,,VFR,,,,,,,,,,,,SPECI,287.0
KJAU 111935Z AUTO 20006KT 10SM CLR 16/04 A3009 RMK A01,KJAU,2020-12-11T19:35:00Z,36.33,-84.17,16.0,4.0,200,6,,10.0,30.088583,,,TRUE,TRUE,,,,,,,CLR,,,,,,,,VFR,,,,,,,,,,,,SPECI,350.0
KJAS 111935Z AUTO 15005KT 10SM BKN120 22/17 A2991 RMK AO2 T02170166,KJAS,2020-12-11T19:35:00Z,30.88,-94.03,21.7,16.6,150,5,,10.0,29.911417,,,TRUE,TRUE,,,,,,,BKN,12000,,,,,,,VFR,,,,,,,,,,,,SPECI,60.0
KJAQ 111935Z AUTO 00000KT 10SM SCT120 08/01 A3015 RMK AO1 T00810008,KJAQ,2020-12-11T19:35:00Z,38.37,-120.8,8.1,0.8,0,0,,10.0,30.15059,,,TRUE,TRUE,,,,,,,SCT,12000,,,,,,,VFR,,,,,,,,,,,,SPECI,518.0
KIZA 111935Z AUTO 20003KT 10SM CLR 11/03 A3015 RMK AO2,KIZA,2020-12-11T19:35:00Z,34.6,-120.07,11.0,3.0,200,3,,10.0,30.15059,,,TRUE,TRUE,,,,,,,CLR,,,,,,,,VFR,,,,,,,,,,,,SPECI,200.0
KIYA 111935Z AUTO 13011G16KT 10SM BKN055 23/11 A2998 RMK AO2 T02330105,KIYA,2020-12-11T19:35:00Z,29.98,-92.08,23.3,10.5,130,11,16,10.0,29.97933,,,TRUE,TRUE,,,,,,,BKN,5500,,,,,,,VFR,,,,,,,,,,,,SPECI,4.0
KIXA 111935Z AUTO 15004KT 10SM SCT041 17/13 A3015 RMK AO2,KIXA,2020-12-11T19:35:00Z,36.33,-77.63,17.0,13.0,150,4,,10.0,30.15059,,,TRUE,TRUE,,,,,,,SCT,4100,,,,,,,VFR,,,,,,,,,,,,SPECI,43.0
KISQ 111935Z AUTO 35010G17KT 1 1/2SM -SN BKN013 OVC018 00/M02 A3008 RMK AO2 T00011018,KISQ,2020-12-11T19:35:00Z,45.97,-86.17,0.1,-1.8,350,10,17,1.5,30.079725,,,TRUE,TRUE,,,,,,-SN,BKN,1300,OVC,1800,,,,,IFR,,,,,,,,,,,,METAR,206.0
KIRS 111935Z AUTO 06006KT 10SM CLR 10/04 A2988 RMK AO2 T01010038,KIRS,2020-12-11T19:35:00Z,41.8,-85.43,10.1,3.8,60,6,,10.0,29.878937,,,TRUE,TRUE,,,,,,,CLR,,,,,,,,VFR,,,,,,,,,,,,METAR,282.0
KIOB 111935Z AUTO 23009G14KT 10SM CLR 18/04 A3003 RMK AO2,KIOB,2020-12-11T19:35:00Z,38.05,-83.98,18.0,4.0,230,9,14,10.0,30.029528,,,TRUE,TRUE,,,,,,,CLR,,,,,,,,VFR,,,,,,,,,,,,METAR,301.0
KINJ 111935Z AUTO 20009KT 7SM OVC004 18/18 A2982 RMK AO2 T01750175,KINJ,2020-12-11T19:35:00Z,32.08,-97.1,17.5,17.5,200,9,,7.0,29.819881,,,TRUE,TRUE,,,,,,,OVC,400,,,,,,,LIFR,,,,,,,,,,,,SPECI,208.0
KINF 111935Z AUTO 13003KT 7SM CLR 22/09 A3013 RMK AO2,KINF,2020-12-11T19:35:00Z,28.8,-82.32,22.0,9.0,130,3,,7.0,30.129921,,,TRUE,TRUE,,,,,,,CLR,,,,,,,,VFR,,,,,,,,,,,,SPECI,14.0
KIMS 111935Z AUTO 17013G16KT 10SM CLR 17/05 A2996 RMK AO1,KIMS,2020-12-11T19:35:00Z,38.75,-85.47,17.0,5.0,170,13,16,10.0,29.958662,,,TRUE,TRUE,,,,,,,CLR,,,,,,,,VFR,,,,,,,,,,,,METAR,244.0
KIMM 111935Z AUTO 05009KT 10SM CLR 24/12 A3008 RMK AO2 PWINO,KIMM,2020-12-11T19:35:00Z,26.43,-81.4,24.0,12.0,50,9,,10.0,30.079725,,,TRUE,TRUE,,,,,TRUE,,CLR,,,,,,,,VFR,,,,,,,,,,,,SPECI,11.0
KIKW 111935Z AUTO 03005KT 10SM OVC021 06/01 A3001 RMK AO2 T00610014,KIKW,2020-12-11T19:35:00Z,43.67,-84.27,6.1,1.4,30,5,,10.0,30.008858,,,TRUE,TRUE,,,,,,,OVC,2100,,,,,,,MVFR,,,,,,,,,,,,SPECI,190.0
KIKV 111935Z AUTO 06009G15KT 4SM -RA BKN009 BKN013 03/02 A2987 RMK AO2,KIKV,2020-12-11T19:35:00Z,41.68,-93.57,3.0,2.0,60,9,15,4.0,29.870079,,,TRUE,TRUE,,,,,,-RA,BKN,900,BKN,1300,,,,,IFR,,,,,,,,,,,,METAR,270.0
KIKG 111935Z AUTO 23003KT 10SM CLR 27/18 A2983 RMK AO2 T02720182,KIKG,2020-12-11T19:35:00Z,27.55,-98.03,27.2,18.2,230,3,,10.0,29.828741,,,TRUE,TRUE,,,,,,,CLR,,,,,,,,VFR,,,,,,,,,,,,SPECI,37.0
KIJX 111935Z AUTO 00000KT 10SM BKN075 BKN090 11/07 A2981 RMK AO2 T01060072,KIJX,2020-12-11T19:35:00Z,39.77,-90.25,10.6,7.2,0,0,,10.0,29.811024,,,TRUE,TRUE,,,,,,,BKN,7500,BKN,9000,,,,,VFR,,,,,,,,,,,,SPECI,187.0
KIIY 111935Z AUTO 18003KT 10SM CLR 18/07 A3013 RMK AO2,KIIY,2020-12-11T19:35:00Z,33.78,-82.82,18.0,7.0,180,3,,10.0,30.129921,,,TRUE,TRUE,,,,,,,CLR,,,,,,,,VFR,,,,,,,,,,,,SPECI,192.0
KIIB 111935Z AUTO 06014G21KT 10SM -RA BKN010 OVC014 03/02 A2990 RMK AO2 P0001 T00250015,KIIB,2020-12-11T19:35:00Z,42.45,-91.95,2.5,1.5,60,14,21,10.0,29.899607,,,TRUE,TRUE,,,,,,-RA,BKN,1000,OVC,1400,,,,,MVFR,,,,,,0.01,,,,,,SPECI,294.0
KIGQ 111935Z AUTO 02011G16KT 360V060 5SM BR OVC011 06/04 A2991 RMK AO2 T00560035,KIGQ,2020-12-11T19:35:00Z,41.53,-87.53,5.6,3.5,20,11,16,5.0,29.911417,,,TRUE,TRUE,,,,,,BR,OVC,1100,,,,,,,MVFR,,,,,,,,,,,,SPECI,187.0
KIFA 111935Z AUTO 04014G19KT 10SM DZ OVC010 03/01 A2991 RMK AO2 T00290006,KIFA,2020-12-11T19:35:00Z,42.47,-93.27,2.9,0.6,40,14,19,10.0,29.911417,,,TRUE,TRUE,,,,,,DZ,OVC,1000,,,,,,,MVFR,,,,,,,,,,,,METAR,344.0
KIER 111935Z AUTO 18010G18KT 10SM CLR 22/14 A2991 RMK AO2 T02240135,KIER,2020-12-11T19:35:00Z,31.73,-93.1,22.4,13.5,180,10,18,10.0,29.911417,,,TRUE,TRUE,,,,,,,CLR,,,,,,,,VFR,,,,,,,,,,,,SPECI,35.0
KIDP 111935Z AUTO 29011KT 10SM SCT110 08/03 A2979 RMK AO2 T00820030,KIDP,2020-12-11T19:35:00Z,37.17,-95.78,8.2,3.0,290,11,,10.0,29.790354,,,TRUE,TRUE,,,,,,,SCT,11000,,,,,,,VFR,,,,,,,,,,,,METAR,252.0
KIDI 111935Z AUTO 25006G14KT 10SM CLR 16/03 A3004 RMK A01,KIDI,2020-12-11T19:35:00Z,40.63,-79.1,16.0,3.0,250,6,14,10.0,30.041338,,,TRUE,TRUE,,,,,,,CLR,,,,,,,,VFR,,,,,,,,,,,,METAR,425.0
KICL 111935Z AUTO 06007G13KT 10SM OVC010 03/03 A2979 RMK AO2,KICL,2020-12-11T19:35:00Z,40.72,-95.02,3.0,3.0,60,7,13,10.0,29.790354,,,TRUE,TRUE,,,,,,,OVC,1000,,,,,,,MVFR,,,,,,,,,,,,METAR,299.0
KI75 111935Z AUTO 03012G16KT 5SM -RA OVC005 03/03 A2979 RMK AO2 T00330028,KI75,2020-12-11T19:35:00Z,41.05,-93.68,3.3,2.8,30,12,16,5.0,29.790354,,,TRUE,TRUE,,,,,,-RA,OVC,500,,,,,,,IFR,,,,,,,,,,,,METAR,336.0
KI74 111935Z AUTO 22010KT 186V296 10SM CLR 16/04 A2994 RMK AO2,KI74,2020-12-11T19:35:00Z,40.12,-83.75,16.0,4.0,220,10,,10.0,29.940945,,,TRUE,TRUE,,,,,,,CLR,,,,,,,,VFR,,,,,,,,,,,,SPECI,322.0
KI69 111935Z AUTO 22008G15KT 10SM CLR 18/03 A2998 RMK AO2 T01770025,KI69,2020-12-11T19:35:00Z,39.08,-84.22,17.7,2.5,220,8,15,10.0,29.97933,,,TRUE,TRUE,,,,,,,CLR,,,,,,,,VFR,,,,,,,,,,,,METAR,238.0
KI68 111935Z AUTO 19009KT 10SM CLR 17/06 A2995 RMK AO1 T01680063,KI68,2020-12-11T19:35:00Z,39.47,-84.25,16.8,6.3,190,9,,10.0,29.949802,,,TRUE,TRUE,,,,,,,CLR,,,,,,,,VFR,,,,,,,,,,,,SPECI,274.0
KI67 111935Z AUTO 19010KT 10SM CLR 17/04 A2994 RMK AO1,KI67,2020-12-11T19:35:00Z,39.25,-84.78,17.0,4.0,190,10,,10.0,29.940945,,,TRUE,TRUE,,,,,,,CLR,,,,,,,,VFR,,,,,,,,,,,,SPECI,177.0
KI63 111935Z AUTO 02005KT 7SM RA SCT041 SCT049 OVC065 07/06 A2981 RMK AO2 T00660061,KI63,2020-12-11T19:35:00Z,39.98,-90.8,6.6,6.1,20,5,,7.0,29.811024,,,TRUE,TRUE,,,,,,RA,SCT,4100,SCT,4900,OVC,6500,,,VFR,,,,,,,,,,,,SPECI,221.0
KI43 111935Z AUTO 24008KT 10SM CLR 18/03 A3003 RMK AO2,KI43,2020-12-11T19:35:00Z,38.98,-82.58,18.0,3.0,240,8,,10.0,30.029528,,,TRUE,TRUE,,,,,,,CLR,,,,,,,,VFR,,,,,,,,,,,,METAR,221.0
KI35 111935Z AUTO 16003KT 10SM CLR 16/02 A3006 RMK AO2 T01610022,KI35,2020-12-11T19:35:00Z,36.87,-83.37,16.1,2.2,160,3,,10.0,30.059055,,,TRUE,TRUE,,,,,,,CLR,,,,,,,,VFR,,,,,,,,,,,,SPECI,467.0
KI23 111935Z AUTO 20014KT 10SM CLR 16/03 A2996 RMK AO1,KI23,2020-12-11T19:35:00Z,39.57,-83.42,16.0,3.0,200,14,,10.0,29.958662,,,TRUE,TRUE,,,,,,,CLR,,,,,,,,VFR,,,,,,,,,,,,METAR,298.0
KI19 111935Z AUTO 20007KT 10SM CLR 16/03 A2997 RMK AO2 T01560026,KI19,2020-12-11T19:35:00Z,39.7,-83.98,15.6,2.6,200,7,,10.0,29.970472,,,TRUE,TRUE,,,,,,,CLR,,,,,,,,VFR,,,,,,,,,,,,SPECI,285.0
KI16 111935Z AUTO 10SM CLR 17/04 A3010 RMK AO2 T01730035,KI16,2020-12-11T19:35:00Z,37.6,-81.57,17.3,3.5,,,,10.0,30.100393,,,TRUE,TRUE,,,,,,,CLR,,,,,,,,VFR,,,,,,,,,,,,SPECI,528.0
KHZX 111935Z AUTO 02006KT 10SM OVC014 00/M03 A3014 RMK AO2,KHZX,2020-12-11T19:35:00Z,46.62,-93.32,0.0,-3.0,20,6,,10.0,30.138779,,,TRUE,TRUE,,,,,,,OVC,1400,,,,,,,MVFR,,,,,,,,,,,,METAR,374.0
KHZL 111935Z AUTO 16004KT 10SM CLR 09/01 A3008 RMK AO2,KHZL,2020-12-11T19:35:00Z,40.98,-76.0,9.0,1.0,160,4,,10.0,30.079725,,,TRUE,TRUE,,,,,,,CLR,,,,,,,,VFR,,,,,,,,,,,,METAR,481.0
KHZE 111935Z AUTO 00000KT M1/4SM FZFG OVC003 M07/M07 A3016 RMK AO2,KHZE,2020-12-11T19:35:00Z,47.28,-101.58,-7.0,-7.0,0,0,,0.25,30.159449,,,TRUE,TRUE,,,,,,FZFG,OVC,300,,,,,,,LIFR,,,,,,,,,,,,METAR,542.0
KHZD 111935Z AUTO 20008KT 170V230 10SM CLR 18/10 A2995 RMK A01,KHZD,2020-12-11T19:35:00Z,36.08,-88.47,18.0,10.0,200,8,,10.0,29.949802,,,TRUE,TRUE,,,,,,,CLR,,,,,,,,VFR,,,,,,,,,,,,SPECI,147.0
KHYW 111935Z AUTO 19003KT 10SM CLR 21/05 A3014 RMK AO2,KHYW,2020-12-11T19:35:00Z,33.83,-79.12,21.0,5.0,190,3,,10.0,30.138779,,,TRUE,TRUE,,,,,,,CLR,,,,,,,,VFR,,,,,,,,,,,,SPECI,10.0
KHWY 111935Z AUTO 20008KT 10SM CLR 18/02 A3009 RMK AO2 T01750018,KHWY,2020-12-11T19:35:00Z,38.58,-77.72,17.5,1.8,200,8,,10.0,30.088583,,,TRUE,TRUE,,,,,,,CLR,,,,,,,,VFR,,,,,,,,,,,,METAR,93.0
KHVS 111935Z AUTO 00000KT 10SM CLR 18/10 A3014 RMK AO2,KHVS,2020-12-11T19:35:00Z,34.4,-80.12,18.0,10.0,0,0,,10.0,30.138779,,,TRUE,TRUE,,,,,,,CLR,,,,,,,,VFR,,,,,,,,,,,,METAR,110.0
KHVE 111935Z AUTO 32015G22KT 10SM CLR 07/M11 A2998 RMK AO2,KHVE,2020-12-11T19:35:00Z,38.42,-110.7,7.0,-11.0,320,15,22,10.0,29.97933,,,TRUE,TRUE,,,,,,,CLR,,,,,,,,VFR,,,,,,,,,,,,SPECI,1351.0
KHTO 111935Z AUTO 21009G15KT 10SM CLR 11/07 A3013 RMK AO2 T01100065,KHTO,2020-12-11T19:35:00Z,40.95,-72.25,11.0,6.5,210,9,15,10.0,30.129921,,,TRUE,TRUE,,,,,,,CLR,,,,,,,,VFR,,,,,,,,,,,,METAR,10.0
KHTH 111935Z AUTO 33006KT 10SM CLR 04/M08 A3011 RMK A01,KHTH,2020-12-11T19:35:00Z,,,4.0,-8.0,330,6,,10.0,30.109253,,,TRUE,TRUE,,,,,,,CLR,,,,,,,,VFR,,,,,,,,,,,,SPECI,
KHSP 111935Z AUTO 24009KT 10SM CLR 13/M01 A3012 RMK AO2 T01321007,KHSP,2020-12-11T19:35:00Z,37.95,-79.82,13.2,-0.7,240,9,,10.0,30.121063,,,TRUE,TRUE,,,,,,,CLR,,,,,,,,VFR,,,,,,,,,,,,SPECI,1148.0
KHSG 111935Z AUTO 18010G16KT 10SM OVC028 M01/M05 A2988 RMK AO2 T10131053 PWINO,KHSG,2020-12-11T19:35:00Z,43.72,-108.38,-1.3,-5.3,180,10,16,10.0,29.878937,,,TRUE,TRUE,,,,,TRUE,,OVC,2800,,,,,,,MVFR,,,,,,,,,,,,SPECI,1497.0
KHSD 111935Z AUTO 31010G17KT 10SM CLR 08/01 A2985 RMK A01,KHSD,2020-12-11T19:35:00Z,35.6,-97.72,8.0,1.0,310,10,17,10.0,29.84941,,,TRUE,TRUE,,,,,,,CLR,,,,,,,,VFR,,,,,,,,,,,,SPECI,358.0
KHSB 111935Z AUTO 21016G21KT 10SM BKN030 18/10 A2989 RMK AO2 T01820096,KHSB,2020-12-11T19:35:00Z,37.82,-88.55,18.2,9.6,210,16,21,10.0,29.890747,,,TRUE,TRUE,,,,,,,BKN,3000,,,,,,,MVFR,,,,,,,,,,,,SPECI,118.0
KHRX 111935Z AUTO 36007KT 340V110 10SM CLR 09/00 A2987 RMK AO2 T00850000,KHRX,2020-12-11T19:35:00Z,34.87,-102.33,8.5,0.0,360,7,,10.0,29.870079,,,TRUE,TRUE,,,,,,,CLR,,,,,,,,VFR,,,,,,,,,,,,SPECI,1153.0
KHRJ 111935Z AUTO 15003KT 10SM CLR 19/11 A3014 RMK AO2 T01940106,KHRJ,2020-12-11T19:35:00Z,35.38,-78.73,19.4,10.6,150,3,,10.0,30.138779,,,TRUE,TRUE,,,,,,,CLR,,,,,,,,VFR,,,,,,,,,,,,SPECI,55.0
KHQU 111935Z AUTO 27005KT 10SM CLR 20/05 A3012 RMK AO2 T01990055,KHQU,2020-12-11T19:35:00Z,33.53,-82.52,19.9,5.5,270,5,,10.0,30.121063,,,TRUE,TRUE,,,,,,,CLR,,,,,,,,VFR,,,,,,,,,,,,SPECI,141.0
KHQM 111935Z AUTO 05005KT 7SM -RA BKN031 OVC049 04/03 A3005 RMK AO2 P0007 T00390028,KHQM,2020-12-11T19:35:00Z,46.97,-123.93,3.9,2.8,50,5,,7.0,30.050198,,,TRUE,TRUE,,,,,,-RA,BKN,3100,OVC,4900,,,,,VFR,,,,,,0.07,,,,,,METAR,4.0
KHQG 111935Z AUTO 34011KT 2SM -SN BKN012 OVC022 01/M01 A2987 RMK AO2 T00091013,KHQG,2020-12-11T19:35:00Z,37.17,-101.37,0.9,-1.3,340,11,,2.0,29.870079,,,TRUE,TRUE,,,,,,-SN,BKN,1200,OVC,2200,,,,,IFR,,,,,,,,,,,,SPECI,956.0
KHQG 111935Z AUTO 34011KT 2SM -SN BKN012 OVC022 01/M01 A2987 RMK AO2 T00091013,KHQG,2020-12-11T19:35:00Z,37.17,-101.37,0.9,-1.3,340,11,,2.0,29.870079,,,TRUE,TRUE,,,,,,-SN,BKN,1200,OVC,2200,,,,,IFR,,,,,,,,,,,,SPECI,956.0
KHPT 111935Z AUTO 05012G17KT 10SM -DZ BKN016 OVC021 02/01 A2991 RMK AO2,KHPT,2020-12-11T19:35:00Z,42.72,-93.23,2.0,1.0,50,12,17,10.0,29.911417,,,TRUE,TRUE,,,,,,-DZ,BKN,1600,OVC,2100,,,,,MVFR,,,,,,,,,,,,SPECI,354.0
KHOT 111935Z AUTO 00000KT 3SM -RA BR FEW003 BKN013 OVC019 13/13 A2985 RMK AO2 P0006 T01330128,KHOT,2020-12-11T19:35:00Z,34.48,-93.1,13.3,12.8,0,0,,3.0,29.84941,,,TRUE,TRUE,,,,,,-RA BR,FEW,300,BKN,1300,OVC,1900,,,MVFR,,,,,,0.06,,,,,,METAR,153.0
KHNZ 111935Z AUTO 21005KT 10SM CLR 17/08 A3014 RMK AO2 T01700077,KHNZ,2020-12-11T19:35:00Z,36.37,-78.53,17.0,7.7,210,5,,10.0,30.138779,,,TRUE,TRUE,,,,,,,CLR,,,,,,,,VFR,,,,,,,,,,,,SPECI,158.0
KHNR 111935Z AUTO 05012G20KT 6SM -RA BKN012 03/02 A2982 RMK AO2,KHNR,2020-12-11T19:35:00Z,41.58,-95.33,3.0,2.0,50,12,20,6.0,29.819881,,,TRUE,TRUE,,,,,,-RA,BKN,1200,,,,,,,MVFR,,,,,,,,,,,,METAR,364.0
KHMZ 111935Z AUTO 18009KT 10SM CLR 16/01 A3002 RMK AO2 T01600010,KHMZ,2020-12-11T19:35:00Z,40.08,-78.52,16.0,1.0,180,9,,10.0,30.02067,,,TRUE,TRUE,,,,,,,CLR,,,,,,,,VFR,,,,,,,,,,,,SPECI,351.0
KHMT 111935Z AUTO 00000KT 10SM CLR 13/05 A3011 RMK AO2 T01310050,KHMT,2020-12-11T19:35:00Z,33.73,-117.02,13.1,5.0,0,0,,10.0,30.109253,,,TRUE,TRUE,,,,,,,CLR,,,,,,,,VFR,,,,,,,,,,,,METAR,462.0
KHMP 111935Z AUTO 22008KT 180V250 10SM CLR 19/05 A3014 RMK AO2 T01950049,KHMP,2020-12-11T19:35:00Z,33.38,-84.33,19.5,4.9,220,8,,10.0,30.138779,,,TRUE,TRUE,,,,,,,CLR,,,,,,,,VFR,,,,,,,,,,,,SPECI,263.0
KHLX 111935Z AUTO 14003KT 10SM CLR 14/03 A3011 RMK AO2 T01430031,KHLX,2020-12-11T19:35:00Z,36.77,-80.82,14.3,3.1,140,3,,10.0,30.109253,,,TRUE,TRUE,,,,,,,CLR,,,,,,,,VFR,,,,,,,,,,,,SPECI,819.0
KHLB 111935Z AUTO 18010G20KT 10SM CLR 17/04 A2992 RMK A01,KHLB,2020-12-11T19:35:00Z,,,17.0,4.0,180,10,20,10.0,29.920275,,,TRUE,TRUE,,,,,,,CLR,,,,,,,,VFR,,,,,,,,,,,,SPECI,
KHJH 111935Z AUTO 03013G18KT 10SM OVC011 02/00 A2983 RMK AO2 T00201001,KHJH,2020-12-11T19:35:00Z,40.15,-97.58,2.0,-0.1,30,13,18,10.0,29.828741,,,TRUE,TRUE,,,,,,,OVC,1100,,,,,,,MVFR,,,,,,,,,,,,SPECI,449.0
KHII 111935Z AUTO 15008KT 10SM CLR 16/06 A3005 RMK AO2,KHII,2020-12-11T19:35:00Z,34.57,-114.37,16.0,6.0,150,8,,10.0,30.050198,,,TRUE,TRUE,,,,,,,CLR,,,,,,,,VFR,,,,,,,,,,,,METAR,241.0
KHHW 111935Z AUTO 21006KT 10SM RA OVC005 15/15 A2980 RMK AO2,KHHW,2020-12-11T19:35:00Z,34.03,-95.55,15.0,15.0,210,6,,10.0,29.799213,,,TRUE,TRUE,,,,,,RA,OVC,500,,,,,,,IFR,,,,,,,,,,,,SPECI,178.0
KHHG 111935Z AUTO 18006KT 10SM CLR 15/04 A2986 RMK AO2 T01450036,KHHG,2020-12-11T19:35:00Z,40.85,-85.45,14.5,3.6,180,6,,10.0,29.861221,,,TRUE,TRUE,,,,,,,CLR,,,,,,,,VFR,,,,,,,,,,,,SPECI,247.0
KHHF 111935Z AUTO 33011KT 10SM BKN028 OVC100 06/M01 A2986 RMK AO2 T00561010,KHHF,2020-12-11T19:35:00Z,35.9,-100.4,5.6,-1.0,330,11,,10.0,29.861221,,,TRUE,TRUE,,,,,,,BKN,2800,OVC,10000,,,,,MVFR,,,,,,,,,,,,SPECI,729.0
KHFY 111935Z AUTO 20006KT 10SM CLR 17/05 A2989 RMK AO2 T01650053,KHFY,2020-12-11T19:35:00Z,39.63,-86.08,16.5,5.3,200,6,,10.0,29.890747,,,TRUE,TRUE,,,,,,,CLR,,,,,,,,VFR,,,,,,,,,,,,SPECI,250.0
KHFJ 111935Z AUTO 20009KT 10SM OVC014 13/12 A2974 RMK AO2,KHFJ,2020-12-11T19:35:00Z,36.9,-94.02,13.0,12.0,200,9,,10.0,29.740158,,,TRUE,TRUE,,,,,,,OVC,1400,,,,,,,MVFR,,,,,,,,,,,,SPECI,398.0
KHEQ 111935Z AUTO 36015KT 10SM CLR 02/M02 A2991 RMK AO2,KHEQ,2020-12-11T19:35:00Z,40.57,-102.28,2.0,-2.0,360,15,,10.0,29.911417,,,TRUE,TRUE,,,,,,,CLR,,,,,,,,VFR,,,,,,,,,,,,SPECI,1136.0
KHEG 111935Z AUTO VRB05G10KT 10SM CLR 21/08 A3015 RMK AO2,KHEG,2020-12-11T19:35:00Z,30.28,-81.8,21.0,8.0,0,5,10,10.0,30.15059,,,TRUE,TRUE,,,,,,,CLR,,,,,,,,VFR,,,,,,,,,,,,METAR,25.0
KHDE 111935Z AUTO 01014KT 10SM OVC008 00/M01 A2986 RMK AO2 T00001012,KHDE,2020-12-11T19:35:00Z,40.45,-99.33,0.0,-1.2,10,14,,10.0,29.861221,,,TRUE,TRUE,,,,,,,OVC,800,,,,,,,IFR,,,,,,,,,,,,METAR,703.0
KHDC 111935Z AUTO 19005KT 10SM OVC050 21/12 A3002 RMK AO2,KHDC,2020-12-11T19:35:00Z,30.52,-90.42,21.0,12.0,190,5,,10.0,30.02067,,,TRUE,TRUE,,,,,,,OVC,5000,,,,,,,VFR,,,,,,,,,,,,SPECI,12.0
KHCR 111935Z AUTO 35003KT 10SM SCT085 00/M05 A2994 RMK AO2,KHCR,2020-12-11T19:35:00Z,40.48,-111.43,0.0,-5.0,350,3,,10.0,29.940945,,,TRUE,TRUE,,,,,,,SCT,8500,,,,,,,VFR,,,,,,,,,,,,SPECI,1708.0
KHCO 111935Z AUTO 00000KT 10SM OVC007 M04/M05 A3020 RMK AO2,KHCO,2020-12-11T19:35:00Z,48.75,-96.93,-4.0,-5.0,0,0,,10.0,30.200787,,,TRUE,TRUE,,,,,,,OVC,700,,,,,,,IFR,,,,,,,,,,,,METAR,250.0
KHCD 111935Z AUTO 02015G19KT 10SM CLR 02/M02 A3008 RMK AO2 T00241017,KHCD,2020-12-11T19:35:00Z,44.87,-94.38,2.4,-1.7,20,15,19,10.0,30.079725,,,TRUE,TRUE,,,,,,,CLR,,,,,,,,VFR,,,,,,,,,,,,METAR,320.0
KHBV 111935Z AUTO 33007KT 10SM CLR 25/11 A2985 RMK AO2 T02530114,KHBV,2020-12-11T19:35:00Z,27.35,-98.73,25.3,11.4,330,7,,10.0,29.84941,,,TRUE,TRUE,,,,,,,CLR,,,,,,,,VFR,,,,,,,,,,,,SPECI,200.0
KHBI 111935Z AUTO 24004KT 10SM CLR 17/09 A3016 RMK AO2 T01650085,KHBI,2020-12-11T19:35:00Z,35.65,-79.9,16.5,8.5,240,4,,10.0,30.159449,,,TRUE,TRUE,,,,,,,CLR,,,,,,,,VFR,,,,,,,,,,,,SPECI,199.0
KHAI 111935Z AUTO 08008KT 7SM CLR 09/04 A2990 RMK AO2 T00920035,KHAI,2020-12-11T19:35:00Z,41.97,-85.6,9.2,3.5,80,8,,7.0,29.899607,,,TRUE,TRUE,,,,,,,CLR,,,,,,,,VFR,,,,,,,,,,,,METAR,250.0
KHAF 111935Z AUTO 33009KT 7SM CLR 12/04 A3021 RMK AO2,KHAF,2020-12-11T19:35:00Z,37.52,-122.5,12.0,4.0,330,9,,7.0,30.209646,,,TRUE,TRUE,,,,,,,CLR,,,,,,,,VFR,,,,,,,,,,,,SPECI,11.0
KHAE 111935Z AUTO 08005KT 4SM DZ SCT021 BKN038 OVC070 07/06 A2977 RMK AO2 P0005,KHAE,2020-12-11T19:35:00Z,39.73,-91.45,7.0,6.0,80,5,,4.0,29.769686,,,TRUE,TRUE,,,,,,DZ,SCT,2100,BKN,3800,OVC,7000,,,MVFR,,,,,,0.05,,,,,,SPECI,230.0
KH71 111935Z AUTO 27006KT 10SM OVC018 09/07 A2978 RMK AO2,KH71,2020-12-11T19:35:00Z,36.22,-95.33,9.0,7.0,270,6,,10.0,29.778543,,,TRUE,TRUE,,,,,,,OVC,1800,,,,,,,MVFR,,,,,,,,,,,,SPECI,190.0
KGZS 111935Z AUTO 7.54166708G13KT 160V220 10SM FEW046 18/10 A3002 RMK A01,KGZS,2020-12-11T19:35:00Z,35.15,-87.05,18.0,10.0,166,0,13,10.0,30.02067,,,TRUE,TRUE,,,,,,,FEW,4600,,,,,,,VFR,,,,,,,,,,,,SPECI,198.0
KGZL 111935Z AUTO 24007KT 10SM A2979 RMK AO2,KGZL,2020-12-11T19:35:00Z,35.28,-95.1,,,240,7,,10.0,29.790354,,,TRUE,TRUE,,,,,,,,,,,,,,,,,,,,,,,,,,,METAR,176.0
KGYL 111935Z AUTO 03008KT 10SM SCT015 02/M03 A3007 RMK AO2 T00161026,KGYL,2020-12-11T19:35:00Z,44.77,-94.08,1.6,-2.6,30,8,,10.0,30.070866,,,TRUE,TRUE,,,,,,,SCT,1500,,,,,,,VFR,,,,,,,,,,,,METAR,304.0
KGYF 111935Z AUTO 17021KT 10SM CLR A2986 RMK AO2,KGYF,2020-12-11T19:35:00Z,,,,,170,21,,10.0,29.861221,,,TRUE,TRUE,,,,,,,CLR,,,,,,,,VFR,,,,,,,,,,,,METAR,
KGYB 111935Z AUTO 18003KT 7SM SCT004 SCT009 BKN047 19/18 A2987 RMK AO2 T01910178,KGYB,2020-12-11T19:35:00Z,30.17,-96.98,19.1,17.8,180,3,,7.0,29.870079,,,TRUE,TRUE,,,,,,,SCT,400,SCT,900,BKN,4700,,,VFR,,,,,,,,,,,,SPECI,140.0
KGWW 111935Z AUTO 13003KT 10SM CLR 20/12 A3014 RMK AO2 T02010123,KGWW,2020-12-11T19:35:00Z,35.47,-77.97,20.1,12.3,130,3,,10.0,30.138779,,,TRUE,TRUE,,,,,,,CLR,,,,,,,,VFR,,,,,,,,,,,,SPECI,40.0
KGWR 111935Z AUTO 02009KT 1 1/2SM BR OVC003 M04/M04 A3015 RMK A01,KGWR,2020-12-11T19:35:00Z,46.22,-97.65,-4.0,-4.0,20,9,,1.5,30.15059,,,TRUE,TRUE,,,,,,BR,OVC,300,,,,,,,LIFR,,,,,,,,,,,,METAR,381.0
KGWB 111935Z AUTO 00000KT 10SM CLR 12/04 A2989 RMK AO2,KGWB,2020-12-11T19:35:00Z,41.3,-85.07,12.0,4.0,0,0,,10.0,29.890747,,,TRUE,TRUE,,,,,,,CLR,,,,,,,,VFR,,,,,,,,,,,,SPECI,268.0
KGVT 111935Z AUTO 19007KT 10SM OVC004 18/ A2982 RMK AO2 P0001,KGVT,2020-12-11T19:35:00Z,33.07,-96.07,18.0,,190,7,,10.0,29.819881,,,TRUE,TRUE,,,,,,,OVC,400,,,,,,,LIFR,,,,,,0.01,,,,,,METAR,165.0
KGVE 111935Z AUTO 21010KT 10SM CLR 18/04 A3009 RMK AO1 T01750043,KGVE,2020-12-11T19:35:00Z,38.15,-78.17,17.5,4.3,210,10,,10.0,30.088583,,,TRUE,TRUE,,,,,,,CLR,,,,,,,,VFR,,,,,,,,,,,,SPECI,138.0
KGUY 111935Z AUTO 35014KT 7SM -SN SCT010 SCT018 OVC026 02/01 A2987 RMK AO2 P0000 T00220006,KGUY,2020-12-11T19:35:00Z,36.68,-101.5,2.2,0.6,350,14,,7.0,29.870079,,,TRUE,TRUE,,,,,,-SN,SCT,1000,SCT,1800,OVC,2600,,,MVFR,,,,,,0.005,,,,,,METAR,950.0
KGRY 111935Z AUTO 17013KT 10SM CLR 22/16 A3000 RMK A01,KGRY,2020-12-11T19:35:00Z,27.63,-90.45,22.0,16.0,170,13,,10.0,30.0,,,TRUE,TRUE,,,,,,,CLR,,,,,,,,VFR,,,,,,,,,,,,SPECI,58.0
KGRN 111935Z AUTO 03006KT 10SM BKN090 M01/M05 A2998 RMK AO2 T10081053,KGRN,2020-12-11T19:35:00Z,42.8,-102.17,-0.8,-5.3,30,6,,10.0,29.97933,,,TRUE,TRUE,,,,,,,BKN,9000,,,,,,,VFR,,,,,,,,,,,,SPECI,1080.0
KGPH 111935Z AUTO 00000KT 7SM -RA OVC007 06/05 A2974 RMK AO2,KGPH,2020-12-11T19:35:00Z,39.33,-94.32,6.0,5.0,0,0,,7.0,29.740158,,,TRUE,TRUE,,,,,,-RA,OVC,700,,,,,,,IFR,,,,,,,,,,,,SPECI,233.0
KGPC 111935Z AUTO 20013KT 10SM CLR 17/07 A2988 RMK AO2 T01660074,KGPC,2020-12-11T19:35:00Z,39.63,-86.82,16.6,7.4,200,13,,10.0,29.878937,,,TRUE,TRUE,,,,,,,CLR,,,,,,,,VFR,,,,,,,,,,,,SPECI,254.0
KGOP 111935Z AUTO 20009KT 10SM CLR 19/17 A2985 RMK AO2,KGOP,2020-12-11T19:35:00Z,31.42,-97.8,19.0,17.0,200,9,,10.0,29.84941,,,TRUE,TRUE,,,,,,,CLR,,,,,,,,VFR,,,,,,,,,,,,SPECI,272.0
KGOO 111935Z AUTO 16004KT 10SM FEW080 FEW095 08/M02 A3011 RMK A01,KGOO,2020-12-11T19:35:00Z,39.22,-121.0,8.0,-2.0,160,4,,10.0,30.109253,,,TRUE,TRUE,,,,,,,FEW,8000,FEW,9500,,,,,VFR,,,,,,,,,,,,SPECI,950.0
KGNT 111935Z AUTO 30017G33KT 10SM SCT050 06/M06 A2998 RMK AO2 T00551060,KGNT,2020-12-11T19:35:00Z,35.17,-107.9,5.5,-6.0,300,17,33,10.0,29.97933,,,TRUE,TRUE,,,,,,,SCT,5000,,,,,,,VFR,,,,,,,,,,,,SPECI,1988.0
KGNC 111935Z AUTO 27012G16KT 10SM CLR 16/04 A2990 RMK AO2 T01610039,KGNC,2020-12-11T19:35:00Z,32.68,-102.65,16.1,3.9,270,12,16,10.0,29.899607,,,TRUE,TRUE,,,,,,,CLR,,,,,,,,VFR,,,,,,,,,,,,SPECI,1002.0
KGMJ 111935Z AUTO 24010G15KT 5SM BR OVC008 11/10 A2978 RMK AO2,KGMJ,2020-12-11T19:35:00Z,36.6,-94.73,11.0,10.0,240,10,15,5.0,29.778543,,,TRUE,TRUE,,,,,,BR,OVC,800,,,,,,,IFR,,,,,,,,,,,,SPECI,251.0
KGLY 111935Z AUTO 19004KT 10SM OVC014 13/12 A2970 RMK AO2,KGLY,2020-12-11T19:35:00Z,38.35,-93.68,13.0,12.0,190,4,,10.0,29.698818,,,TRUE,TRUE,,,,,,,OVC,1400,,,,,,,MVFR,,,,,,,,,,,,METAR,247.0
KGLW 111935Z AUTO 20006KT 10SM CLR 16/07 A3001 RMK AO2 T01630069,KGLW,2020-12-11T19:35:00Z,37.03,-85.95,16.3,6.9,200,6,,10.0,30.008858,,,TRUE,TRUE,,,,,,,CLR,,,,,,,,VFR,,,,,,,,,,,,SPECI,216.0
KGKT 111935Z AUTO 00000KT 10SM CLR 17/04 A3005 RMK A01,KGKT,2020-12-11T19:35:00Z,35.85,-83.53,17.0,4.0,0,0,,10.0,30.050198,,,TRUE,TRUE,,,,,,,CLR,,,,,,,,VFR,,,,,,,,,,,,SPECI,305.0
KGIC 111935Z AUTO 04003KT 10SM SCT023 BKN043 OVC055 M01/M01 A2999 RMK AO1,KGIC,2020-12-11T19:35:00Z,45.95,-116.12,-1.0,-1.0,40,3,,10.0,29.991142,,,TRUE,TRUE,,,,,,,SCT,2300,BKN,4300,OVC,5500,,,VFR,,,,,,,,,,,,SPECI,1002.0
KGHW 111935Z AUTO 06009KT 10SM OVC005 M02/M03 A3011 RMK AO2,KGHW,2020-12-11T19:35:00Z,45.63,-95.32,-2.0,-3.0,60,9,,10.0,30.109253,,,TRUE,TRUE,,,,,,,OVC,500,,,,,,,IFR,,,,,,,,,,,,METAR,423.0
KGHG 111935Z AUTO 21013G20KT 10SM CLR 12/04 A3009 RMK AO2,KGHG,2020-12-11T19:35:00Z,42.1,-70.67,12.0,4.0,210,13,20,10.0,30.088583,,,TRUE,TRUE,,,,,,,CLR,,,,,,,,VFR,,,,,,,,,,,,SPECI,3.0
KGGP 111935Z AUTO 14003KT 10SM CLR 14/06 A2986 RMK AO2,KGGP,2020-12-11T19:35:00Z,40.72,-86.37,14.0,6.0,140,3,,10.0,29.861221,,,TRUE,TRUE,,,,,,,CLR,,,,,,,,VFR,,,,,,,,,,,,SPECI,224.0
KGGI 111935Z AUTO 05017G21KT 4SM RA BKN006 OVC010 05/03 A2986 RMK AO2 P0004 T00500031,KGGI,2020-12-11T19:35:00Z,41.72,-92.73,5.0,3.1,50,17,21,4.0,29.861221,,,TRUE,TRUE,,,,,,RA,BKN,600,OVC,1000,,,,,IFR,,,,,,0.04,,,,,,METAR,305.0
KGGE 111935Z AUTO 25004KT 10SM CLR 20/08 A3015 RMK AO2,KGGE,2020-12-11T19:35:00Z,33.32,-79.32,20.0,8.0,250,4,,10.0,30.15059,,,TRUE,TRUE,,,,,,,CLR,,,,,,,,VFR,,,,,,,,,,,,SPECI,9.0
KGEV 111935Z AUTO 12005KT 10SM CLR 13/03 A3011 RMK AO2 T01270028,KGEV,2020-12-11T19:35:00Z,36.43,-81.42,12.7,2.8,120,5,,10.0,30.109253,,,TRUE,TRUE,,,,,,,CLR,,,,,,,,VFR,,,,,,,,,,,,SPECI,961.0
KGDJ 111935Z AUTO 22012KT 10SM SCT022 SCT028 21/15 A2983 RMK AO2 T02100149,KGDJ,2020-12-11T19:35:00Z,32.45,-97.82,21.0,14.9,220,12,,10.0,29.828741,,,TRUE,TRUE,,,,,,,SCT,2200,SCT,2800,,,,,VFR,,,,,,,,,,,,SPECI,235.0
KGDB 111935Z AUTO 03010G14KT 10SM CLR 04/M01 A3009 RMK AO2 T00391011,KGDB,2020-12-11T19:35:00Z,44.75,-95.55,3.9,-1.1,30,10,14,10.0,30.088583,,,TRUE,TRUE,,,,,,,CLR,,,,,,,,VFR,,,,,,,,,,,,METAR,316.0
KGCY 111935Z AUTO 00000KT 10SM CLR 16/03 A3007 RMK A01,KGCY,2020-12-11T19:35:00Z,36.2,-82.82,16.0,3.0,0,0,,10.0,30.070866,,,TRUE,TRUE,,,,,,,CLR,,,,,,,,VFR,,,,,,,,,,,,SPECI,488.0
KGCM 111935Z AUTO 28009KT 10SM OVC022 08/05 A2980 RMK AO2,KGCM,2020-12-11T19:35:00Z,36.3,-95.48,8.0,5.0,280,9,,10.0,29.799213,,,TRUE,TRUE,,,,,,,OVC,2200,,,,,,,MVFR,,,,,,,,,,,,SPECI,215.0
KGCD 111935Z AUTO 20007G15KT 170V230 10SM SCT034 SCT075 SCT110 02/M04 A3004 RMK AO2 T00201040,KGCD,2020-12-11T19:35:00Z,44.4,-118.97,2.0,-4.0,200,7,15,10.0,30.041338,,,TRUE,TRUE,,,,,,,SCT,3400,SCT,7500,SCT,11000,,,VFR,,,,,,,,,,,,SPECI,1122.0
KGBG 111935Z AUTO 08006KT 2SM RA OVC008 04/04 A2986 RMK AO2 P0007 T00420038,KGBG,2020-12-11T19:35:00Z,40.93,-90.43,4.2,3.8,80,6,,2.0,29.861221,,,TRUE,TRUE,,,,,,RA,OVC,800,,,,,,,IFR,,,,,,0.07,,,,,,METAR,230.0
KGAO 111935Z AUTO 19006KT 10SM OVC060 22/11 A3003 RMK AO2 T02240110,KGAO,2020-12-11T19:35:00Z,29.45,-90.27,22.4,11.0,190,6,,10.0,30.029528,,,TRUE,TRUE,,,,,,,OVC,6000,,,,,,,VFR,,,,,,,,,,,,SPECI,0.0
KFZG 111935Z AUTO 17003KT 10SM CLR 20/08 A3014 RMK AO2 T02040081,KFZG,2020-12-11T19:35:00Z,31.68,-83.27,20.4,8.1,170,3,,10.0,30.138779,,,TRUE,TRUE,,,,,,,CLR,,,,,,,,VFR,,,,,,,,,,,,METAR,105.0
KFYM 111935Z AUTO 23007G14KT 10SM SCT038 17/10 A3006 RMK A01,KFYM,2020-12-11T19:35:00Z,35.07,-86.57,17.0,10.0,230,7,14,10.0,30.059055,,,TRUE,TRUE,,,,,,,SCT,3800,,,,,,,VFR,,,,,,,,,,,,SPECI,297.0
KFYE 111935Z AUTO 20010KT 10SM CLR 19/10 A2993 RMK A01,KFYE,2020-12-11T19:35:00Z,35.2,-89.38,19.0,10.0,200,10,,10.0,29.929134,,,TRUE,TRUE,,,,,,,CLR,,,,,,,,VFR,,,,,,,,,,,,SPECI,133.0
KFXY 111935Z AUTO 06011G17KT 10SM CLR 05/M01 A2994 RMK AO2,KFXY,2020-12-11T19:35:00Z,43.23,-93.62,5.0,-1.0,60,11,17,10.0,29.940945,,,TRUE,TRUE,,,,,,,CLR,,,,,,,,VFR,,,,,,,,,,,,SPECI,366.0
KFWZ 111935Z AUTO 21003KT 2 1/2SM -SN BKN005 OVC019 M06/M07 A2972 RMK AO2,KFWZ,2020-12-11T19:35:00Z,42.52,-108.78,-6.0,-7.0,210,3,,2.5,29.719488,,,TRUE,TRUE,,,,,,-SN,BKN,500,OVC,1900,,,,,IFR,,,,,,,,,,,,METAR,2605.0
KFWC 111935Z AUTO 18008KT 10SM OVC034 18/10 A2985 RMK AO1 T01770101,KFWC,2020-12-11T19:35:00Z,38.38,-88.42,17.7,10.1,180,8,,10.0,29.84941,,,TRUE,TRUE,,,,,,,OVC,3400,,,,,,,VFR,,,,,,,,,,,,SPECI,131.0
KFWB 111935Z AUTO 12004KT 4SM -RA BR BKN034 BKN040 OVC080 13/13 A2976 RMK AO2,KFWB,2020-12-11T19:35:00Z,36.7,-93.4,13.0,13.0,120,4,,4.0,29.760826,,,TRUE,TRUE,,,,,,-RA BR,BKN,3400,BKN,4000,OVC,8000,,,MVFR,,,,,,,,,,,,METAR,392.0
KFTN 111935Z AUTO 32005KT 10SM FEW100 24/13 A2988 RMK A01,KFTN,2020-12-11T19:35:00Z,28.22,-100.02,24.0,13.0,320,5,,10.0,29.878937,,,TRUE,TRUE,,,,,,,FEW,10000,,,,,,,VFR,,,,,,,,,,,,SPECI,236.0
KFSW 111935Z AUTO 06011KT 3/4SM -RA OVC003 05/05 A2979 RMK AO2,KFSW,2020-12-11T19:35:00Z,40.67,-91.32,5.0,5.0,60,11,,0.75,29.790354,,,TRUE,TRUE,,,,,,-RA,OVC,300,,,,,,,LIFR,,,,,,,,,,,,SPECI,219.0
KFSO 111935Z AUTO 18004KT 10SM OVC085 06/M01 A2999 RMK AO2 T00581012,KFSO,2020-12-11T19:35:00Z,44.93,-73.1,5.8,-1.2,180,4,,10.0,29.991142,,,TRUE,TRUE,,,,,,,OVC,8500,,,,,,,VFR,,,,,,,,,,,,SPECI,70.0
KFSE 111935Z AUTO 02006KT 5SM BR OVC002 M06/M06 A3016 RMK AO2,KFSE,2020-12-11T19:35:00Z,47.58,-95.77,-6.0,-6.0,20,6,,5.0,30.159449,,,TRUE,TRUE,,,,,,BR,OVC,200,,,,,,,LIFR,,,,,,,,,,,,METAR,389.0
KFRR 111935Z AUTO 00000KT 10SM CLR 17/05 A3005 RMK AO1,KFRR,2020-12-11T19:35:00Z,38.92,-78.25,17.0,5.0,0,0,,10.0,30.050198,,,TRUE,TRUE,,,,,,,CLR,,,,,,,,VFR,,,,,,,,,,,,SPECI,213.0
KFRH 111935Z AUTO 19010G16KT 171V231 10SM SCT043 17/06 A2992 RMK AO1,KFRH,2020-12-11T19:35:00Z,38.5,-86.63,17.0,6.0,190,10,16,10.0,29.920275,,,TRUE,TRUE,,,,,,,SCT,4300,,,,,,,VFR,,,,,,,,,,,,SPECI,241.0
KFQD 111935Z AUTO 18004KT 10SM CLR 16/05 A3013 RMK AO2,KFQD,2020-12-11T19:35:00Z,35.42,-81.93,16.0,5.0,180,4,,10.0,30.129921,,,TRUE,TRUE,,,,,,,CLR,,,,,,,,VFR,,,,,,,,,,,,SPECI,325.0
KFPY 111935Z AUTO 10SM SCT045 21/11 A3012 RMK AO2 T02050110,KFPY,2020-12-11T19:35:00Z,30.07,-83.57,20.5,11.0,,,,10.0,30.121063,,,TRUE,TRUE,,,,,,,SCT,4500,,,,,,,VFR,,,,,,,,,,,,METAR,12.0
KFPK 111935Z AUTO 03010G14KT 5SM HZ BKN012 06/02 A2993 RMK AO2 T00550020,KFPK,2020-12-11T19:35:00Z,42.57,-84.82,5.5,2.0,30,10,14,5.0,29.929134,,,TRUE,TRUE,,,,,,HZ,BKN,1200,,,,,,,MVFR,,,,,,,,,,,,SPECI,269.0
KFOA 111935Z AUTO 19014G19KT 10SM CLR 19/11 A2985 RMK AO2,KFOA,2020-12-11T19:35:00Z,38.67,-88.45,19.0,11.0,190,14,19,10.0,29.84941,,,TRUE,TRUE,,,,,,,CLR,,,,,,,,VFR,,,,,,,,,,,,SPECI,141.0
KFMM 111935Z AUTO 32007KT 3SM -SN OVC014 M02/M05 A2993 RMK AO2 T10201053,KFMM,2020-12-11T19:35:00Z,40.33,-103.8,-2.0,-5.3,320,7,,3.0,29.929134,,,TRUE,TRUE,,,,,,-SN,OVC,1400,,,,,,,MVFR,,,,,,,,,,,,METAR,1376.0
KFME 111935Z AUTO 22007KT 10SM CLR 15/05 A3012 RMK AO1,KFME,2020-12-11T19:35:00Z,39.08,-76.77,15.0,5.0,220,7,,10.0,30.121063,,,TRUE,TRUE,,,,,,,CLR,,,,,,,,VFR,,,,,,,,,,,,SPECI,43.0
KFLY 111935Z AUTO 01012G18KT 2 1/2SM HZ SCT012 SCT021 OVC029 M03/M07 A2982 RMK AO2 T10301072,KFLY,2020-12-11T19:35:00Z,38.95,-104.57,-3.0,-7.2,10,12,18,2.5,29.819881,,,TRUE,TRUE,,,,,,HZ,SCT,1200,SCT,2100,OVC,2900,,,IFR,,,,,,,,,,,,SPECI,2096.0
KFKS 111935Z AUTO 06006KT 10SM OVC022 04/M01 A3005 RMK AO2 T00351013,KFKS,2020-12-11T19:35:00Z,44.63,-86.2,3.5,-1.3,60,6,,10.0,30.050198,,,TRUE,TRUE,,,,,,,OVC,2200,,,,,,,MVFR,,,,,,,,,,,,SPECI,189.0
KFKN 111935Z AUTO 19003KT 10SM CLR 18/10 A3016 RMK AO2 T01840103,KFKN,2020-12-11T19:35:00Z,36.7,-76.9,18.4,10.3,190,3,,10.0,30.159449,,,TRUE,TRUE,,,,,,,CLR,,,,,,,,VFR,,,,,,,,,,,,SPECI,9.0
KFKA 111935Z AUTO 05012G18KT 10SM CLR 02/M03 A2998 RMK AO2 T00191029,KFKA,2020-12-11T19:35:00Z,43.68,-92.17,1.9,-2.9,50,12,18,10.0,29.97933,,,TRUE,TRUE,,,,,,,CLR,,,,,,,,VFR,,,,,,,,,,,,SPECI,388.0
KFHB 111935Z AUTO 11007KT 10SM CLR 19/14 A3014 RMK AO2 T01950139,KFHB,2020-12-11T19:35:00Z,30.62,-81.47,19.5,13.9,110,7,,10.0,30.138779,,,TRUE,TRUE,,,,,,,CLR,,,,,,,,VFR,,,,,,,,,,,,SPECI,4.0
KFGX 111935Z AUTO 28012G16KT 230V360 10SM CLR 18/04 A3001 RMK AO2 T01750035,KFGX,2020-12-11T19:35:00Z,38.55,-83.75,17.5,3.5,280,12,16,10.0,30.008858,,,TRUE,TRUE,,,,,,,CLR,,,,,,,,VFR,,,,,,,,,,,,SPECI,279.0
KFGN 111935Z AUTO 00000KT M06/M08 A3019 RMK AO2 PWINO,KFGN,2020-12-11T19:35:00Z,49.32,-94.9,-6.0,-8.0,0,0,,,30.188976,,,TRUE,TRUE,,,,,TRUE,,,,,,,,,,,,,,,,,,,,,,SPECI,327.0
KFFM 111935Z AUTO 05005KT 10SM OVC005 M03/M04 A3017 RMK AO2,KFFM,2020-12-11T19:35:00Z,46.28,-96.15,-3.0,-4.0,50,5,,10.0,30.171259,,,TRUE,TRUE,,,,,,,OVC,500,,,,,,,IFR,,,,,,,,,,,,SPECI,362.0
KFFL 111935Z AUTO 07013G18KT 1 1/2SM BR OVC006 04/04 A2982 RMK A01,KFFL,2020-12-11T19:35:00Z,41.05,-91.97,4.0,4.0,70,13,18,1.5,29.819881,,,TRUE,TRUE,,,,,,BR,OVC,600,,,,,,,IFR,,,,,,,,,,,,SPECI,240.0
KFET 111935Z AUTO 36008KT 4SM UP OVC007 01/00 A2986 RMK AO2 P0002 T00130001,KFET,2020-12-11T19:35:00Z,41.45,-96.52,1.3,0.1,360,8,,4.0,29.861221,,,TRUE,TRUE,,,,,,UP,OVC,700,,,,,,,IFR,,,,,,0.02,,,,,,METAR,366.0
KFEP 111935Z AUTO 06011G16KT 7SM RA OVC008 04/04 A2993 RMK AO2 P0003 T00350035,KFEP,2020-12-11T19:35:00Z,42.25,-89.58,3.5,3.5,60,11,16,7.0,29.929134,,,TRUE,TRUE,,,,,,RA,OVC,800,,,,,,,IFR,,,,,,0.03,,,,,,SPECI,255.0
KFDW 111935Z AUTO 20004KT 10SM CLR 19/06 A3013 RMK AO1,KFDW,2020-12-11T19:35:00Z,34.32,-81.12,19.0,6.0,200,4,,10.0,30.129921,,,TRUE,TRUE,,,,,,,CLR,,,,,,,,VFR,,,,,,,,,,,,METAR,174.0
KFBL 111935Z AUTO 02009G16KT 10SM SCT018 03/M01 A3004 RMK AO2,KFBL,2020-12-11T19:35:00Z,44.33,-93.32,3.0,-1.0,20,9,16,10.0,30.041338,,,TRUE,TRUE,,,,,,,SCT,1800,,,,,,,VFR,,,,,,,,,,,,SPECI,318.0
KF70 111935Z AUTO 21003KT 10SM CLR 14/05 A3011 RMK AO1,KF70,2020-12-11T19:35:00Z,33.57,-117.13,14.0,5.0,210,3,,10.0,30.109253,,,TRUE,TRUE,,,,,,,CLR,,,,,,,,VFR,,,,,,,,,,,,METAR,406.0
KF46 111935Z AUTO 21008KT 10SM OVC004 17/17 A2982 RMK AO2 T01650165,KF46,2020-12-11T19:35:00Z,32.93,-96.43,16.5,16.5,210,8,,10.0,29.819881,,,TRUE,TRUE,,,,,,,OVC,400,,,,,,,LIFR,,,,,,,,,,,,SPECI,175.0
KF45 111935Z AUTO 06008KT 10SM 23/13 A3012 RMK AO2,KF45,2020-12-11T19:35:00Z,26.85,-80.22,23.0,13.0,60,8,,10.0,30.121063,,,TRUE,TRUE,,,,,,,,,,,,,,,,,,,,,,,,,,,SPECI,6.0
KF44 111935Z AUTO 00000KT 10SM -RA OVC005 16/16 A2984 RMK AO2 P0001,KF44,2020-12-11T19:35:00Z,32.17,-95.83,16.0,16.0,0,0,,10.0,29.840551,,,TRUE,TRUE,,,,,,-RA,OVC,500,,,,,,,IFR,,,,,,0.01,,,,,,METAR,137.0
KF17 111935Z AUTO 18014G18KT 10SM SCT085 21/15 A2987 RMK AO2,KF17,2020-12-11T19:35:00Z,31.83,-94.15,21.0,15.0,180,14,18,10.0,29.870079,,,TRUE,TRUE,,,,,,,SCT,8500,,,,,,,VFR,,,,,,,,,,,,SPECI,93.0
KF05 111935Z AUTO 32007KT 10SM CLR 13/02 A2987 RMK AO2 T01250024,KF05,2020-12-11T19:35:00Z,34.23,-99.28,12.5,2.4,320,7,,10.0,29.870079,,,TRUE,TRUE,,,,,,,CLR,,,,,,,,VFR,,,,,,,,,,,,SPECI,384.0
KF00 111935Z AUTO 22009KT 10SM -RA OVC007 16/15 A2982 RMK AO2 P0001 T01600153,KF00,2020-12-11T19:35:00Z,33.62,-96.18,16.0,15.3,220,9,,10.0,29.819881,,,TRUE,TRUE,,,,,,-RA,OVC,700,,,,,,,IFR,,,,,,0.01,,,,,,SPECI,189.0
KEZZ 111935Z AUTO 04003KT 5SM -DZ BR OVC007 05/04 A2975 RMK AO2 P0001 T00500041,KEZZ,2020-12-11T19:35:00Z,39.72,-94.28,5.0,4.1,40,3,,5.0,29.749016,,,TRUE,TRUE,,,,,,-DZ BR,OVC,700,,,,,,,IFR,,,,,,0.01,,,,,,SPECI,317.0
KEZS 111935Z AUTO 03011KT 10SM CLR 03/M03 A3008 RMK AO2 T00251027,KEZS,2020-12-11T19:35:00Z,44.78,-88.57,2.5,-2.7,30,11,,10.0,30.079725,,,TRUE,TRUE,,,,,,,CLR,,,,,,,,VFR,,,,,,,,,,,,METAR,247.0
KEZF 111935Z AUTO 19009G15KT 10SM CLR 18/06 A3011 RMK AO2 T01770060,KEZF,2020-12-11T19:35:00Z,38.27,-77.45,17.7,6.0,190,9,15,10.0,30.109253,,,TRUE,TRUE,,,,,,,CLR,,,,,,,,VFR,,,,,,,,,,,,SPECI,26.0
KEYF 111935Z AUTO 18005KT 10SM CLR 21/11 A3014 RMK AO2 T02050113,KEYF,2020-12-11T19:35:00Z,34.6,-78.58,20.5,11.3,180,5,,10.0,30.138779,,,TRUE,TRUE,,,,,,,CLR,,,,,,,,VFR,,,,,,,,,,,,SPECI,39.0
KEXX 111935Z AUTO 17005KT 10SM CLR 17/09 A3012 RMK AO2 T01700088,KEXX,2020-12-11T19:35:00Z,35.78,-80.3,17.0,8.8,170,5,,10.0,30.121063,,,TRUE,TRUE,,,,,,,CLR,,,,,,,,VFR,,,,,,,,,,,,METAR,221.0
KEVU 111935Z AUTO 06010KT 5SM BR OVC006 04/03 A2976 RMK AO2 T00450035,KEVU,2020-12-11T19:35:00Z,40.35,-94.92,4.5,3.5,60,10,,5.0,29.760826,,,TRUE,TRUE,,,,,,BR,OVC,600,,,,,,,IFR,,,,,,,,,,,,SPECI,351.0
KETN 111935Z AUTO 32010KT 10SM SCT031 SCT041 SCT085 16/10 A2984 RMK AO2 P0001 T01570096,KETN,2020-12-11T19:35:00Z,32.42,-98.82,15.7,9.6,320,10,,10.0,29.840551,,,TRUE,TRUE,,,,,,,SCT,3100,SCT,4100,SCT,8500,,,VFR,,,,,,0.01,,,,,,SPECI,445.0
KETC 111935Z AUTO 11005KT 10SM SCT038 OVC045 20/12 A3014 RMK AO2 T01990120,KETC,2020-12-11T19:35:00Z,35.93,-77.55,19.9,12.0,110,5,,10.0,30.138779,,,TRUE,TRUE,,,,,,,SCT,3800,OVC,4500,,,,,VFR,,,,,,,,,,,,METAR,15.0
KETB 111935Z AUTO 05008G17KT 10SM OVC015 02/00 A3001 RMK AO2,KETB,2020-12-11T19:35:00Z,43.42,-88.13,2.0,0.0,50,8,17,10.0,30.008858,,,TRUE,TRUE,,,,,,,OVC,1500,,,,,,,MVFR,,,,,,,,,,,,SPECI,269.0
KERY 111935Z AUTO 34006G14KT 10SM OVC019 00/M04 A3009 RMK AO2 T10051038,KERY,2020-12-11T19:35:00Z,46.3,-85.45,-0.5,-3.8,340,6,14,10.0,30.088583,,,TRUE,TRUE,,,,,,,OVC,1900,,,,,,,MVFR,,,,,,,,,,,,METAR,261.0
KERV 111935Z AUTO 00000KT 10SM CLR 22/15 A2987 RMK AO2 T02200152,KERV,2020-12-11T19:35:00Z,29.98,-99.08,22.0,15.2,0,0,,10.0,29.870079,,,TRUE,TRUE,,,,,,,CLR,,,,,,,,VFR,,,,,,,,,,,,SPECI,483.0
KEQA 111935Z AUTO 30013G18KT 10SM OVC017 06/00 A2978 RMK AO2,KEQA,2020-12-11T19:35:00Z,37.78,-96.82,6.0,0.0,300,13,18,10.0,29.778543,,,TRUE,TRUE,,,,,,,OVC,1700,,,,,,,MVFR,,,,,,,,,,,,SPECI,422.0
KEOK 111935Z AUTO 09003G13KT 2SM -RA SCT006 SCT023 BKN029 05/05 A2981 RMK AO2,KEOK,2020-12-11T19:35:00Z,40.47,-91.42,5.0,5.0,90,3,13,2.0,29.811024,,,TRUE,TRUE,,,,,,-RA,SCT,600,SCT,2300,BKN,2900,,,IFR,,,,,,,,,,,,SPECI,206.0
KENL 111935Z AUTO 21009KT 10SM BKN030 18/12 A2984 RMK AO2 T01820121,KENL,2020-12-11T19:35:00Z,38.52,-89.1,18.2,12.1,210,9,,10.0,29.840551,,,TRUE,TRUE,,,,,,,BKN,3000,,,,,,,MVFR,,,,,,,,,,,,SPECI,161.0
KEMV 111935Z AUTO 15006KT 10SM CLR 18/10 A3016 RMK AO2 T01790101,KEMV,2020-12-11T19:35:00Z,36.68,-77.48,17.9,10.1,150,6,,10.0,30.159449,,,TRUE,TRUE,,,,,,,CLR,,,,,,,,VFR,,,,,,,,,,,,SPECI,35.0
KEMM 111935Z AUTO 27014G23KT 10SM SCT013 SCT020 SCT028 M02/M08 A2986 RMK AO2,KEMM,2020-12-11T19:35:00Z,41.82,-110.55,-2.0,-8.0,270,14,23,10.0,29.861221,,,TRUE,TRUE,,,,,,,SCT,1300,SCT,2000,SCT,2800,,,VFR,,,,,,,,,,,,SPECI,2219.0
KELO 111935Z AUTO 04004KT 10SM OVC015 M04/M07 A3015 RMK AO2,KELO,2020-12-11T19:35:00Z,47.82,-91.83,-4.0,-7.0,40,4,,10.0,30.15059,,,TRUE,TRUE,,,,,,,OVC,1500,,,,,,,MVFR,,,,,,,,,,,,SPECI,438.0
KELK 111935Z AUTO 33014KT 10SM OVC065 08/00 A2985 RMK AO2 T00811002,KELK,2020-12-11T19:35:00Z,35.43,-99.4,8.1,-0.2,330,14,,10.0,29.84941,,,TRUE,TRUE,,,,,,,OVC,6500,,,,,,,VFR,,,,,,,,,,,,SPECI,603.0
KELA 111935Z AUTO 7SM +RA BKN016 BKN025 OVC036 21/19 A2985 RMK AO2 T02070190,KELA,2020-12-11T19:35:00Z,29.6,-96.32,20.7,19.0,,,,7.0,29.84941,,,TRUE,TRUE,,,,,,+RA,BKN,1600,BKN,2500,OVC,3600,,,MVFR,,,,,,,,,,,,METAR,56.0
KEKX 111935Z AUTO 21016G20KT 10SM CLR 18/06 A2997 RMK AO2 T01750060,KEKX,2020-12-11T19:35:00Z,,,17.5,6.0,210,16,20,10.0,29.970472,,,TRUE,TRUE,,,,,,,CLR,,,,,,,,VFR,,,,,,,,,,,,SPECI,
KEKS 111935Z AUTO 00000KT 5SM HZ FEW037 OVC046 M05/M07 A2993 RMK AO2,KEKS,2020-12-11T19:35:00Z,45.27,-111.65,-5.0,-7.0,0,0,,5.0,29.929134,,,TRUE,TRUE,,,,,,HZ,FEW,3700,OVC,4600,,,,,MVFR,,,,,,,,,,,,SPECI,1636.0
KEIR 111935Z AUTO 16013KT 9SM BKN046 BKN050 OVC060 23/15 A3000 RMK A01,KEIR,2020-12-11T19:35:00Z,28.63,-91.48,23.0,15.0,160,13,,9.0,30.0,,,TRUE,TRUE,,,,,,,BKN,4600,BKN,5000,OVC,6000,,,VFR,,,,,,,,,,,,SPECI,28.0
KEIK 111935Z AUTO 02004KT 1 1/2SM UP OVC010 M03/M05 A2992 RMK AO2 T10311054,KEIK,2020-12-11T19:35:00Z,40.02,-105.05,-3.1,-5.4,20,4,,1.5,29.920275,,,TRUE,TRUE,,,,,,UP,OVC,1000,,,,,,,IFR,,,,,,,,,,,,SPECI,1551.0
KEHY 111935Z AUTO 2SM BKN010 BKN013 OVC019 M03/M06 A2978 RMK AO2 PWINO,KEHY,2020-12-11T19:35:00Z,41.73,-106.47,-3.0,-6.0,,,,2.0,29.778543,,,TRUE,TRUE,,,,,TRUE,,BKN,1000,BKN,1300,OVC,1900,,,IFR,,,,,,,,,,,,SPECI,2239.0
KEHA 111935Z AUTO 34007KT 2 1/2SM -SN BKN005 OVC010 02/01 A2987 RMK AO2 VIS 2V4 T00160012,KEHA,2020-12-11T19:35:00Z,37.0,-101.87,1.6,1.2,340,7,,2.5,29.870079,,,TRUE,TRUE,,,,,,-SN,BKN,500,OVC,1000,,,,,IFR,,,,,,,,,,,,SPECI,1103.0
KEGV 111935Z AUTO 04010G14KT 10SM OVC020 00/M06 A3009 RMK AO2 T10031058,KEGV,2020-12-11T19:35:00Z,45.93,-89.27,-0.3,-5.8,40,10,14,10.0,30.088583,,,TRUE,TRUE,,,,,,,OVC,2000,,,,,,,MVFR,,,,,,,,,,,,SPECI,499.0
KEFT 111935Z AUTO 02018G23KT 7SM -RA OVC005 01/00 A2993 RMK AO2 P0002 T00110001,KEFT,2020-12-11T19:35:00Z,42.62,-89.6,1.1,0.1,20,18,23,7.0,29.929134,,,TRUE,TRUE,,,,,,-RA,OVC,500,,,,,,,IFR,,,,,,0.02,,,,,,METAR,332.0
KEDU 111935Z AUTO 00000KT 10SM FEW110 11/M02 A3017 RMK AO1,KEDU,2020-12-11T19:35:00Z,38.53,-121.78,11.0,-2.0,0,0,,10.0,30.171259,,,TRUE,TRUE,,,,,,,FEW,11000,,,,,,,VFR,,,,,,,,,,,,SPECI,20.0
KEDN 111935Z AUTO 20005KT 10SM SCT038 SCT045 20/11 A3011 RMK AO2 T02010108,KEDN,2020-12-11T19:35:00Z,31.3,-85.9,20.1,10.8,200,5,,10.0,30.109253,,,TRUE,TRUE,,,,,,,SCT,3800,SCT,4500,,,,,VFR,,,,,,,,,,,,SPECI,103.0
KEDE 111935Z AUTO 16006KT 10SM SCT044 SCT060 19/14 A3017 RMK AO2 T01870139,KEDE,2020-12-11T19:35:00Z,36.03,-76.57,18.7,13.9,160,6,,10.0,30.171259,,,TRUE,TRUE,,,,,,,SCT,4400,SCT,6000,,,,,VFR,,,,,,,,,,,,SPECI,4.0
KEDC 111935Z AUTO 19003KT 6SM HZ BKN005 19/ A2984 RMK AO2,KEDC,2020-12-11T19:35:00Z,30.4,-97.57,19.0,,190,3,,6.0,29.840551,,,TRUE,TRUE,,,,,,HZ,BKN,500,,,,,,,IFR,,,,,,,,,,,,SPECI,184.0
KECU 111935Z AUTO 32007KT 10SM FEW030 FEW036 20/11 A2993 RMK AO2,KECU,2020-12-11T19:35:00Z,29.95,-100.17,20.0,11.0,320,7,,10.0,29.929134,,,TRUE,TRUE,,,,,,,FEW,3000,FEW,3600,,,,,VFR,,,,,,,,,,,,SPECI,725.0
KECS 111935Z AUTO 00000KT 10SM SCT015 SCT047 OVC065 M02/M07 A3000 RMK AO2,KECS,2020-12-11T19:35:00Z,43.88,-104.32,-2.0,-7.0,0,0,,10.0,30.0,,,TRUE,TRUE,,,,,,,SCT,1500,SCT,4700,OVC,6500,,,VFR,,,,,,,,,,,,SPECI,1273.0
KEBG 111935Z AUTO 24007KT 10SM CLR 28/16 A2982 RMK AO2 T02770163 TSNO,KEBG,2020-12-11T19:35:00Z,26.45,-98.13,27.7,16.3,240,7,,10.0,29.819881,,,TRUE,TRUE,,,TRUE,,,,CLR,,,,,,,,VFR,,,,,,,,,,,,SPECI,21.0
KEAN 111935Z AUTO 15003KT 1 3/4SM -SN BKN009 OVC017 M03/M04 A2994 RMK AO2 T10261045,KEAN,2020-12-11T19:35:00Z,42.05,-104.93,-2.6,-4.5,150,3,,1.75,29.940945,,,TRUE,TRUE,,,,,,-SN,BKN,900,OVC,1700,,,,,IFR,,,,,,,,,,,,METAR,1452.0
KE41 111935Z AUTO 28010G16KT 10SM CLR 20/03 A2989 RMK AO2 T01960032,KE41,2020-12-11T19:35:00Z,31.2,-101.47,19.6,3.2,280,10,16,10.0,29.890747,,,TRUE,TRUE,,,,,,,CLR,,,,,,,,VFR,,,,,,,,,,,,SPECI,825.0
KE38 111935Z AUTO 25013G21KT 10SM CLR 16/02 A3003 RMK AO2 T01580016,KE38,2020-12-11T19:35:00Z,30.38,-103.68,15.8,1.6,250,13,21,10.0,30.029528,,,TRUE,TRUE,,,,,,,CLR,,,,,,,,VFR,,,,,,,,,,,,METAR,1372.0
KE16 111935Z AUTO 10SM CLR 10/05 A3022 RMK AO2,KE16,2020-12-11T19:35:00Z,37.08,-121.6,10.0,5.0,,,,10.0,30.221457,,,TRUE,TRUE,,,,,,,CLR,,,,,,,,VFR,,,,,,,,,,,,METAR,84.0
KE11 111935Z AUTO 27011G19KT 10SM CLR 17/02 A2987 RMK AO2 T01730019,KE11,2020-12-11T19:35:00Z,32.33,-102.53,17.3,1.9,270,11,19,10.0,29.870079,,,TRUE,TRUE,,,,,,,CLR,,,,,,,,VFR,,,,,,,,,,,,SPECI,966.0
KDZJ 111935Z AUTO 15011KT 10SM CLR 17/02 A3009 RMK AO2 T01730020,KDZJ,2020-12-11T19:35:00Z,34.85,-84.0,17.3,2.0,150,11,,10.0,30.088583,,,TRUE,TRUE,,,,,,,CLR,,,,,,,,VFR,,,,,,,,,,,,SPECI,578.0
KDYT 111935Z AUTO 07012KT 10SM OVC029 01/M04 A3017 RMK AO2,KDYT,2020-12-11T19:35:00Z,46.72,-92.03,1.0,-4.0,70,12,,10.0,30.171259,,,TRUE,TRUE,,,,,,,OVC,2900,,,,,,,MVFR,,,,,,,,,,,,SPECI,185.0
KDYB 111935Z AUTO 27003KT 10SM CLR 21/07 A3013 RMK AO2,KDYB,2020-12-11T19:35:00Z,33.07,-80.28,21.0,7.0,270,3,,10.0,30.129921,,,TRUE,TRUE,,,,,,,CLR,,,,,,,,VFR,,,,,,,,,,,,SPECI,15.0
KDYA 111935Z AUTO 17004KT 10SM SCT050 20/12 A3005 RMK AO2 T02040116,KDYA,2020-12-11T19:35:00Z,32.47,-87.95,20.4,11.6,170,4,,10.0,30.050198,,,TRUE,TRUE,,,,,,,SCT,5000,,,,,,,VFR,,,,,,,,,,,,SPECI,33.0
KDXX 111935Z AUTO 01008KT 10SM OVC012 01/M03 A3011 RMK AO2 PWINO,KDXX,2020-12-11T19:35:00Z,44.98,-96.18,1.0,-3.0,10,8,,10.0,30.109253,,,TRUE,TRUE,,,,,TRUE,,OVC,1200,,,,,,,MVFR,,,,,,,,,,,,SPECI,327.0
KDWA 111935Z AUTO 00000KT 10SM BKN100 11/M02 A3017 RMK AO2,KDWA,2020-12-11T19:35:00Z,38.58,-121.85,11.0,-2.0,0,0,,10.0,30.171259,,,TRUE,TRUE,,,,,,,BKN,10000,,,,,,,VFR,,,,,,,,,,,,METAR,28.0
KDVO 111935Z AUTO 00000KT 10SM SCT080 11/02 A3018 RMK AO2,KDVO,2020-12-11T19:35:00Z,38.15,-122.55,11.0,2.0,0,0,,10.0,30.180119,,,TRUE,TRUE,,,,,,,SCT,8000,,,,,,,VFR,,,,,,,,,,,,SPECI,1.0
KDVK 111935Z AUTO 21009G17KT 10SM CLR 16/04 A3002 RMK AO2,KDVK,2020-12-11T19:35:00Z,37.58,-84.77,16.0,4.0,210,9,17,10.0,30.02067,,,TRUE,TRUE,,,,,,,CLR,,,,,,,,VFR,,,,,,,,,,,,SPECI,309.0
KDUX 111935Z AUTO 32008KT 10SM SCT025 OVC039 04/M03 A2987 RMK AO2 T00351031,KDUX,2020-12-11T19:35:00Z,35.85,-102.02,3.5,-3.1,320,8,,10.0,29.870079,,,TRUE,TRUE,,,,,,,SCT,2500,OVC,3900,,,,,VFR,,,,,,,,,,,,SPECI,1129.0
KDUH 111935Z AUTO 00000KT 10SM CLR 12/05 A2991 RMK AO2 T01160047,KDUH,2020-12-11T19:35:00Z,41.73,-83.65,11.6,4.7,0,0,,10.0,29.911417,,,TRUE,TRUE,,,,,,,CLR,,,,,,,,VFR,,,,,,,,,,,,METAR,203.0
KDUC 111935Z AUTO 32010KT 10SM SCT090 11/03 A2985 RMK AO2,KDUC,2020-12-11T19:35:00Z,34.47,-97.97,11.0,3.0,320,10,,10.0,29.84941,,,TRUE,TRUE,,,,,,,SCT,9000,,,,,,,VFR,,,,,,,,,,,,SPECI,339.0
KDUB 111935Z AUTO 15005KT 1 1/4SM -SN OVC028 M06/M08 A2981 RMK AO2,KDUB,2020-12-11T19:35:00Z,43.55,-109.68,-6.0,-8.0,150,5,,1.25,29.811024,,,TRUE,TRUE,,,,,,-SN,OVC,2800,,,,,,,IFR,,,,,,,,,,,,METAR,2205.0
KDUA 111935Z AUTO 24004KT 10SM SCT007 BKN011 OVC025 16/16 A2982 RMK AO2,KDUA,2020-12-11T19:35:00Z,33.95,-96.4,16.0,16.0,240,4,,10.0,29.819881,,,TRUE,TRUE,,,,,,,SCT,700,BKN,1100,OVC,2500,,,MVFR,,,,,,,,,,,,SPECI,209.0
KDTL 111935Z AUTO 06004KT 10SM OVC005 M03/M04 A3013 RMK AO2,KDTL,2020-12-11T19:35:00Z,46.82,-95.88,-3.0,-4.0,60,4,,10.0,30.129921,,,TRUE,TRUE,,,,,,,OVC,500,,,,,,,IFR,,,,,,,,,,,,METAR,425.0
KDRM 111935Z AUTO 36006KT 10SM CLR 03/M02 A3005 RMK AO2 T00301020,KDRM,2020-12-11T19:35:00Z,46.0,-83.75,3.0,-2.0,360,6,,10.0,30.050198,,,TRUE,TRUE,,,,,,,CLR,,,,,,,,VFR,,,,,,,,,,,,SPECI,201.0
KDRI 111935Z AUTO 16008KT 10SM SCT036 SCT043 BKN055 21/14 A2994 RMK AO2 T02130142,KDRI,2020-12-11T19:35:00Z,30.83,-93.33,21.3,14.2,160,8,,10.0,29.940945,,,TRUE,TRUE,,,,,,,SCT,3600,SCT,4300,BKN,5500,,,VFR,,,,,,,,,,,,SPECI,59.0
KDQH 111935Z AUTO 16003KT 10SM CLR 20/05 A3013 RMK AO2 T02030047,KDQH,2020-12-11T19:35:00Z,31.48,-82.87,20.3,4.7,160,3,,10.0,30.129921,,,TRUE,TRUE,,,,,,,CLR,,,,,,,,VFR,,,,,,,,,,,,SPECI,76.0
KDNV 111935Z AUTO 21009KT 10SM CLR 15/06 A2986 RMK AO2 T01520060,KDNV,2020-12-11T19:35:00Z,40.2,-87.6,15.2,6.0,210,9,,10.0,29.861221,,,TRUE,TRUE,,,,,,,CLR,,,,,,,,VFR,,,,,,,,,,,,SPECI,208.0
KDNS 111935Z AUTO 05012G19KT 10SM OVC015 03/02 A2986 RMK AO2,KDNS,2020-12-11T19:35:00Z,41.98,-95.37,3.0,2.0,50,12,19,10.0,29.861221,,,TRUE,TRUE,,,,,,,OVC,1500,,,,,,,MVFR,,,,,,,,,,,,SPECI,382.0
KDNN 111935Z AUTO 15004KT 10SM CLR 20/02 A3009 RMK AO2,KDNN,2020-12-11T19:35:00Z,34.72,-84.87,20.0,2.0,150,4,,10.0,30.088583,,,TRUE,TRUE,,,,,,,CLR,,,,,,,,VFR,,,,,,,,,,,,SPECI,216.0
KDNA 111935Z AUTO 27018G24KT 10SM CLR 13/01 A3003 RMK AO2,KDNA,2020-12-11T19:35:00Z,31.88,-106.7,13.0,1.0,270,18,24,10.0,30.029528,,,TRUE,TRUE,,,,,,,CLR,,,,,,,,VFR,,,,,,,,,,,,METAR,1254.0
KDMW 111935Z AUTO 19006KT 10SM CLR 14/06 A3009 RMK AO2,KDMW,2020-12-11T19:35:00Z,39.6,-77.0,14.0,6.0,190,6,,10.0,30.088583,,,TRUE,TRUE,,,,,,,CLR,,,,,,,,VFR,,,,,,,,,,,,SPECI,239.0
KDLZ 111935Z AUTO 19009KT 10SM CLR 16/05 A2994 RMK AO2,KDLZ,2020-12-11T19:35:00Z,40.28,-83.12,16.0,5.0,190,9,,10.0,29.940945,,,TRUE,TRUE,,,,,,,CLR,,,,,,,,VFR,,,,,,,,,,,,SPECI,287.0
KDLO 111935Z AUTO 33003KT 10SM 10/M01 A3016 RMK AO2 T01011011,KDLO,2020-12-11T19:35:00Z,35.75,-119.23,10.1,-1.1,330,3,,10.0,30.159449,,,TRUE,TRUE,,,,,,,,,,,,,,,,,,,,,,,,,,,METAR,97.0
KDLL 111935Z AUTO 05012G15KT 10SM BKN041 OVC080 00/M02 A3000 RMK AO2 T00001021,KDLL,2020-12-11T19:35:00Z,43.52,-89.77,0.0,-2.1,50,12,15,10.0,30.0,,,TRUE,TRUE,,,,,,,BKN,4100,OVC,8000,,,,,VFR,,,,,,,,,,,,METAR,297.0
KDKB 111935Z AUTO 05017G22KT 10SM -DZ SCT013 SCT022 OVC055 05/04 A2989 RMK AO2 T00500037,KDKB,2020-12-11T19:35:00Z,41.93,-88.7,5.0,3.7,50,17,22,10.0,29.890747,,,TRUE,TRUE,,,,,,-DZ,SCT,1300,SCT,2200,OVC,5500,,,VFR,,,,,,,,,,,,SPECI,277.0
KDEH 111935Z AUTO 06011G18KT 10SM 03/M01 A2993 RMK AO2,KDEH,2020-12-11T19:35:00Z,43.27,-91.73,3.0,-1.0,60,11,18,10.0,29.929134,,,TRUE,TRUE,,,,,,,,,,,,,,,,,,,,,,,,,,,METAR,348.0
KDED 111935Z AUTO 14009KT 10SM CLR 22/10 A3013 RMK AO2 T02220101,KDED,2020-12-11T19:35:00Z,29.07,-81.28,22.2,10.1,140,9,,10.0,30.129921,,,TRUE,TRUE,,,,,,,CLR,,,,,,,,VFR,,,,,,,,,,,,METAR,21.0
KDCY 111935Z AUTO 19012G18KT 10SM SCT044 17/08 A2989 RMK AO2 T01720082,KDCY,2020-12-11T19:35:00Z,38.7,-87.13,17.2,8.2,190,12,18,10.0,29.890747,,,TRUE,TRUE,,,,,,,SCT,4400,,,,,,,VFR,,,,,,,,,,,,SPECI,143.0
KDCM 111935Z AUTO 21003KT 10SM CLR 17/06 A3014 RMK AO2,KDCM,2020-12-11T19:35:00Z,34.78,-81.2,17.0,6.0,210,3,,10.0,30.138779,,,TRUE,TRUE,,,,,,,CLR,,,,,,,,VFR,,,,,,,,,,,,SPECI,191.0
KDBN 111935Z AUTO 00000KT 10SM CLR 22/01 A3014 RMK AO2,KDBN,2020-12-11T19:35:00Z,32.57,-82.98,22.0,1.0,0,0,,10.0,30.138779,,,TRUE,TRUE,,,,,,,CLR,,,,,,,,VFR,,,,,,,,,,,,SPECI,90.0
KD95 111935Z AUTO 03004KT 5SM BR OVC010 05/03 A2998 RMK AO2 T00530031,KD95,2020-12-11T19:35:00Z,43.07,-83.27,5.3,3.1,30,4,,5.0,29.97933,,,TRUE,TRUE,,,,,,BR,OVC,1000,,,,,,,MVFR,,,,,,,,,,,,SPECI,253.0
KD73 111935Z AUTO 00000KT 10SM CLR 18/06 A3012 RMK AO2 T01790058,KD73,2020-12-11T19:35:00Z,33.78,-83.7,17.9,5.8,0,0,,10.0,30.121063,,,TRUE,TRUE,,,,,,,CLR,,,,,,,,VFR,,,,,,,,,,,,SPECI,254.0
KD60 111935Z AUTO 33005KT 1/2SM BR OVC002 M06/M06 A3013 RMK AO2,KD60,2020-12-11T19:35:00Z,48.38,-102.9,-6.0,-6.0,330,5,,0.5,30.129921,,,TRUE,TRUE,,,,,,BR,OVC,200,,,,,,,LIFR,,,,,,,,,,,,METAR,682.0
KD55 111935Z AUTO 19006KT 9SM OVC006 M03/M03 A3015 RMK AO2,KD55,2020-12-11T19:35:00Z,48.75,-98.4,-3.0,-3.0,190,6,,9.0,30.15059,,,TRUE,TRUE,,,,,,,OVC,600,,,,,,,IFR,,,,,,,,,,,,SPECI,488.0
KD50 111935Z AUTO 00000KT 3SM BR OVC004 M03/M03 A3012 RMK AO2,KD50,2020-12-11T19:35:00Z,48.93,-103.3,-3.0,-3.0,0,0,,3.0,30.121063,,,TRUE,TRUE,,,,,,BR,OVC,400,,,,,,,LIFR,,,,,,,,,,,,SPECI,591.0
KD39 111935Z AUTO 07007KT 10SM OVC006 M02/M03 A3011 RMK AO2 T10201035,KD39,2020-12-11T19:35:00Z,45.7,-94.93,-2.0,-3.5,70,7,,10.0,30.109253,,,TRUE,TRUE,,,,,,,OVC,600,,,,,,,IFR,,,,,,,,,,,,SPECI,378.0
KD25 111935Z AUTO 01008KT 10SM OVC021 00/M05 A3010 RMK AO2 T10051055,KD25,2020-12-11T19:35:00Z,46.12,-89.88,-0.5,-5.5,10,8,,10.0,30.100393,,,TRUE,TRUE,,,,,,,OVC,2100,,,,,,,MVFR,,,,,,,,,,,,SPECI,490.0
KCZT 111935Z AUTO 34005KT 10SM CLR 23/12 A2985 RMK AO2,KCZT,2020-12-11T19:35:00Z,28.52,-99.82,23.0,12.0,340,5,,10.0,29.84941,,,TRUE,TRUE,,,,,,,CLR,,,,,,,,VFR,,,,,,,,,,,,SPECI,176.0
KCZL 111935Z AUTO 21004KT 10SM CLR 19/06 A3011 RMK AO2,KCZL,2020-12-11T19:35:00Z,34.47,-84.93,19.0,6.0,210,4,,10.0,30.109253,,,TRUE,TRUE,,,,,,,CLR,,,,,,,,VFR,,,,,,,,,,,,METAR,197.0
KCYD 111935Z AUTO 14016KT 10SM SCT038 BKN060 22/14 A3005 RMK A02 TSNO T02210142,KCYD,2020-12-11T19:35:00Z,28.17,-89.22,22.1,14.2,140,16,,10.0,30.050198,,,TRUE,TRUE,,,TRUE,,,,SCT,3800,BKN,6000,,,,,VFR,,,,,,,,,,,,METAR,30.0
KCXU 111935Z AUTO 00000KT 10SM CLR 21/07 A3012 RMK AO1 T02090072,KCXU,2020-12-11T19:35:00Z,31.22,-84.23,20.9,7.2,0,0,,10.0,30.121063,,,TRUE,TRUE,,,,,,,CLR,,,,,,,,VFR,,,,,,,,,,,,METAR,48.0
KCXP 111935Z AUTO 10009KT 10SM BKN012 06/M08 A3007 RMK AO2,KCXP,2020-12-11T19:35:00Z,39.18,-119.73,6.0,-8.0,100,9,,10.0,30.070866,,,TRUE,TRUE,,,,,,,BKN,1200,,,,,,,MVFR,,,,,,,,,,,,SPECI,1431.0
KCXE 111935Z AUTO 00000KT 10SM CLR 17/07 A3014 RMK AO1 T01730068,KCXE,2020-12-11T19:35:00Z,36.78,-78.5,17.3,6.8,0,0,,10.0,30.138779,,,TRUE,TRUE,,,,,,,CLR,,,,,,,,VFR,,,,,,,,,,,,SPECI,154.0
KCWV 111935Z AUTO 00000KT 7SM CLR 22/07 A3014 RMK AO2 T02150073,KCWV,2020-12-11T19:35:00Z,32.2,-81.87,21.5,7.3,0,0,,7.0,30.138779,,,TRUE,TRUE,,,,,,,CLR,,,,,,,,VFR,,,,,,,,,,,,SPECI,32.0
KCWC 111935Z AUTO 35010KT 310V010 10SM SCT090 11/03 A2987 RMK AO2 T01080030,KCWC,2020-12-11T19:35:00Z,33.85,-98.48,10.8,3.0,350,10,,10.0,29.870079,,,TRUE,TRUE,,,,,,,SCT,9000,,,,,,,VFR,,,,,,,,,,,,SPECI,304.0
KCVX 111935Z AUTO 01011G17KT 10SM OVC022 03/M01 A3006 RMK AO2 T00301008,KCVX,2020-12-11T19:35:00Z,45.3,-85.27,3.0,-0.8,10,11,17,10.0,30.059055,,,TRUE,TRUE,,,,,,,OVC,2200,,,,,,,MVFR,,,,,,,,,,,,METAR,196.0
KCVH 111935Z AUTO VRB03KT 10SM CLR 12/04 A3021 RMK A01,KCVH,2020-12-11T19:35:00Z,36.9,-121.42,12.0,4.0,0,3,,10.0,30.209646,,,TRUE,TRUE,,,,,,,CLR,,,,,,,,VFR,,,,,,,,,,,,METAR,68.0
KCVC 111935Z AUTO 15003KT 10SM CLR 18/04 A3010 RMK AO2,KCVC,2020-12-11T19:35:00Z,33.63,-83.85,18.0,4.0,150,3,,10.0,30.100393,,,TRUE,TRUE,,,,,,,CLR,,,,,,,,VFR,,,,,,,,,,,,METAR,240.0
KCVB 111935Z AUTO 00000KT 10SM CLR 23/16 A2986 RMK AO2 T02330160,KCVB,2020-12-11T19:35:00Z,29.35,-98.85,23.3,16.0,0,0,,10.0,29.861221,,,TRUE,TRUE,,,,,,,CLR,,,,,,,,VFR,,,,,,,,,,,,METAR,234.0
KCUH 111935Z AUTO 28008KT 10SM BKN100 08/02 A2981 RMK AO2 T00800018,KCUH,2020-12-11T19:35:00Z,35.95,-96.77,8.0,1.8,280,8,,10.0,29.811024,,,TRUE,TRUE,,,,,,,BKN,10000,,,,,,,VFR,,,,,,,,,,,,SPECI,274.0
KCTZ 111935Z AUTO 00000KT 10SM SCT042 21/13 A3014 RMK AO2 T02080130,KCTZ,2020-12-11T19:35:00Z,34.98,-78.37,20.8,13.0,0,0,,10.0,30.138779,,,TRUE,TRUE,,,,,,,SCT,4200,,,,,,,VFR,,,,,,,,,,,,SPECI,43.0
KCTY 111935Z AUTO 00000KT 10SM CLR 21/07 A3012 RMK AO2 T02140072,KCTY,2020-12-11T19:35:00Z,29.63,-83.1,21.4,7.2,0,0,,10.0,30.121063,,,TRUE,TRUE,,,,,,,CLR,,,,,,,,VFR,,,,,,,,,,,,SPECI,12.0
KCTJ 111935Z AUTO 18005KT 10SM CLR 18/03 A3012 RMK AO2 T01780030,KCTJ,2020-12-11T19:35:00Z,33.63,-85.15,17.8,3.0,180,5,,10.0,30.121063,,,TRUE,TRUE,,,,,,,CLR,,,,,,,,VFR,,,,,,,,,,,,SPECI,351.0
KCSQ 111935Z AUTO 05018G24KT 5SM -RA BKN006 03/02 A2976 RMK AO2,KCSQ,2020-12-11T19:35:00Z,41.02,-94.37,3.0,2.0,50,18,24,5.0,29.760826,,,TRUE,TRUE,,,,,,-RA,BKN,600,,,,,,,IFR,,,,,,,,,,,,METAR,394.0
KCRX 111935Z AUTO 18009KT 10SM CLR 18/09 A2998 RMK AO2,KCRX,2020-12-11T19:35:00Z,34.92,-88.6,18.0,9.0,180,9,,10.0,29.97933,,,TRUE,TRUE,,,,,,,CLR,,,,,,,,VFR,,,,,,,,,,,,SPECI,128.0
KCQW 111935Z AUTO 00000KT 10SM CLR 19/09 A3014 RMK AO2,KCQW,2020-12-11T19:35:00Z,34.72,-79.95,19.0,9.0,0,0,,10.0,30.138779,,,TRUE,TRUE,,,,,,,CLR,,,,,,,,VFR,,,,,,,,,,,,SPECI,67.0
KCQF 111935Z AUTO 11008G14KT 10SM SCT042 BKN060 22/13 A3005 RMK AO2,KCQF,2020-12-11T19:35:00Z,30.47,-87.88,22.0,13.0,110,8,14,10.0,30.050198,,,TRUE,TRUE,,,,,,,SCT,4200,BKN,6000,,,,,VFR,,,,,,,,,,,,METAR,21.0
KCQB 111935Z AUTO 29010KT 10SM OVC120 09/02 A2982 RMK AO2 T00880024,KCQB,2020-12-11T19:35:00Z,35.72,-96.82,8.8,2.4,290,10,,10.0,29.819881,,,TRUE,TRUE,,,,,,,OVC,12000,,,,,,,VFR,,,,,,,,,,,,METAR,298.0
KCPW 111935Z AUTO 22009G17KT OVC002 M10/M11 A2984 RMK AO2 PWINO,KCPW,2020-12-11T19:35:00Z,37.45,-106.8,-10.0,-11.0,220,9,17,,29.840551,,,TRUE,TRUE,,,,,TRUE,,OVC,200,,,,,,,,,,,,,,,,,,,SPECI,3570.0
KCPU 111935Z AUTO 35003KT 10SM CLR 09/02 A3017 RMK AO2 T00850022,KCPU,2020-12-11T19:35:00Z,38.15,-120.65,8.5,2.2,350,3,,10.0,30.171259,,,TRUE,TRUE,,,,,,,CLR,,,,,,,,VFR,,,,,,,,,,,,METAR,400.0
KCPT 111935Z AUTO 20008G14KT 8SM BKN055 19/16 A2982 RMK A01,KCPT,2020-12-11T19:35:00Z,32.35,-97.43,19.0,16.0,200,8,14,8.0,29.819881,,,TRUE,TRUE,,,,,,,BKN,5500,,,,,,,VFR,,,,,,,,,,,,METAR,260.0
KCPK 111935Z AUTO 17012G16KT 10SM CLR 18/10 A3016 RMK AO2 T01830098,KCPK,2020-12-11T19:35:00Z,36.67,-76.32,18.3,9.8,170,12,16,10.0,30.159449,,,TRUE,TRUE,,,,,,,CLR,,,,,,,,VFR,,,,,,,,,,,,SPECI,4.0
KCPF 111935Z AUTO 19008KT 10SM CLR 19/01 A3003 RMK AO2,KCPF,2020-12-11T19:35:00Z,37.38,-83.27,19.0,1.0,190,8,,10.0,30.029528,,,TRUE,TRUE,,,,,,,CLR,,,,,,,,VFR,,,,,,,,,,,,SPECI,382.0
KCPC 111935Z AUTO 15004KT 10SM CLR 21/11 A3014 RMK AO2 T02120112,KCPC,2020-12-11T19:35:00Z,34.28,-78.72,21.2,11.2,150,4,,10.0,30.138779,,,TRUE,TRUE,,,,,,,CLR,,,,,,,,VFR,,,,,,,,,,,,SPECI,27.0
KCOQ 111935Z AUTO 01003KT 10SM OVC021 00/M05 A3013 RMK AO2 TSNO,KCOQ,2020-12-11T19:35:00Z,46.7,-92.5,0.0,-5.0,10,3,,10.0,30.129921,,,TRUE,TRUE,,,TRUE,,,,OVC,2100,,,,,,,MVFR,,,,,,,,,,,,METAR,390.0
KCOM 111935Z AUTO 29008KT 10SM 21/08 A2983 RMK AO2 T02120077,KCOM,2020-12-11T19:35:00Z,31.83,-99.4,21.2,7.7,290,8,,10.0,29.828741,,,TRUE,TRUE,,,,,,,,,,,,,,,,,,,,,,,,,,,SPECI,516.0
KCNI 111935Z AUTO 19003KT 10SM CLR 18/02 A3012 RMK AO2,KCNI,2020-12-11T19:35:00Z,34.32,-84.42,18.0,2.0,190,3,,10.0,30.121063,,,TRUE,TRUE,,,,,,,CLR,,,,,,,,VFR,,,,,,,,,,,,SPECI,371.0
KCNC 111935Z AUTO 05012KT 3SM -RA OVC005 03/03 A2979 RMK AO2,KCNC,2020-12-11T19:35:00Z,41.02,-93.37,3.0,3.0,50,12,,3.0,29.790354,,,TRUE,TRUE,,,,,,-RA,OVC,500,,,,,,,IFR,,,,,,,,,,,,SPECI,319.0
KCNB 111935Z AUTO 01010KT 360V070 10SM OVC011 00/M03 A3010 RMK AO2 T00001029,KCNB,2020-12-11T19:35:00Z,44.73,-96.27,0.0,-2.9,10,10,,10.0,30.100393,,,TRUE,TRUE,,,,,,,OVC,1100,,,,,,,MVFR,,,,,,,,,,,,METAR,363.0
KCMY 111935Z AUTO 05012G16KT 10SM 03/M02 A3003 RMK AO2 T00271023,KCMY,2020-12-11T19:35:00Z,43.97,-90.73,2.7,-2.3,50,12,16,10.0,30.029528,,,TRUE,TRUE,,,,,,,,,,,,,,,,,,,,,,,,,,,SPECI,253.0
KCMR 111935Z AUTO 25010G17KT 10SM CLR 06/M07 A3006 RMK AO2,KCMR,2020-12-11T19:35:00Z,35.3,-112.2,6.0,-7.0,250,10,17,10.0,30.059055,,,TRUE,TRUE,,,,,,,CLR,,,,,,,,VFR,,,,,,,,,,,,METAR,2039.0
KCMD 111935Z AUTO 19007KT 10SM SCT037 18/08 A3008 RMK AO2 T01750083,KCMD,2020-12-11T19:35:00Z,34.27,-86.85,17.5,8.3,190,7,,10.0,30.079725,,,TRUE,TRUE,,,,,,,SCT,3700,,,,,,,VFR,,,,,,,,,,,,SPECI,294.0
KCLW 111935Z AUTO 09005KT 10SM 21/08 A3011 RMK AO2,KCLW,2020-12-11T19:35:00Z,27.98,-82.75,21.0,8.0,90,5,,10.0,30.109253,,,TRUE,TRUE,,,,,,,,,,,,,,,,,,,,,,,,,,,SPECI,21.0
KCLS 111935Z AUTO 17009KT 10SM BKN014 BKN019 06/05 A3007 RMK AO2,KCLS,2020-12-11T19:35:00Z,46.68,-122.98,6.0,5.0,170,9,,10.0,30.070866,,,TRUE,TRUE,,,,,,,BKN,1400,BKN,1900,,,,,MVFR,,,,,,,,,,,,METAR,52.0
KCLK 111935Z AUTO 33008G16KT 290V360 10SM SCT029 BKN065 08/00 A2986 RMK AO2,KCLK,2020-12-11T19:35:00Z,35.53,-98.93,8.0,0.0,330,8,16,10.0,29.861221,,,TRUE,TRUE,,,,,,,SCT,2900,BKN,6500,,,,,VFR,,,,,,,,,,,,METAR,489.0
KCLI 111935Z AUTO 04007KT 10SM BKN120 02/M04 A3006 RMK AO2 T00151042,KCLI,2020-12-11T19:35:00Z,44.62,-88.73,1.5,-4.2,40,7,,10.0,30.059055,,,TRUE,TRUE,,,,,,,BKN,12000,,,,,,,VFR,,,,,,,,,,,,SPECI,248.0
KCKZ 111935Z AUTO 22007KT 10SM CLR 13/04 A3010 RMK AO2,KCKZ,2020-12-11T19:35:00Z,40.38,-75.28,13.0,4.0,220,7,,10.0,30.100393,,,TRUE,TRUE,,,,,,,CLR,,,,,,,,VFR,,,,,,,,,,,,METAR,160.0
KCKP 111935Z AUTO 05010G20KT 10SM OVC100 04/00 A2991 RMK AO2 T00401002,KCKP,2020-12-11T19:35:00Z,42.73,-95.55,4.0,-0.2,50,10,20,10.0,29.911417,,,TRUE,TRUE,,,,,,,OVC,10000,,,,,,,VFR,,,,,,,,,,,,SPECI,369.0
KCKN 111935Z AUTO 00000KT 10SM OVC006 M04/M06 A3020 RMK AO2,KCKN,2020-12-11T19:35:00Z,47.85,-96.62,-4.0,-6.0,0,0,,10.0,30.200787,,,TRUE,TRUE,,,,,,,OVC,600,,,,,,,IFR,,,,,,,,,,,,SPECI,272.0
KCKM 111935Z AUTO 16012G18KT 10SM 19/12 A2993 RMK A01,KCKM,2020-12-11T19:35:00Z,34.3,-90.52,19.0,12.0,160,12,18,10.0,29.929134,,,TRUE,TRUE,,,,,,,,,,,,,,,,,,,,,,,,,,,METAR,52.0
KCKI 111935Z AUTO 00000KT 10SM CLR 18/06 A3014 RMK AO2,KCKI,2020-12-11T19:35:00Z,33.72,-79.85,18.0,6.0,0,0,,10.0,30.138779,,,TRUE,TRUE,,,,,,,CLR,,,,,,,,VFR,,,,,,,,,,,,METAR,19.0
KCKF 111935Z AUTO 20004KT 10SM CLR 21/03 A3012 RMK AO2 T02070033,KCKF,2020-12-11T19:35:00Z,31.98,-83.77,20.7,3.3,200,4,,10.0,30.121063,,,TRUE,TRUE,,,,,,,CLR,,,,,,,,VFR,,,,,,,,,,,,METAR,92.0
KCKC 111935Z AUTO 32003KT 10SM OVC013 M04/M08 A3012 RMK AO2,KCKC,2020-12-11T19:35:00Z,47.83,-90.38,-4.0,-8.0,320,3,,10.0,30.121063,,,TRUE,TRUE,,,,,,,OVC,1300,,,,,,,MVFR,,,,,,,,,,,,METAR,544.0
KCJR 111935Z AUTO 19005KT 10SM CLR 19/04 A3010 RMK AO2 T01850035,KCJR,2020-12-11T19:35:00Z,38.53,-77.87,18.5,3.5,190,5,,10.0,30.100393,,,TRUE,TRUE,,,,,,,CLR,,,,,,,,VFR,,,,,,,,,,,,SPECI,90.0
KCIR 111935Z 10SM BKN034 OVC042 18/10 A2988 RMK AO2 T01780104,KCIR,2020-12-11T19:35:00Z,37.07,-89.22,17.8,10.4,,,,10.0,29.878937,,,,TRUE,,,,,,,BKN,3400,OVC,4200,,,,,VFR,,,,,,,,,,,,SPECI,96.0
KCIN 111935Z AUTO 05016KT 10SM OVC017 03/03 A2985 RMK AO2,KCIN,2020-12-11T19:35:00Z,42.03,-94.78,3.0,3.0,50,16,,10.0,29.84941,,,TRUE,TRUE,,,,,,,OVC,1700,,,,,,,MVFR,,,,,,,,,,,,SPECI,365.0
KCHK 111935Z AUTO 31013KT 10SM SCT100 10/02 A2982 RMK AO2 T00950023,KCHK,2020-12-11T19:35:00Z,35.1,-97.97,9.5,2.3,310,13,,10.0,29.819881,,,TRUE,TRUE,,,,,,,SCT,10000,,,,,,,VFR,,,,,,,,,,,,METAR,346.0
KCGS 111935Z AUTO 19007KT 10SM CLR 16/02 A3010 RMK AO1 T01550018,KCGS,2020-12-11T19:35:00Z,38.98,-76.92,15.5,1.8,190,7,,10.0,30.100393,,,TRUE,TRUE,,,,,,,CLR,,,,,,,,VFR,,,,,,,,,,,,SPECI,15.0
KCGE 111935Z AUTO 17007G13KT 140V200 10SM CLR 14/07 A3014 RMK A01,KCGE,2020-12-11T19:35:00Z,38.53,-76.03,14.0,7.0,170,7,13,10.0,30.138779,,,TRUE,TRUE,,,,,,,CLR,,,,,,,,VFR,,,,,,,,,,,,METAR,5.0
KCGC 111935Z AUTO 17005KT 10SM CLR 22/06 A3012 RMK AO2,KCGC,2020-12-11T19:35:00Z,28.87,-82.57,22.0,6.0,170,5,,10.0,30.121063,,,TRUE,TRUE,,,,,,,CLR,,,,,,,,VFR,,,,,,,,,,,,SPECI,3.0
KCFS 111935Z AUTO 01005KT 10SM OVC012 05/03 A2999 RMK AO2 T00520032,KCFS,2020-12-11T19:35:00Z,43.47,-83.45,5.2,3.2,10,5,,10.0,29.991142,,,TRUE,TRUE,,,,,,,OVC,1200,,,,,,,MVFR,,,,,,,,,,,,METAR,214.0
KCFJ 111935Z AUTO 18012KT 10SM CLR 14/06 A2986 RMK AO2 T01430058,KCFJ,2020-12-11T19:35:00Z,39.98,-86.92,14.3,5.8,180,12,,10.0,29.861221,,,TRUE,TRUE,,,,,,,CLR,,,,,,,,VFR,,,,,,,,,,,,METAR,243.0
KCFE 111935Z 10SM BKN017 01/M03 A3011 RMK AO2 T00061034,KCFE,2020-12-11T19:35:00Z,45.17,-93.85,0.6,-3.4,,,,10.0,30.109253,,,,TRUE,,,,,,,BKN,1700,,,,,,,MVFR,,,,,,,,,,,,METAR,292.0
KCFD 111935Z AUTO 00000KT 10SM SCT012 BKN043 OVC060 18/18 A2987 RMK AO2 P0002 T01790179,KCFD,2020-12-11T19:35:00Z,30.72,-96.33,17.9,17.9,0,0,,10.0,29.870079,,,TRUE,TRUE,,,,,,,SCT,1200,BKN,4300,OVC,6000,,,VFR,,,,,,0.02,,,,,,SPECI,106.0
KCEY 111935Z AUTO 17010G17KT 10SM FEW043 18/09 A2993 RMK AO1,KCEY,2020-12-11T19:35:00Z,36.67,-88.37,18.0,9.0,170,10,17,10.0,29.929134,,,TRUE,TRUE,,,,,,,FEW,4300,,,,,,,VFR,,,,,,,,,,,,SPECI,172.0
KCDN 111935Z AUTO 00000KT 10SM CLR 19/08 A3015 RMK AO2,KCDN,2020-12-11T19:35:00Z,34.28,-80.57,19.0,8.0,0,0,,10.0,30.15059,,,TRUE,TRUE,,,,,,,CLR,,,,,,,,VFR,,,,,,,,,,,,METAR,90.0
KCDI 111935Z AUTO 20008G14KT 10SM CLR 18/03 A2999 RMK AO2 T01790034,KCDI,2020-12-11T19:35:00Z,39.97,-81.58,17.9,3.4,200,8,14,10.0,29.991142,,,TRUE,TRUE,,,,,,,CLR,,,,,,,,VFR,,,,,,,,,,,,METAR,241.0
KCDH 111935Z AUTO 18008G15KT 9SM BKN095 BKN120 19/14 A2985 RMK AO2,KCDH,2020-12-11T19:35:00Z,33.62,-92.77,19.0,14.0,180,8,15,9.0,29.84941,,,TRUE,TRUE,,,,,,,BKN,9500,BKN,12000,,,,,VFR,,,,,,,,,,,,SPECI,38.0
KCDD 111935Z AUTO 36004KT 10SM OVC011 M05/M07 A3021 RMK AO2,KCDD,2020-12-11T19:35:00Z,48.27,-92.48,-5.0,-7.0,360,4,,10.0,30.209646,,,TRUE,TRUE,,,,,,,OVC,1100,,,,,,,MVFR,,,,,,,,,,,,SPECI,344.0
KCDA 111935Z AUTO 12003KT 10SM SCT080 04/M02 A3001 RMK AO2 T00371016,KCDA,2020-12-11T19:35:00Z,44.57,-72.02,3.7,-1.6,120,3,,10.0,30.008858,,,TRUE,TRUE,,,,,,,SCT,8000,,,,,,,VFR,,,,,,,,,,,,METAR,357.0
KCCY 111935Z AUTO 05015KT 10SM SCT033 OVC043 03/M01 A2993 RMK AO2,KCCY,2020-12-11T19:35:00Z,43.07,-92.62,3.0,-1.0,50,15,,10.0,29.929134,,,TRUE,TRUE,,,,,,,SCT,3300,OVC,4300,,,,,VFR,,,,,,,,,,,,METAR,340.0
KCCU 111935Z AUTO BKN008 BKN012 OVC024 M08/M11 A2974 RMK AO2 PWINO,KCCU,2020-12-11T19:35:00Z,39.48,-106.15,-8.0,-11.0,,,,,29.740158,,,TRUE,TRUE,,,,,TRUE,,BKN,800,BKN,1200,OVC,2400,,,,,,,,,,,,,,,SPECI,3672.0
KCCO 111935Z AUTO 13005KT 10SM CLR 21/04 A3009 RMK AO2 T02100042,KCCO,2020-12-11T19:35:00Z,33.32,-84.77,21.0,4.2,130,5,,10.0,30.088583,,,TRUE,TRUE,,,,,,,CLR,,,,,,,,VFR,,,,,,,,,,,,SPECI,290.0
KCCB 111935Z AUTO 27006KT 10SM CLR 13/05 A3010 RMK AO2,KCCB,2020-12-11T19:35:00Z,34.12,-117.68,13.0,5.0,270,6,,10.0,30.100393,,,TRUE,TRUE,,,,,,,CLR,,,,,,,,VFR,,,,,,,,,,,,METAR,440.0
KCCA 111935Z AUTO 12003KT 5SM -RA BKN010 OVC016 12/12 A2984 RMK AO2,KCCA,2020-12-11T19:35:00Z,35.6,-92.45,12.0,12.0,120,3,,5.0,29.840551,,,TRUE,TRUE,,,,,,-RA,BKN,1000,OVC,1600,,,,,MVFR,,,,,,,,,,,,SPECI,152.0
KCBK 111935Z AUTO 35011G14KT 10SM BKN010 OVC021 M01/M02 A2987 RMK AO2 PWINO,KCBK,2020-12-11T19:35:00Z,39.43,-101.05,-1.0,-2.0,350,11,14,10.0,29.870079,,,TRUE,TRUE,,,,,TRUE,,BKN,1000,OVC,2100,,,,,MVFR,,,,,,,,,,,,SPECI,970.0
KCBG 111935Z AUTO 01009G15KT 333V043 10SM OVC018 01/M05 A3012 RMK AO2,KCBG,2020-12-11T19:35:00Z,45.57,-93.27,1.0,-5.0,10,9,15,10.0,30.121063,,,TRUE,TRUE,,,,,,,OVC,1800,,,,,,,MVFR,,,,,,,,,,,,SPECI,285.0
KCBF 111935Z AUTO 04014G20KT 7SM -SN OVC009 02/02 A2980 RMK AO2,KCBF,2020-12-11T19:35:00Z,41.27,-95.77,2.0,2.0,40,14,20,7.0,29.799213,,,TRUE,TRUE,,,,,,-SN,OVC,900,,,,,,,IFR,,,,,,,,,,,,METAR,379.0
KCBE 111935Z AUTO 00000KT 10SM CLR 14/03 A3008 RMK AO2 T01410034,KCBE,2020-12-11T19:35:00Z,39.62,-78.77,14.1,3.4,0,0,,10.0,30.079725,,,TRUE,TRUE,,,,,,,CLR,,,,,,,,VFR,,,,,,,,,,,,METAR,226.0
KCAV 111935Z AUTO 06020KT 10SM OVC029 04/02 A2990 RMK A01,KCAV,2020-12-11T19:35:00Z,42.75,-93.77,4.0,2.0,60,20,,10.0,29.899607,,,TRUE,TRUE,,,,,,,OVC,2900,,,,,,,MVFR,,,,,,,,,,,,SPECI,352.0
KCAD 111935Z AUTO 01006KT 10SM OVC013 03/00 A3000 RMK AO2 T00270000,KCAD,2020-12-11T19:35:00Z,44.27,-85.42,2.7,0.0,10,6,,10.0,30.0,,,TRUE,TRUE,,,,,,,OVC,1300,,,,,,,MVFR,,,,,,,,,,,,SPECI,397.0
KC83 111935Z AUTO 34004KT 10SM CLR 14/03 A3017 RMK AO2,KC83,2020-12-11T19:35:00Z,37.83,-121.62,14.0,3.0,340,4,,10.0,30.171259,,,TRUE,TRUE,,,,,,,CLR,,,,,,,,VFR,,,,,,,,,,,,SPECI,16.0
KC75 111935Z AUTO 06011G14KT 4SM -DZ OVC013 07/04 A2986 RMK AO2 T00660044,KC75,2020-12-11T19:35:00Z,41.02,-89.38,6.6,4.4,60,11,14,4.0,29.861221,,,TRUE,TRUE,,,,,,-DZ,OVC,1300,,,,,,,MVFR,,,,,,,,,,,,SPECI,166.0
KC65 111935Z AUTO 00000KT 10SM CLR 11/04 A2986 RMK A01,KC65,2020-12-11T19:35:00Z,41.37,-86.3,11.0,4.0,0,0,,10.0,29.861221,,,TRUE,TRUE,,,,,,,CLR,,,,,,,,VFR,,,,,,,,,,,,SPECI,241.0
KC35 111935Z AUTO 06007KT 040V100 10SM SCT021 BKN048 OVC100 02/M02 A3000 RMK AO2 T00151022 PWINO,KC35,2020-12-11T19:35:00Z,43.53,-89.98,1.5,-2.2,60,7,,10.0,30.0,,,TRUE,TRUE,,,,,TRUE,,SCT,2100,BKN,4800,OVC,10000,,,VFR,,,,,,,,,,,,SPECI,272.0
KC29 111935Z AUTO 06010G15KT 4SM BKN016 OVC026 02/00 A2999 RMK AO1 T00200000,KC29,2020-12-11T19:35:00Z,43.12,-89.53,2.0,0.0,60,10,15,4.0,29.991142,,,TRUE,TRUE,,,,,,,BKN,1600,OVC,2600,,,,,MVFR,,,,,,,,,,,,METAR,282.0
KC09 111935Z AUTO 06009G14KT 10SM -RA SCT015 SCT049 SCT060 07/04 A2988 RMK AO2 T00660042,KC09,2020-12-11T19:35:00Z,41.43,-88.42,6.6,4.2,60,9,14,10.0,29.878937,,,TRUE,TRUE,,,,,,-RA,SCT,1500,SCT,4900,SCT,6000,,,VFR,,,,,,,,,,,,SPECI,179.0
KC07 111935Z AUTO 30009G16KT 1/2SM -SN OVC001 M10/M11 A2979 RMK AO2,KC07,2020-12-11T19:35:00Z,40.35,-106.7,-10.0,-11.0,300,9,16,0.5,29.790354,,,TRUE,TRUE,,,,,,-SN,OVC,100,,,,,,,LIFR,,,,,,,,,,,,SPECI,3224.0
KBYY 111935Z AUTO 16013G18KT 10SM SCT027 BKN040 OVC046 23/18 A2986 RMK AO2 T02360188,KBYY,2020-12-11T19:35:00Z,28.97,-95.87,23.6,18.8,160,13,18,10.0,29.861221,,,TRUE,TRUE,,,,,,,SCT,2700,BKN,4000,OVC,4600,,,VFR,,,,,,,,,,,,SPECI,12.0
KBYL 111935Z AUTO 14010KT 10SM FEW120 16/04 A3004 RMK AO1,KBYL,2020-12-11T19:35:00Z,36.8,-84.2,16.0,4.0,140,10,,10.0,30.041338,,,TRUE,TRUE,,,,,,,FEW,12000,,,,,,,VFR,,,,,,,,,,,,SPECI,355.0
KBXK 111935Z AUTO 11008KT 9SM CLR 16/12 A3007 RMK A01,KBXK,2020-12-11T19:35:00Z,33.42,-112.68,16.0,12.0,110,8,,9.0,30.070866,,,TRUE,TRUE,,,,,,,CLR,,,,,,,,VFR,,,,,,,,,,,,METAR,303.0
KBXA 111935Z AUTO 17006KT 10SM BKN040 OVC050 22/13 A3003 RMK AO2 T02160126,KBXA,2020-12-11T19:35:00Z,30.82,-89.87,21.6,12.6,170,6,,10.0,30.029528,,,TRUE,TRUE,,,,,,,BKN,4000,OVC,5000,,,,,VFR,,,,,,,,,,,,METAR,35.0
KBWW 111935Z AUTO 00000KT 2 1/2SM BR OVC003 M03/M02 A3005 RMK AO2 VIS 1 3/4V3,KBWW,2020-12-11T19:35:00Z,46.17,-103.3,-3.0,-2.0,0,0,,2.5,30.050198,,,TRUE,TRUE,,,,,,BR,OVC,300,,,,,,,LIFR,,,,,,,,,,,,SPECI,911.0
KBVU 111935Z AUTO 19003KT 10SM CLR 12/M02 A3003 RMK AO2,KBVU,2020-12-11T19:35:00Z,35.95,-114.87,12.0,-2.0,190,3,,10.0,30.029528,,,TRUE,TRUE,,,,,,,CLR,,,,,,,,VFR,,,,,,,,,,,,METAR,654.0
KBVS 111935Z AUTO 16003KT 10SM OVC020 07/04 A3008 RMK A01,KBVS,2020-12-11T19:35:00Z,48.47,-122.42,7.0,4.0,160,3,,10.0,30.079725,,,TRUE,TRUE,,,,,,,OVC,2000,,,,,,,MVFR,,,,,,,,,,,,SPECI,31.0
KBVN 111935Z AUTO 01012G18KT 10SM OVC013 01/M02 A2989 RMK AO2 T00111020,KBVN,2020-12-11T19:35:00Z,41.73,-98.05,1.1,-2.0,10,12,18,10.0,29.890747,,,TRUE,TRUE,,,,,,,OVC,1300,,,,,,,MVFR,,,,,,,,,,,,SPECI,547.0
KBVI 111935Z AUTO 19008KT 10SM CLR 16/03 A2998 RMK AO2 T01600028,KBVI,2020-12-11T19:35:00Z,40.77,-80.37,16.0,2.8,190,8,,10.0,29.97933,,,TRUE,TRUE,,,,,,,CLR,,,,,,,,VFR,,,,,,,,,,,,SPECI,387.0
KBUU 111935Z AUTO 03011KT 7SM OVC012 03/02 A2996 RMK AO2 P0003 T00250016 PWINO,KBUU,2020-12-11T19:35:00Z,42.68,-88.3,2.5,1.6,30,11,,7.0,29.958662,,,TRUE,TRUE,,,,,TRUE,,OVC,1200,,,,,,,MVFR,,,,,,0.03,,,,,,METAR,238.0
KBTA 111935Z AUTO 36011KT 7SM -RA OVC006 01/01 A2983 RMK AO2 T00130005,KBTA,2020-12-11T19:35:00Z,41.42,-96.12,1.3,0.5,360,11,,7.0,29.828741,,,TRUE,TRUE,,,,,,-RA,OVC,600,,,,,,,IFR,,,,,,,,,,,,SPECI,400.0
KBRY 111935Z AUTO 20011G15KT 10SM CLR 18/04 RMK AO1,KBRY,2020-12-11T19:35:00Z,37.82,-85.5,18.0,4.0,200,11,15,10.0,,,,TRUE,TRUE,,,,,,,CLR,,,,,,,,VFR,,,,,,,,,,,,SPECI,192.0
KBRG 111935Z AUTO 29018G28KT 10SM CLR 10/M06 A2995 RMK AO2 T00991061,KBRG,2020-12-11T19:35:00Z,34.65,-106.83,9.9,-6.1,290,18,28,10.0,29.949802,,,TRUE,TRUE,,,,,,,CLR,,,,,,,,VFR,,,,,,,,,,,,SPECI,1585.0
KBQX 111935Z AUTO 16014KT 9SM FEW025 SCT049 OVC065 23/19 A2987 RMK A01,KBQX,2020-12-11T19:35:00Z,28.5,-95.72,23.0,19.0,160,14,,9.0,29.870079,,,TRUE,TRUE,,,,,,,FEW,2500,SCT,4900,OVC,6500,,,VFR,,,,,,,,,,,,SPECI,34.0
KBQP 111935Z AUTO 18008KT 10SM CLR 21/11 A2992 RMK AO2 T02120113,KBQP,2020-12-11T19:35:00Z,32.75,-91.88,21.2,11.3,180,8,,10.0,29.920275,,,TRUE,TRUE,,,,,,,CLR,,,,,,,,VFR,,,,,,,,,,,,METAR,50.0
KBQK 111935Z AUTO 16008KT 10SM CLR 21/06 A3014 RMK AO2 T02070060,KBQK,2020-12-11T19:35:00Z,31.25,-81.47,20.7,6.0,160,8,,10.0,30.138779,,,TRUE,TRUE,,,,,,,CLR,,,,,,,,VFR,,,,,,,,,,,,METAR,7.0
KBPG 111935Z AUTO 26010KT 10SM CLR 16/06 A2987 RMK AO2 T01630065,KBPG,2020-12-11T19:35:00Z,32.22,-101.52,16.3,6.5,260,10,,10.0,29.870079,,,TRUE,TRUE,,,,,,,CLR,,,,,,,,VFR,,,,,,,,,,,,SPECI,782.0
KBPC 111935Z AUTO 01007KT 10SM BKN027 OVC060 06/M01 A2987 RMK AO2,KBPC,2020-12-11T19:35:00Z,35.88,-101.03,6.0,-1.0,10,7,,10.0,29.870079,,,TRUE,TRUE,,,,,,,BKN,2700,OVC,6000,,,,,MVFR,,,,,,,,,,,,SPECI,844.0
KBNW 111935Z AUTO 06016KT 4SM BR BKN008 BKN011 03/03 A2986 RMK AO2,KBNW,2020-12-11T19:35:00Z,42.03,-93.83,3.0,3.0,60,16,,4.0,29.861221,,,TRUE,TRUE,,,,,,BR,BKN,800,BKN,1100,,,,,IFR,,,,,,,,,,,,SPECI,350.0
KBNL 111935Z AUTO VRB04KT 10SM CLR 20/07 A3014 RMK AO2,KBNL,2020-12-11T19:35:00Z,33.25,-81.38,20.0,7.0,0,4,,10.0,30.138779,,,TRUE,TRUE,,,,,,,CLR,,,,,,,,VFR,,,,,,,,,,,,SPECI,76.0
KBMT 111935Z AUTO 10SM SCT065 23/17 A2990 RMK AO2 T02330171,KBMT,2020-12-11T19:35:00Z,30.07,-94.22,23.3,17.1,,,,10.0,29.899607,,,TRUE,TRUE,,,,,,,SCT,6500,,,,,,,VFR,,,,,,,,,,,,SPECI,8.0
KBMC 111935Z AUTO 20007KT 10SM SCT055 01/M06 A3003 RMK AO1 T00051064,KBMC,2020-12-11T19:35:00Z,41.55,-112.07,0.5,-6.4,200,7,,10.0,30.029528,,,TRUE,TRUE,,,,,,,SCT,5500,,,,,,,VFR,,,,,,,,,,,,SPECI,1289.0
KBKT 111935Z AUTO 22007KT 10SM CLR 17/08 A3014 RMK AO1 T01740078,KBKT,2020-12-11T19:35:00Z,37.07,-77.95,17.4,7.8,220,7,,10.0,30.138779,,,TRUE,TRUE,,,,,,,CLR,,,,,,,,VFR,,,,,,,,,,,,METAR,134.0
KBKS 111935Z AUTO 24005KT 10SM CLR 25/15 A2982 RMK AO2 T02460154,KBKS,2020-12-11T19:35:00Z,27.2,-98.12,24.6,15.4,240,5,,10.0,29.819881,,,TRUE,TRUE,,,,,,,CLR,,,,,,,,VFR,,,,,,,,,,,,METAR,34.0
KBKN 111935Z AUTO 31007KT 10SM OVC021 06/03 A2983 RMK AO2,KBKN,2020-12-11T19:35:00Z,36.75,-97.35,6.0,3.0,310,7,,10.0,29.828741,,,TRUE,TRUE,,,,,,,OVC,2100,,,,,,,MVFR,,,,,,,,,,,,SPECI,208.0
KBKD 111935Z AUTO 31006KT 10SM CLR 16/07 A2985 RMK AO2 T01590070,KBKD,2020-12-11T19:35:00Z,32.72,-98.88,15.9,7.0,310,6,,10.0,29.84941,,,TRUE,TRUE,,,,,,,CLR,,,,,,,,VFR,,,,,,,,,,,,SPECI,383.0
KBJI 111935Z AUTO 02005KT 10SM OVC003 M04/M05 A3014 RMK AO2 T10451046,KBJI,2020-12-11T19:35:00Z,47.5,-94.92,-4.5,-4.6,20,5,,10.0,30.138779,,,TRUE,TRUE,,,,,,,OVC,300,,,,,,,LIFR,,,,,,,,,,,,METAR,422.0
KBIJ 111935Z AUTO 00000KT 10SM CLR 20/06 A3012 RMK AO2,KBIJ,2020-12-11T19:35:00Z,31.4,-84.9,20.0,6.0,0,0,,10.0,30.121063,,,TRUE,TRUE,,,,,,,CLR,,,,,,,,VFR,,,,,,,,,,,,SPECI,63.0
KBIE 111935Z AUTO 03009G16KT 10SM OVC014 03/00 A2980 RMK AO2 T00310000,KBIE,2020-12-11T19:35:00Z,40.28,-96.75,3.1,0.0,30,9,16,10.0,29.799213,,,TRUE,TRUE,,,,,,,OVC,1400,,,,,,,MVFR,,,,,,,,,,,,SPECI,398.0
KBHC 111935Z AUTO 18006KT 10SM CLR 20/06 A3013 RMK AO2,KBHC,2020-12-11T19:35:00Z,31.72,-82.4,20.0,6.0,180,6,,10.0,30.129921,,,TRUE,TRUE,,,,,,,CLR,,,,,,,,VFR,,,,,,,,,,,,SPECI,61.0
KBGF 111935Z AUTO 23010KT 10SM CLR 17/07 A3004 RMK A01,KBGF,2020-12-11T19:35:00Z,35.18,-86.07,17.0,7.0,230,10,,10.0,30.041338,,,TRUE,TRUE,,,,,,,CLR,,,,,,,,VFR,,,,,,,,,,,,SPECI,295.0
KBGE 111935Z AUTO 12004KT 10SM CLR 21/07 A3012 RMK AO2 T02110074,KBGE,2020-12-11T19:35:00Z,30.97,-84.63,21.1,7.4,120,4,,10.0,30.121063,,,TRUE,TRUE,,,,,,,CLR,,,,,,,,VFR,,,,,,,,,,,,SPECI,40.0
KBFW 111935Z AUTO 01003KT 10SM OVC023 M01/M07 A3014 RMK AO2,KBFW,2020-12-11T19:35:00Z,47.25,-91.4,-1.0,-7.0,10,3,,10.0,30.138779,,,TRUE,TRUE,,,,,,,OVC,2300,,,,,,,MVFR,,,,,,,,,,,,SPECI,335.0
KBEC 111935Z AUTO 32006KT 10SM OVC017 04/00 A2980 RMK AO2 T00401003,KBEC,2020-12-11T19:35:00Z,37.7,-97.22,4.0,-0.3,320,6,,10.0,29.799213,,,TRUE,TRUE,,,,,,,OVC,1700,,,,,,,MVFR,,,,,,,,,,,,METAR,421.0
KBEA 111935Z AUTO 22006KT 10SM SCT026 SCT033 SCT045 25/19 A2982 RMK AO2 T02540194,KBEA,2020-12-11T19:35:00Z,28.37,-97.78,25.4,19.4,220,6,,10.0,29.819881,,,TRUE,TRUE,,,,,,,SCT,2600,SCT,3300,SCT,4500,,,VFR,,,,,,,,,,,,SPECI,83.0
KBDN 111935Z AUTO 23016KT 10SM FEW080 04/M06 A3002 RMK AO2,KBDN,2020-12-11T19:35:00Z,44.1,-121.2,4.0,-6.0,230,16,,10.0,30.02067,,,TRUE,TRUE,,,,,,,FEW,8000,,,,,,,VFR,,,,,,,,,,,,METAR,1044.0
KBDH 111935Z AUTO 04009G14KT 10SM CLR 02/M02 A3011 RMK AO2,KBDH,2020-12-11T19:35:00Z,45.12,-95.13,2.0,-2.0,40,9,14,10.0,30.109253,,,TRUE,TRUE,,,,,,,CLR,,,,,,,,VFR,,,,,,,,,,,,METAR,341.0
KBDG 111935Z AUTO 17005KT 10SM A3002 RMK AO1,KBDG,2020-12-11T19:35:00Z,37.58,-109.47,,,170,5,,10.0,30.02067,,,TRUE,TRUE,,,,,,,,,,,,,,,,,,,,,,,,,,,SPECI,1778.0
KBCK 111935Z AUTO 06007KT 10SM CLR 03/M03 A3005 RMK AO2 T00271026,KBCK,2020-12-11T19:35:00Z,44.25,-90.85,2.7,-2.6,60,7,,10.0,30.050198,,,TRUE,TRUE,,,,,,,CLR,,,,,,,,VFR,,,,,,,,,,,,SPECI,256.0
KBCB 111935Z AUTO 00000KT 10SM CLR 17/02 A3013 RMK AO2 T01740024,KBCB,2020-12-11T19:35:00Z,37.22,-80.42,17.4,2.4,0,0,,10.0,30.129921,,,TRUE,TRUE,,,,,,,CLR,,,,,,,,VFR,,,,,,,,,,,,SPECI,642.0
KBBP 111935Z AUTO 19004KT 10SM CLR 18/10 A3014 RMK AO2,KBBP,2020-12-11T19:35:00Z,34.62,-79.73,18.0,10.0,190,4,,10.0,30.138779,,,TRUE,TRUE,,,,,,,CLR,,,,,,,,VFR,,,,,,,,,,,,SPECI,44.0
KBBD 111935Z AUTO 21012KT 10SM SCT031 SCT039 BKN050 20/12 A2984 RMK AO2,KBBD,2020-12-11T19:35:00Z,31.18,-99.32,20.0,12.0,210,12,,10.0,29.840551,,,TRUE,TRUE,,,,,,,SCT,3100,SCT,3900,BKN,5000,,,VFR,,,,,,,,,,,,SPECI,554.0
KBBB 111935Z AUTO 09008KT 10SM OVC012 00/M03 A3012 RMK AO2,KBBB,2020-12-11T19:35:00Z,45.32,-95.65,0.0,-3.0,90,8,,10.0,30.121063,,,TRUE,TRUE,,,,,,,OVC,1200,,,,,,,MVFR,,,,,,,,,,,,SPECI,315.0
KBAX 111935Z AUTO 36007KT 10SM OVC012 05/04 A2999 RMK AO2 T00470035,KBAX,2020-12-11T19:35:00Z,43.78,-82.98,4.7,3.5,360,7,,10.0,29.991142,,,TRUE,TRUE,,,,,,,OVC,1200,,,,,,,MVFR,,,,,,,,,,,,METAR,229.0
KBAM 111935Z AUTO 21004KT 10SM CLR 02/M08 A3007 RMK AO1,KBAM,2020-12-11T19:35:00Z,,,2.0,-8.0,210,4,,10.0,30.070866,,,TRUE,TRUE,,,,,,,CLR,,,,,,,,VFR,,,,,,,,,,,,SPECI,
KBAC 111935Z AUTO 03004KT 3SM BR OVC003 M05/M05 A3016 RMK AO2,KBAC,2020-12-11T19:35:00Z,46.93,-98.02,-5.0,-5.0,30,4,,3.0,30.159449,,,TRUE,TRUE,,,,,,BR,OVC,300,,,,,,,LIFR,,,,,,,,,,,,METAR,423.0
KAZC 111935Z AUTO 29011KT 10SM CLR 10/M04 A3005 RMK AO2,KAZC,2020-12-11T19:35:00Z,36.97,-113.02,10.0,-4.0,290,11,,10.0,30.050198,,,TRUE,TRUE,,,,,,,CLR,,,,,,,,VFR,,,,,,,,,,,,SPECI,1476.0
KAYS 111935Z AUTO 25005KT 10SM CLR 21/03 A3013 RMK AO2 T02080027,KAYS,2020-12-11T19:35:00Z,31.25,-82.4,20.8,2.7,250,5,,10.0,30.129921,,,TRUE,TRUE,,,,,,,CLR,,,,,,,,VFR,,,,,,,,,,,,SPECI,42.0
KAXX 111935Z AUTO 26021G29KT 1 3/4SM HZ SCT016 BKN023 OVC041 M02/M07 A2979 RMK AO2 VIS 1 1/4V4 T10251071,KAXX,2020-12-11T19:35:00Z,36.42,-105.28,-2.5,-7.1,260,21,29,1.75,29.790354,,,TRUE,TRUE,,,,,,HZ,SCT,1600,BKN,2300,OVC,4100,,,IFR,,,,,,,,,,,,SPECI,2543.0
KAXV 111935Z AUTO 19007KT 10SM CLR 15/05 A2991 RMK AO2,KAXV,2020-12-11T19:35:00Z,40.5,-84.3,15.0,5.0,190,7,,10.0,29.911417,,,TRUE,TRUE,,,,,,,CLR,,,,,,,,VFR,,,,,,,,,,,,METAR,278.0
KAXS 111935Z AUTO 35004KT 10SM CLR 12/01 A2987 RMK AO2 T01200010,KAXS,2020-12-11T19:35:00Z,34.7,-99.33,12.0,1.0,350,4,,10.0,29.870079,,,TRUE,TRUE,,,,,,,CLR,,,,,,,,VFR,,,,,,,,,,,,METAR,433.0
KAXH 111935Z AUTO 16006KT 10SM SCT029 BKN043 OVC050 23/18 A2987 RMK AO2 T02340178,KAXH,2020-12-11T19:35:00Z,29.52,-95.48,23.4,17.8,160,6,,10.0,29.870079,,,TRUE,TRUE,,,,,,,SCT,2900,BKN,4300,OVC,5000,,,VFR,,,,,,,,,,,,SPECI,18.0
KAXA 111935Z AUTO 05019G25KT 10SM CLR 05/M00 A2992 RMK A01,KAXA,2020-12-11T19:35:00Z,43.07,-94.27,5.0,0.0,50,19,25,10.0,29.920275,,,TRUE,TRUE,,,,,,,CLR,,,,,,,,VFR,,,,,,,,,,,,METAR,371.0
KAWG 111935Z AUTO 06014G20KT 2SM BR FEW006 04/04 A2982 RMK AO2,KAWG,2020-12-11T19:35:00Z,41.27,-91.67,4.0,4.0,60,14,20,2.0,29.819881,,,TRUE,TRUE,,,,,,BR,FEW,600,,,,,,,IFR,,,,,,,,,,,,METAR,229.0
KAVQ 111935Z AUTO 24003KT 10SM CLR 16/08 A3007 RMK AO2 T01620075,KAVQ,2020-12-11T19:35:00Z,32.4,-111.22,16.2,7.5,240,3,,10.0,30.070866,,,TRUE,TRUE,,,,,,,CLR,,,,,,,,VFR,,,,,,,,,,,,SPECI,618.0
KAVK 111935Z AUTO 31011KT 10SM OVC027 06/M00 A2986 RMK AO2 PWINO TSNO,KAVK,2020-12-11T19:35:00Z,36.77,-98.67,6.0,0.0,310,11,,10.0,29.861221,,,TRUE,TRUE,,,TRUE,,TRUE,,OVC,2700,,,,,,,MVFR,,,,,,,,,,,,SPECI,450.0
KAVC 111935Z AUTO 17004KT 10SM CLR 18/08 A3020 RMK AO2 T01750080,KAVC,2020-12-11T19:35:00Z,36.68,-78.05,17.5,8.0,170,4,,10.0,30.200787,,,TRUE,TRUE,,,,,,,CLR,,,,,,,,VFR,,,,,,,,,,,,SPECI,119.0
KAUN 111935Z AUTO 14006KT 10SM FEW100 10/01 A3014 RMK A01,KAUN,2020-12-11T19:35:00Z,38.95,-121.08,10.0,1.0,140,6,,10.0,30.138779,,,TRUE,TRUE,,,,,,,FEW,10000,,,,,,,VFR,,,,,,,,,,,,SPECI,453.0
KAUM 111935Z AUTO 05013G20KT 10SM CLR 04/M02 A2997 RMK AO2,KAUM,2020-12-11T19:35:00Z,43.67,-92.92,4.0,-2.0,50,13,20,10.0,29.970472,,,TRUE,TRUE,,,,,,,CLR,,,,,,,,VFR,,,,,,,,,,,,SPECI,376.0
KAUH 111935Z AUTO 02015KT 2 1/2SM -SN OVC007 01/00 A2986 RMK AO2 T00051005,KAUH,2020-12-11T19:35:00Z,40.88,-98.0,0.5,-0.5,20,15,,2.5,29.861221,,,TRUE,TRUE,,,,,,-SN,OVC,700,,,,,,,IFR,,,,,,,,,,,,SPECI,549.0
KATS 111935Z AUTO 24017G24KT 10SM CLR 17/00 A2987 RMK AO2,KATS,2020-12-11T19:35:00Z,32.85,-104.47,17.0,0.0,240,17,24,10.0,29.870079,,,TRUE,TRUE,,,,,,,CLR,,,,,,,,VFR,,,,,,,,,,,,SPECI,1073.0
KATP 111935Z AUTO 13017KT 10SM FEW070 24/16 A2999 RMK A01,KATP,2020-12-11T19:35:00Z,27.2,-90.03,24.0,16.0,130,17,,10.0,29.991142,,,TRUE,TRUE,,,,,,,FEW,7000,,,,,,,VFR,,,,,,,,,,,,SPECI,50.0
KASN 111935Z AUTO 00000KT 10SM CLR 20/08 A3009 RMK AO2 T01960080,KASN,2020-12-11T19:35:00Z,33.57,-86.05,19.6,8.0,0,0,,10.0,30.088583,,,TRUE,TRUE,,,,,,,CLR,,,,,,,,VFR,,,,,,,,,,,,METAR,159.0
KASL 111935Z AUTO 00000KT 5SM SCT027 BKN037 OVC049 18/17 A2986 RMK AO1 P0002 T01830165,KASL,2020-12-11T19:35:00Z,32.52,-94.3,18.3,16.5,0,0,,5.0,29.861221,,,TRUE,TRUE,,,,,,,SCT,2700,BKN,3700,OVC,4900,,,MVFR,,,,,,0.02,,,,,,METAR,104.0
KASJ 111935Z AUTO 16007KT 10SM SCT034 BKN042 19/11 A3016 RMK AO2 T01850114,KASJ,2020-12-11T19:35:00Z,36.28,-77.17,18.5,11.4,160,7,,10.0,30.159449,,,TRUE,TRUE,,,,,,,SCT,3400,BKN,4200,,,,,VFR,,,,,,,,,,,,SPECI,20.0
KARW 111935Z AUTO 19004KT 10SM CLR 20/10 A3014 RMK AO2,KARW,2020-12-11T19:35:00Z,32.42,-80.63,20.0,10.0,190,4,,10.0,30.138779,,,TRUE,TRUE,,,,,,,CLR,,,,,,,,VFR,,,,,,,,,,,,SPECI,2.0
KARV 111935Z AUTO 03009KT 010V070 10SM OVC022 01/M04 A3009 RMK AO2 T00111040,KARV,2020-12-11T19:35:00Z,45.92,-89.72,1.1,-4.0,30,9,,10.0,30.088583,,,TRUE,TRUE,,,,,,,OVC,2200,,,,,,,MVFR,,,,,,,,,,,,SPECI,494.0
KARM 111935Z AUTO 15009G14KT 10SM BKN022 BKN034 OVC085 23/18 A2986 RMK AO2 T02270175,KARM,2020-12-11T19:35:00Z,29.25,-96.15,22.7,17.5,150,9,14,10.0,29.861221,,,TRUE,TRUE,,,,,,,BKN,2200,BKN,3400,OVC,8500,,,MVFR,,,,,,,,,,,,SPECI,29.0
KAQX 111935Z AUTO 21003KT 10SM CLR 20/07 A3013 RMK AO2 TSNO,KAQX,2020-12-11T19:35:00Z,32.98,-81.27,20.0,7.0,210,3,,10.0,30.129921,,,TRUE,TRUE,,,TRUE,,,,CLR,,,,,,,,VFR,,,,,,,,,,,,SPECI,48.0
KAQR 111935Z AUTO 00000KT A2981 RMK AO2 PWINO PNO,KAQR,2020-12-11T19:35:00Z,34.4,-96.15,,,0,0,,,29.811024,,,TRUE,TRUE,,,,,TRUE,,,,,,,,,,,,,,,,,,,,,,SPECI,178.0
KAQO 111935Z AUTO 20004KT 10SM SCT009 BKN013 19/16 A2985 RMK AO2,KAQO,2020-12-11T19:35:00Z,30.78,-98.67,19.0,16.0,200,4,,10.0,29.84941,,,TRUE,TRUE,,,,,,,SCT,900,BKN,1300,,,,,MVFR,,,,,,,,,,,,SPECI,334.0
KAPY 111935Z AUTO 35007KT 10SM CLR 27/13 A2986 RMK AO2 T02710131 TSNO,KAPY,2020-12-11T19:35:00Z,26.97,-99.25,27.1,13.1,350,7,,10.0,29.861221,,,TRUE,TRUE,,,TRUE,,,,CLR,,,,,,,,VFR,,,,,,,,,,,,METAR,129.0
KAPS 111935Z AUTO 18007KT 10SM BKN050 23/10 A3001 RMK AO2 T02300095,KAPS,2020-12-11T19:35:00Z,30.08,-90.58,23.0,9.5,180,7,,10.0,30.008858,,,TRUE,TRUE,,,,,,,BKN,5000,,,,,,,VFR,,,,,,,,,,,,METAR,1.0
KANW 111935Z AUTO 35013KT 10SM OVC011 M01/M05 A2998 RMK AO2 T10091047,KANW,2020-12-11T19:35:00Z,42.57,-100.0,-0.9,-4.7,350,13,,10.0,29.97933,,,TRUE,TRUE,,,,,,,OVC,1100,,,,,,,MVFR,,,,,,,,,,,,SPECI,788.0
KANQ 111935Z AUTO 00000KT 10SM CLR 12/04 A2988 RMK AO2,KANQ,2020-12-11T19:35:00Z,41.63,-85.08,12.0,4.0,0,0,,10.0,29.878937,,,TRUE,TRUE,,,,,,,CLR,,,,,,,,VFR,,,,,,,,,,,,SPECI,299.0
KANK 111935Z AUTO 00000KT 10SM BKN008 BKN011 00/M04 A2986 RMK AO1 T10031036,KANK,2020-12-11T19:35:00Z,38.53,-106.05,-0.3,-3.6,0,0,,10.0,29.861221,,,TRUE,TRUE,,,,,,,BKN,800,BKN,1100,,,,,IFR,,,,,,,,,,,,SPECI,2293.0
KALX 111935Z AUTO 20003KT 10SM CLR 19/11 A3009 RMK AO2 T01870106,KALX,2020-12-11T19:35:00Z,32.92,-85.97,18.7,10.6,200,3,,10.0,30.088583,,,TRUE,TRUE,,,,,,,CLR,,,,,,,,VFR,,,,,,,,,,,,METAR,198.0
KALM 111935Z AUTO 21008KT 030V030 10SM CLR 13/01 A3000 RMK AO2,KALM,2020-12-11T19:35:00Z,32.83,-105.98,13.0,1.0,210,8,,10.0,30.0,,,TRUE,TRUE,,,,,,,CLR,,,,,,,,VFR,,,,,,,,,,,,SPECI,1267.0
KAJZ 111935Z AUTO 00000KT 10SM SCT039 BKN050 OVC075 04/00 A2990 RMK AO2 T00360001,KAJZ,2020-12-11T19:35:00Z,38.78,-108.07,3.6,0.1,0,0,,10.0,29.899607,,,TRUE,TRUE,,,,,,,SCT,3900,BKN,5000,OVC,7500,,,VFR,,,,,,,,,,,,SPECI,1583.0
KAJR 111935Z AUTO 00000KT 5SM HZ CLR 18/04 A3011 RMK AO2 T01810036,KAJR,2020-12-11T19:35:00Z,34.5,-83.55,18.1,3.6,0,0,,5.0,30.109253,,,TRUE,TRUE,,,,,,HZ,CLR,,,,,,,,MVFR,,,,,,,,,,,,SPECI,441.0
KAJG 111935Z AUTO 20011KT 10SM CLR 17/08 A2988 RMK AO2 T01680079,KAJG,2020-12-11T19:35:00Z,38.62,-87.73,16.8,7.9,200,11,,10.0,29.878937,,,TRUE,TRUE,,,,,,,CLR,,,,,,,,VFR,,,,,,,,,,,,SPECI,130.0
KAIT 111935Z AUTO 03004KT 10SM OVC010 M01/M04 A3014 RMK AO2,KAIT,2020-12-11T19:35:00Z,46.53,-93.67,-1.0,-4.0,30,4,,10.0,30.138779,,,TRUE,TRUE,,,,,,,OVC,1000,,,,,,,MVFR,,,,,,,,,,,,SPECI,367.0
KAIO 111935Z AUTO 05015KT 9SM OVC012 03/03 A2980 RMK AO2,KAIO,2020-12-11T19:35:00Z,41.4,-95.03,3.0,3.0,50,15,,9.0,29.799213,,,TRUE,TRUE,,,,,,,OVC,1200,,,,,,,MVFR,,,,,,,,,,,,SPECI,349.0
KAIK 111935Z AUTO 18004KT 10SM CLR 20/06 A3014 RMK AO2 T01960064,KAIK,2020-12-11T19:35:00Z,33.65,-81.68,19.6,6.4,180,4,,10.0,30.138779,,,TRUE,TRUE,,,,,,,CLR,,,,,,,,VFR,,,,,,,,,,,,SPECI,155.0
KAIG 111935Z AUTO 04009KT 10SM CLR 00/M04 A3006 RMK AO2 T00011045,KAIG,2020-12-11T19:35:00Z,45.15,-89.12,0.1,-4.5,40,9,,10.0,30.059055,,,TRUE,TRUE,,,,,,,CLR,,,,,,,,VFR,,,,,,,,,,,,SPECI,462.0
KAHQ 111935Z AUTO 01014G18KT 10SM -SN OVC009 02/01 A2984 RMK AO2 T00170013,KAHQ,2020-12-11T19:35:00Z,41.23,-96.6,1.7,1.3,10,14,18,10.0,29.840551,,,TRUE,TRUE,,,,,,-SN,OVC,900,,,,,,,IFR,,,,,,,,,,,,SPECI,372.0
KAFP 111935Z AUTO 00000KT 10SM CLR 18/09 A3015 RMK AO2 T01750089,KAFP,2020-12-11T19:35:00Z,35.02,-80.08,17.5,8.9,0,0,,10.0,30.15059,,,TRUE,TRUE,,,,,,,CLR,,,,,,,,VFR,,,,,,,,,,,,SPECI,91.0
KAFO 111935Z AUTO 00000KT 7SM SCT025 BKN033 OVC044 M03/M07 A2990 RMK AO2,KAFO,2020-12-11T19:35:00Z,42.72,-110.95,-3.0,-7.0,0,0,,7.0,29.899607,,,TRUE,TRUE,,,,,,,SCT,2500,BKN,3300,OVC,4400,,,VFR,,,,,,,,,,,,SPECI,1881.0
KAFK 111935Z AUTO 03010KT 10SM OVC010 04/02 A2980 RMK AO2 T00350023,KAFK,2020-12-11T19:35:00Z,40.6,-95.85,3.5,2.3,30,10,,10.0,29.799213,,,TRUE,TRUE,,,,,,,OVC,1000,,,,,,,MVFR,,,,,,,,,,,,SPECI,353.0
KAEL 111935Z AUTO 05015G18KT 10SM CLR 03/M02 A2997 RMK AO2,KAEL,2020-12-11T19:35:00Z,43.68,-93.37,3.0,-2.0,50,15,18,10.0,29.970472,,,TRUE,TRUE,,,,,,,CLR,,,,,,,,VFR,,,,,,,,,,,,SPECI,382.0
KAEJ 111935Z AUTO 00000KT 1 3/4SM -SN SCT006 BKN011 OVC031 M03/M07 A2978 RMK AO2 VIS 1/2V5 T10301069,KAEJ,2020-12-11T19:35:00Z,38.82,-106.12,-3.0,-6.9,0,0,,1.75,29.778543,,,TRUE,TRUE,,,,,,-SN,SCT,600,BKN,1100,OVC,3100,,,IFR,,,,,,,,,,,,SPECI,2420.0
KADU 111935Z AUTO 04013G20KT 10SM -DZ OVC011 03/01 A2984 RMK AO2,KADU,2020-12-11T19:35:00Z,41.7,-94.92,3.0,1.0,40,13,20,10.0,29.840551,,,TRUE,TRUE,,,,,,-DZ,OVC,1100,,,,,,,MVFR,,,,,,,,,,,,METAR,391.0
KADT 111935Z AUTO 36017KT 10SM SCT015 SCT034 OVC043 01/M02 A2993 RMK AO2 T00051025,KADT,2020-12-11T19:35:00Z,39.83,-101.05,0.5,-2.5,360,17,,10.0,29.929134,,,TRUE,TRUE,,,,,,,SCT,1500,SCT,3400,OVC,4300,,,VFR,,,,,,,,,,,,METAR,899.0
KADH 111935Z AUTO 31005KT 10SM OVC022 09/05 A2982 RMK AO2,KADH,2020-12-11T19:35:00Z,34.8,-96.67,9.0,5.0,310,5,,10.0,29.819881,,,TRUE,TRUE,,,,,,,OVC,2200,,,,,,,MVFR,,,,,,,,,,,,SPECI,301.0
KACQ 111935Z AUTO 04014G21KT 10SM CLR 02/M01 A3003 RMK AO2,KACQ,2020-12-11T19:35:00Z,44.07,-93.55,2.0,-1.0,40,14,21,10.0,30.029528,,,TRUE,TRUE,,,,,,,CLR,,,,,,,,VFR,,,,,,,,,,,,SPECI,339.0
KACP 111935Z AUTO 16004KT 10SM BKN049 OVC065 22/13 A2995 RMK AO2,KACP,2020-12-11T19:35:00Z,30.75,-92.68,22.0,13.0,160,4,,10.0,29.949802,,,TRUE,TRUE,,,,,,,BKN,4900,OVC,6500,,,,,VFR,,,,,,,,,,,,METAR,31.0
KACB 111935Z AUTO 36004KT 10SM OVC018 04/00 A3006 RMK AO2 T00361005,KACB,2020-12-11T19:35:00Z,44.98,-85.2,3.6,-0.5,360,4,,10.0,30.059055,,,TRUE,TRUE,,,,,,,OVC,1800,,,,,,,MVFR,,,,,,,,,,,,METAR,189.0
KAAS 111935Z AUTO 22013G17KT 10SM CLR 18/03 A3004 RMK AO1,KAAS,2020-12-11T19:35:00Z,37.35,-85.32,18.0,3.0,220,13,17,10.0,30.041338,,,TRUE,TRUE,,,,,,,CLR,,,,,,,,VFR,,,,,,,,,,,,METAR,270.0
KAAA 111935Z AUTO 01004KT 10SM -RA OVC075 10/06 A2983 RMK AO2 T00960060,KAAA,2020-12-11T19:35:00Z,40.17,-89.33,9.6,6.0,10,4,,10.0,29.828741,,,TRUE,TRUE,,,,,,-RA,OVC,7500,,,,,,,VFR,,,,,,,,,,,,SPECI,179.0
KA39 111935Z AUTO 19005KT 10SM CLR 16/08 A3012 RMK AO2,KA39,2020-12-11T19:35:00Z,32.98,-111.92,16.0,8.0,190,5,,10.0,30.121063,,,TRUE,TRUE,,,,,,,CLR,,,,,,,,VFR,,,,,,,,,,,,SPECI,391.0
K9V9 111935Z AUTO 03009KT 10SM BKN014 00/M03 A3006 RMK AO2 T00021035,K9V9,2020-12-11T19:35:00Z,43.77,-99.32,0.2,-3.5,30,9,,10.0,30.059055,,,TRUE,TRUE,,,,,,,BKN,1400,,,,,,,MVFR,,,,,,,,,,,,SPECI,511.0
K9MN 111935Z AUTO 03008G18KT 360V060 10SM CLR 02/M03 A3000 RMK AO1 T00231031,K9MN,2020-12-11T19:35:00Z,44.02,-92.48,2.3,-3.1,30,8,18,10.0,30.0,,,TRUE,TRUE,,,,,,,CLR,,,,,,,,VFR,,,,,,,,,,,,METAR,308.0
K9D7 111935Z AUTO 21005KT 2SM BR OVC002 M06/M06 A3018 RMK AO2,K9D7,2020-12-11T19:35:00Z,48.48,-99.23,-6.0,-6.0,210,5,,2.0,30.180119,,,TRUE,TRUE,,,,,,BR,OVC,200,,,,,,,LIFR,,,,,,,,,,,,METAR,451.0
K9A5 111935Z AUTO 21004KT 10SM CLR 17/06 A3008 RMK AO2 T01720057,K9A5,2020-12-11T19:35:00Z,34.68,-85.28,17.2,5.7,210,4,,10.0,30.079725,,,TRUE,TRUE,,,,,,,CLR,,,,,,,,VFR,,,,,,,,,,,,SPECI,234.0
K8W2 111935Z AUTO 22006KT 10SM CLR 19/02 A3005 RMK AO1 T01860020,K8W2,2020-12-11T19:35:00Z,38.65,-78.7,18.6,2.0,220,6,,10.0,30.050198,,,TRUE,TRUE,,,,,,,CLR,,,,,,,,VFR,,,,,,,,,,,,SPECI,295.0
K8A3 111935Z AUTO 24008KT 200V260 10SM CLR 17/05 A3003 RMK A01,K8A3,2020-12-11T19:35:00Z,36.42,-85.32,17.0,5.0,240,8,,10.0,30.029528,,,TRUE,TRUE,,,,,,,CLR,,,,,,,,VFR,,,,,,,,,,,,SPECI,413.0
K8A0 111935Z AUTO 18007KT 10SM CLR 17/07 A3006 RMK AO2,K8A0,2020-12-11T19:35:00Z,34.23,-86.25,17.0,7.0,180,7,,10.0,30.059055,,,TRUE,TRUE,,,,,,,CLR,,,,,,,,VFR,,,,,,,,,,,,METAR,313.0
K82V 111935Z AUTO 06003KT 10SM SCT018 BKN035 OVC046 M03/M07 A2993 RMK AO2,K82V,2020-12-11T19:35:00Z,41.15,-104.13,-3.0,-7.0,60,3,,10.0,29.929134,,,TRUE,TRUE,,,,,,,SCT,1800,BKN,3500,OVC,4600,,,VFR,,,,,,,,,,,,SPECI,1563.0
K82C 111935Z AUTO 05007KT 10SM OVC110 02/M03 A3002 RMK AO2 T00181027,K82C,2020-12-11T19:35:00Z,43.83,-90.13,1.8,-2.7,50,7,,10.0,30.02067,,,TRUE,TRUE,,,,,,,OVC,11000,,,,,,,VFR,,,,,,,,,,,,METAR,273.0
K7W6 111935Z AUTO 15007KT 10SM SCT070 19/12 A3017 RMK AO2 T01870118,K7W6,2020-12-11T19:35:00Z,35.55,-75.95,18.7,11.8,150,7,,10.0,30.171259,,,TRUE,TRUE,,,,,,,SCT,7000,,,,,,,VFR,,,,,,,,,,,,SPECI,1.0
K7W4 111935Z AUTO 20007G18KT 10SM CLR 17/02 A3012 RMK AO1 T01680024,K7W4,2020-12-11T19:35:00Z,37.97,-77.75,16.8,2.4,200,7,18,10.0,30.121063,,,TRUE,TRUE,,,,,,,CLR,,,,,,,,VFR,,,,,,,,,,,,SPECI,115.0
K7S1 111935Z AUTO 00000KT 9SM -SN FEW039 BKN049 OVC060 M05/M07 A2994 RMK AO2,K7S1,2020-12-11T19:35:00Z,45.53,-112.3,-5.0,-7.0,0,0,,9.0,29.940945,,,TRUE,TRUE,,,,,,-SN,FEW,3900,BKN,4900,OVC,6000,,,VFR,,,,,,,,,,,,METAR,1456.0
K7L2 111935Z AUTO 05005KT 5SM BR OVC004 M06/M06 A3015 RMK AO2,K7L2,2020-12-11T19:35:00Z,46.22,-100.25,-6.0,-6.0,50,5,,5.0,30.15059,,,TRUE,TRUE,,,,,,BR,OVC,400,,,,,,,LIFR,,,,,,,,,,,,METAR,541.0
K7BM 111935Z AUTO 00000KT 1/2SM SN OVC003 A2976 RMK AO2,K7BM,2020-12-11T19:35:00Z,38.78,-106.22,,,0,0,,0.5,29.760826,,,TRUE,TRUE,,,,,,SN,OVC,300,,,,,,,LIFR,,,,,,,,,,,,SPECI,2996.0
K77S 111935Z AUTO 00000KT 10SM FEW041 BKN050 OVC060 07/05 A3009 RMK A01,K77S,2020-12-11T19:35:00Z,43.93,-123.0,7.0,5.0,0,0,,10.0,30.088583,,,TRUE,TRUE,,,,,,,FEW,4100,BKN,5000,OVC,6000,,,VFR,,,,,,,,,,,,SPECI,161.0
K74V 111935Z AUTO 11004KT 10SM CLR 02/M12 A2992 RMK AO2,K74V,2020-12-11T19:35:00Z,40.28,-110.05,2.0,-12.0,110,4,,10.0,29.920275,,,TRUE,TRUE,,,,,,,CLR,,,,,,,,VFR,,,,,,,,,,,,SPECI,1567.0
K6S5 111935Z AUTO 00000KT 10SM SCT055 BKN070 BKN085 M04/M07 A2998 RMK AO2,K6S5,2020-12-11T19:35:00Z,46.25,-114.13,-4.0,-7.0,0,0,,10.0,29.97933,,,TRUE,TRUE,,,,,,,SCT,5500,BKN,7000,BKN,8500,,,VFR,,,,,,,,,,,,METAR,1112.0
K6S2 111935Z AUTO 12004KT 10SM SCT031 BKN037 OVC050 07/05 A3007 RMK AO2 P0001 T00700052,K6S2,2020-12-11T19:35:00Z,43.98,-124.12,7.0,5.2,120,4,,10.0,30.070866,,,TRUE,TRUE,,,,,,,SCT,3100,BKN,3700,OVC,5000,,,VFR,,,,,,0.01,,,,,,SPECI,16.0
K6S0 111935Z AUTO 08005KT 10SM BKN015 M02/M05 A2994 RMK A01,K6S0,2020-12-11T19:35:00Z,45.8,-109.97,-2.0,-5.0,80,5,,10.0,29.940945,,,TRUE,TRUE,,,,,,,BKN,1500,,,,,,,MVFR,,,,,,,,,,,,METAR,1364.0
K6R3 111935Z AUTO 17004KT 5SM HZ SCT032 BKN070 21/18 A2988 RMK AO2 T02140175,K6R3,2020-12-11T19:35:00Z,30.35,-95.0,21.4,17.5,170,4,,5.0,29.878937,,,TRUE,TRUE,,,,,,HZ,SCT,3200,BKN,7000,,,,,MVFR,,,,,,,,,,,,METAR,44.0
K6P9 111935Z AUTO 33010KT 10SM SCT029 BKN036 BKN046 18/12 A2983 RMK AO2 T01760121,K6P9,2020-12-11T19:35:00Z,32.43,-98.6,17.6,12.1,330,10,,10.0,29.828741,,,TRUE,TRUE,,,,,,,SCT,2900,BKN,3600,BKN,4600,,,VFR,,,,,,,,,,,,METAR,451.0
K6L4 111935Z AUTO VRB04KT 10SM CLR 18/02 A3005 RMK AO2,K6L4,2020-12-11T19:35:00Z,37.85,-81.92,18.0,2.0,0,4,,10.0,30.050198,,,TRUE,TRUE,,,,,,,CLR,,,,,,,,VFR,,,,,,,,,,,,SPECI,504.0
K6B9 111935Z AUTO 20005KT 10SM CLR 11/03 A2997 RMK AO2,K6B9,2020-12-11T19:35:00Z,42.92,-76.43,11.0,3.0,200,5,,10.0,29.970472,,,TRUE,TRUE,,,,,,,CLR,,,,,,,,VFR,,,,,,,,,,,,METAR,306.0
K6B0 111935Z AUTO 19009KT 10SM CLR 07/00 A3001 RMK AO2 T00650001,K6B0,2020-12-11T19:35:00Z,43.98,-73.1,6.5,0.1,190,9,,10.0,30.008858,,,TRUE,TRUE,,,,,,,CLR,,,,,,,,VFR,,,,,,,,,,,,SPECI,149.0
K6A2 111935Z AUTO 19007KT 10SM CLR 18/02 A3011 RMK AO2,K6A2,2020-12-11T19:35:00Z,33.23,-84.27,18.0,2.0,190,7,,10.0,30.109253,,,TRUE,TRUE,,,,,,,CLR,,,,,,,,VFR,,,,,,,,,,,,METAR,290.0
K6A1 111935Z AUTO 17004KT 10SM CLR 20/03 A3012 RMK AO2 T02030032,K6A1,2020-12-11T19:35:00Z,32.57,-84.25,20.3,3.2,170,4,,10.0,30.121063,,,TRUE,TRUE,,,,,,,CLR,,,,,,,,VFR,,,,,,,,,,,,SPECI,198.0
K66R 111935Z AUTO 18003KT 4SM +RA SCT016 BKN028 OVC034 19/19 A2987 RMK AO2 P0011 T01910187,K66R,2020-12-11T19:35:00Z,29.65,-96.52,19.1,18.7,180,3,,4.0,29.870079,,,TRUE,TRUE,,,,,,+RA,SCT,1600,BKN,2800,OVC,3400,,,MVFR,,,,,,0.11,,,,,,SPECI,70.0
K65S 111935Z AUTO 00000KT 10SM OVC050 00/M03 A3003 RMK AO2,K65S,2020-12-11T19:35:00Z,48.73,-116.3,0.0,-3.0,0,0,,10.0,30.029528,,,TRUE,TRUE,,,,,,,OVC,5000,,,,,,,VFR,,,,,,,,,,,,SPECI,708.0
K5SM 111935Z AUTO 26006G14KT 190V290 7SM BKN003 BKN006 OVC041 M09/M11 A2984 RMK AO2,K5SM,2020-12-11T19:35:00Z,39.43,-107.38,-9.0,-11.0,260,6,14,7.0,29.840551,,,TRUE,TRUE,,,,,,,BKN,300,BKN,600,OVC,4100,,,LIFR,,,,,,,,,,,,SPECI,3229.0
K5R8 111935Z AUTO 15009KT 10SM BKN037 BKN046 OVC060 21/13 A2993 RMK AO2 T02090130,K5R8,2020-12-11T19:35:00Z,30.43,-93.47,20.9,13.0,150,9,,10.0,29.929134,,,TRUE,TRUE,,,,,,,BKN,3700,BKN,4600,OVC,6000,,,VFR,,,,,,,,,,,,METAR,26.0
K5M9 111935Z AUTO 19008G18KT 150V210 10SM OVC035 17/08 A2991 RMK AO2 T01700083,K5M9,2020-12-11T19:35:00Z,37.33,-88.12,17.0,8.3,190,8,18,10.0,29.911417,,,TRUE,TRUE,,,,,,,OVC,3500,,,,,,,VFR,,,,,,,,,,,,METAR,199.0
K5H4 111935Z AUTO 00000KT 1/4SM FZFG OVC003 M06/M06 A3017 RMK AO2,K5H4,2020-12-11T19:35:00Z,47.78,-99.93,-6.0,-6.0,0,0,,0.25,30.171259,,,TRUE,TRUE,,,,,,FZFG,OVC,300,,,,,,,LIFR,,,,,,,,,,,,SPECI,490.0
K5C1 111935Z AUTO 18004KT 10SM SCT019 20/15 A2987 RMK AO1,K5C1,2020-12-11T19:35:00Z,29.72,-98.7,20.0,15.0,180,4,,10.0,29.870079,,,TRUE,TRUE,,,,,,,SCT,1900,,,,,,,VFR,,,,,,,,,,,,SPECI,422.0
K57C 111935Z AUTO 04009KT 7SM -RA OVC010 02/02 A2997 RMK AO2 P0002 T00150015,K57C,2020-12-11T19:35:00Z,42.8,-88.37,1.5,1.5,40,9,,7.0,29.970472,,,TRUE,TRUE,,,,,,-RA,OVC,1000,,,,,,,MVFR,,,,,,0.02,,,,,,METAR,454.0
K54J 111935Z AUTO 00000KT 10SM SCT050 21/11 A3010 RMK AO2 T02140106,K54J,2020-12-11T19:35:00Z,30.73,-86.15,21.4,10.6,0,0,,10.0,30.100393,,,TRUE,TRUE,,,,,,,SCT,5000,,,,,,,VFR,,,,,,,,,,,,METAR,87.0
K4V0 111935Z AUTO 27003KT 10SM SCT090 03/M09 A2990 RMK AO2 T00281092,K4V0,2020-12-11T19:35:00Z,40.1,-108.77,2.8,-9.2,270,3,,10.0,29.899607,,,TRUE,TRUE,,,,,,,SCT,9000,,,,,,,VFR,,,,,,,,,,,,SPECI,1602.0
K4S2 111935Z AUTO 00000KT 4SM -DZ BKN003 OVC020 03/02 A3009 RMK AO2,K4S2,2020-12-11T19:35:00Z,45.68,-121.55,3.0,2.0,0,0,,4.0,30.088583,,,TRUE,TRUE,,,,,,-DZ,BKN,300,OVC,2000,,,,,LIFR,,,,,,,,,,,,SPECI,183.0
K4S1 111935Z AUTO 17009G18KT 5SM HZ CLR 09/04 A3012 RMK AO2,K4S1,2020-12-11T19:35:00Z,42.42,-124.42,9.0,4.0,170,9,18,5.0,30.121063,,,TRUE,TRUE,,,,,,HZ,CLR,,,,,,,,MVFR,,,,,,,,,,,,METAR,7.0
K4R5 111935Z AUTO 04006KT 10SM SCT022 OVC028 02/M03 A3016 RMK AO2 T00151027,K4R5,2020-12-11T19:35:00Z,46.78,-90.77,1.5,-2.7,40,6,,10.0,30.159449,,,TRUE,TRUE,,,,,,,SCT,2200,OVC,2800,,,,,MVFR,,,,,,,,,,,,SPECI,195.0
K4O4 111935Z AUTO 15006KT 5SM -RA BR OVC004 15/15 A2980 RMK AO2,K4O4,2020-12-11T19:35:00Z,33.92,-94.87,15.0,15.0,150,6,,5.0,29.799213,,,TRUE,TRUE,,,,,,-RA BR,OVC,400,,,,,,,LIFR,,,,,,,,,,,,SPECI,148.0
K4M9 111935Z AUTO 21010KT 10SM OVC033 16/13 A2986 RMK AO2 PWINO,K4M9,2020-12-11T19:35:00Z,36.4,-90.65,16.0,13.0,210,10,,10.0,29.861221,,,TRUE,TRUE,,,,,TRUE,,OVC,3300,,,,,,,VFR,,,,,,,,,,,,SPECI,86.0
K4I3 111935Z AUTO 19008KT 160V220 10SM CLR 16/05 A2998 RMK AO2,K4I3,2020-12-11T19:35:00Z,40.33,-82.53,16.0,5.0,190,8,,10.0,29.97933,,,TRUE,TRUE,,,,,,,CLR,,,,,,,,VFR,,,,,,,,,,,,SPECI,361.0
K4F2 111935Z AUTO 17011KT 10SM -RA SCT035 BKN070 OVC080 19/16 A2984 RMK AO2 T01950164,K4F2,2020-12-11T19:35:00Z,32.18,-94.3,19.5,16.4,170,11,,10.0,29.840551,,,TRUE,TRUE,,,,,,-RA,SCT,3500,BKN,7000,OVC,8000,,,VFR,,,,,,,,,,,,METAR,76.0
K4BM 111935Z AUTO 00000KT 3/4SM -SN OVC006 A2976 RMK AO2,K4BM,2020-12-11T19:35:00Z,39.05,-105.52,,,0,0,,0.75,29.760826,,,TRUE,TRUE,,,,,,-SN,OVC,600,,,,,,,LIFR,,,,,,,,,,,,SPECI,3432.0
K4A9 111935Z AUTO 21009KT 10SM CLR 18/06 A3007 RMK AO2 T01750065,K4A9,2020-12-11T19:35:00Z,34.47,-85.72,17.5,6.5,210,9,,10.0,30.070866,,,TRUE,TRUE,,,,,,,CLR,,,,,,,,VFR,,,,,,,,,,,,SPECI,273.0
K4A6 111935Z AUTO 25004KT 10SM CLR 17/09 A3007 RMK AO2,K4A6,2020-12-11T19:35:00Z,34.68,-86.0,17.0,9.0,250,4,,10.0,30.070866,,,TRUE,TRUE,,,,,,,CLR,,,,,,,,VFR,,,,,,,,,,,,SPECI,191.0
K49A 111935Z AUTO 18005KT 10SM CLR 18/03 A3012 RMK AO2 T01800030,K49A,2020-12-11T19:35:00Z,34.63,-84.53,18.0,3.0,180,5,,10.0,30.121063,,,TRUE,TRUE,,,,,,,CLR,,,,,,,,VFR,,,,,,,,,,,,SPECI,449.0
K48A 111935Z AUTO 23007KT 10SM CLR 20/04 A3012 RMK AO2 T02030037,K48A,2020-12-11T19:35:00Z,32.4,-83.27,20.3,3.7,230,7,,10.0,30.121063,,,TRUE,TRUE,,,,,,,CLR,,,,,,,,VFR,,,,,,,,,,,,SPECI,115.0
K46U 111935Z AUTO 00000KT 6SM BR FEW003 FEW019 BKN033 M04/M06 A2993 RMK A01,K46U,2020-12-11T19:35:00Z,43.18,-111.05,-4.0,-6.0,0,0,,6.0,29.929134,,,TRUE,TRUE,,,,,,BR,FEW,300,FEW,1900,BKN,3300,,,VFR,,,,,,,,,,,,SPECI,1718.0
K46D 111935Z AUTO VRB04KT 1 3/4SM BR OVC002 M05/M05 A3016 RMK AO2,K46D,2020-12-11T19:35:00Z,47.45,-99.15,-5.0,-5.0,0,4,,1.75,30.159449,,,TRUE,TRUE,,,,,,BR,OVC,200,,,,,,,LIFR,,,,,,,,,,,,METAR,488.0
K42J 111935Z AUTO 18006KT 10SM CLR 21/01 A3013 RMK A01 TSNO,K42J,2020-12-11T19:35:00Z,29.85,-82.05,21.0,1.0,180,6,,10.0,30.129921,,,TRUE,TRUE,,,TRUE,,,,CLR,,,,,,,,VFR,,,,,,,,,,,,SPECI,57.0
K41U 111935Z AUTO 28005KT 10SM SCT035 BKN040 OVC080 01/M08 A3002 RMK AO1 T00051076,K41U,2020-12-11T19:35:00Z,39.33,-111.6,0.5,-7.6,280,5,,10.0,30.02067,,,TRUE,TRUE,,,,,,,SCT,3500,BKN,4000,OVC,8000,,,VFR,,,,,,,,,,,,METAR,1676.0
K3T5 111935Z AUTO 00000KT 10SM BKN005 BKN011 OVC070 21/21 A2984 RMK AO2 T02070207,K3T5,2020-12-11T19:35:00Z,29.9,-96.95,20.7,20.7,0,0,,10.0,29.840551,,,TRUE,TRUE,,,,,,,BKN,500,BKN,1100,OVC,7000,,,IFR,,,,,,,,,,,,SPECI,96.0
K3S8 111935Z AUTO 00000KT 7SM OVC004 03/02 A3017 RMK AO2,K3S8,2020-12-11T19:35:00Z,42.5,-123.4,3.0,2.0,0,0,,7.0,30.171259,,,TRUE,TRUE,,,,,,,OVC,400,,,,,,,LIFR,,,,,,,,,,,,SPECI,339.0
K3R7 111935Z AUTO 17010G15KT 10SM BKN048 OVC065 23/13 A2995 RMK AO2 T02250132,K3R7,2020-12-11T19:35:00Z,30.25,-92.67,22.5,13.2,170,10,15,10.0,29.949802,,,TRUE,TRUE,,,,,,,BKN,4800,OVC,6500,,,,,VFR,,,,,,,,,,,,SPECI,5.0
K3N8 111935Z AUTO 03006KT 10SM OVC006 M03/M04 A3014 RMK AO2 T10301040,K3N8,2020-12-11T19:35:00Z,47.25,-95.92,-3.0,-4.0,30,6,,10.0,30.138779,,,TRUE,TRUE,,,,,,,OVC,600,,,,,,,IFR,,,,,,,,,,,,SPECI,379.0
K3LF 111935Z AUTO 16007KT 10SM SCT055 SCT075 BKN100 14/07 A2982 RMK AO2 T01350069,K3LF,2020-12-11T19:35:00Z,39.17,-89.67,13.5,6.9,160,7,,10.0,29.819881,,,TRUE,TRUE,,,,,,,SCT,5500,SCT,7500,BKN,10000,,,VFR,,,,,,,,,,,,SPECI,207.0
K3K8 111935Z AUTO 32010KT 10SM OVC020 03/M02 A2987 RMK AO2,K3K8,2020-12-11T19:35:00Z,37.22,-99.33,3.0,-2.0,320,10,,10.0,29.870079,,,TRUE,TRUE,,,,,,,OVC,2000,,,,,,,MVFR,,,,,,,,,,,,SPECI,640.0
K3K3 111935Z AUTO 33012KT 4SM -SN OVC019 00/M03 A2988 RMK AO2,K3K3,2020-12-11T19:35:00Z,38.0,-101.75,0.0,-3.0,330,12,,4.0,29.878937,,,TRUE,TRUE,,,,,,-SN,OVC,1900,,,,,,,MVFR,,,,,,,,,,,,SPECI,1010.0
K3J7 111935Z AUTO 16006KT 10SM CLR 20/06 A3012 RMK AO2,K3J7,2020-12-11T19:35:00Z,33.6,-83.13,20.0,6.0,160,6,,10.0,30.121063,,,TRUE,TRUE,,,,,,,CLR,,,,,,,,VFR,,,,,,,,,,,,SPECI,207.0
K3I2 111935Z AUTO 16005KT 10SM CLR 20/04 A3003 RMK AO2 T01950036,K3I2,2020-12-11T19:35:00Z,38.92,-82.1,19.5,3.6,160,5,,10.0,30.029528,,,TRUE,TRUE,,,,,,,CLR,,,,,,,,VFR,,,,,,,,,,,,SPECI,195.0
K3F3 111935Z AUTO 15010G18KT 10SM SCT075 20/15 A2990 RMK AO2 T01990150,K3F3,2020-12-11T19:35:00Z,32.07,-93.77,19.9,15.0,150,10,18,10.0,29.899607,,,TRUE,TRUE,,,,,,,SCT,7500,,,,,,,VFR,,,,,,,,,,,,SPECI,96.0
K3D2 111935Z AUTO 02011G20KT 10SM OVC021 01/M03 A3009 RMK AO2 T00091034,K3D2,2020-12-11T19:35:00Z,45.13,-87.18,0.9,-3.4,20,11,20,10.0,30.088583,,,TRUE,TRUE,,,,,,,OVC,2100,,,,,,,MVFR,,,,,,,,,,,,METAR,233.0
K3AU 111935Z AUTO 31008KT 10SM OVC017 04/00 A2980 RMK AO2,K3AU,2020-12-11T19:35:00Z,37.67,-97.08,4.0,0.0,310,8,,10.0,29.799213,,,TRUE,TRUE,,,,,,,OVC,1700,,,,,,,MVFR,,,,,,,,,,,,METAR,403.0
K33N 111935Z AUTO 22009G14KT 10SM CLR 15/05 A3012 RMK A01,K33N,2020-12-11T19:35:00Z,39.22,-75.6,15.0,5.0,220,9,14,10.0,30.121063,,,TRUE,TRUE,,,,,,,CLR,,,,,,,,VFR,,,,,,,,,,,,SPECI,17.0
K2W6 111935Z AUTO 20007G14KT 170V230 10SM CLR 15/06 A3014 RMK AO1,K2W6,2020-12-11T19:35:00Z,38.32,-76.55,15.0,6.0,200,7,14,10.0,30.138779,,,TRUE,TRUE,,,,,,,CLR,,,,,,,,VFR,,,,,,,,,,,,METAR,40.0
K2V5 111935Z AUTO 35010KT 10SM BKN011 OVC060 00/M03 A2991 RMK AO2,K2V5,2020-12-11T19:35:00Z,40.1,-102.25,0.0,-3.0,350,10,,10.0,29.911417,,,TRUE,TRUE,,,,,,,BKN,1100,OVC,6000,,,,,MVFR,,,,,,,,,,,,SPECI,1117.0
K2R9 111935Z AUTO 16006KT 10SM SCT026 24/17 A2984 RMK AO2 T02400172,K2R9,2020-12-11T19:35:00Z,28.82,-97.87,24.0,17.2,160,6,,10.0,29.840551,,,TRUE,TRUE,,,,,,,SCT,2600,,,,,,,VFR,,,,,,,,,,,,SPECI,88.0
K2P2 111935Z AUTO 02011G17KT 10SM OVC022 01/M03 A3010 RMK AO2 T00121030,K2P2,2020-12-11T19:35:00Z,45.38,-86.92,1.2,-3.0,20,11,17,10.0,30.100393,,,TRUE,TRUE,,,,,,,OVC,2200,,,,,,,MVFR,,,,,,,,,,,,SPECI,182.0
K2M2 111935Z AUTO 20007KT 10SM FEW042 16/10 A3002 RMK A01,K2M2,2020-12-11T19:35:00Z,35.23,-87.25,16.0,10.0,200,7,,10.0,30.02067,,,TRUE,TRUE,,,,,,,FEW,4200,,,,,,,VFR,,,,,,,,,,,,SPECI,286.0
K2LS 111935Z AUTO VRB04KT 9SM OVC060 22/12 A3003 RMK AO2 TSNO,K2LS,2020-12-11T19:35:00Z,29.42,-90.3,22.0,12.0,0,4,,9.0,30.029528,,,TRUE,TRUE,,,TRUE,,,,OVC,6000,,,,,,,VFR,,,,,,,,,,,,METAR,0.0
K2J9 111935Z AUTO VRB03KT 10SM CLR 22/09 A3012 RMK AO2,K2J9,2020-12-11T19:35:00Z,30.6,-84.55,22.0,9.0,0,3,,10.0,30.121063,,,TRUE,TRUE,,,,,,,CLR,,,,,,,,VFR,,,,,,,,,,,,SPECI,62.0
K2J3 111935Z AUTO 19004KT 10SM CLR 20/06 A3013 RMK AO2 T01990064,K2J3,2020-12-11T19:35:00Z,32.98,-82.38,19.9,6.4,190,4,,10.0,30.129921,,,TRUE,TRUE,,,,,,,CLR,,,,,,,,VFR,,,,,,,,,,,,SPECI,97.0
K2IS 111935Z AUTO 04010KT 10SM CLR 23/12 A3010 RMK AO2 T02270120,K2IS,2020-12-11T19:35:00Z,26.73,-81.05,22.7,12.0,40,10,,10.0,30.100393,,,TRUE,TRUE,,,,,,,CLR,,,,,,,,VFR,,,,,,,,,,,,SPECI,5.0
K2I0 111935Z AUTO 20009G17KT 10SM CLR 20/07 A2993 RMK AO2 T01980070,K2I0,2020-12-11T19:35:00Z,37.35,-87.4,19.8,7.0,200,9,17,10.0,29.929134,,,TRUE,TRUE,,,,,,,CLR,,,,,,,,VFR,,,,,,,,,,,,SPECI,127.0
K2G9 111935Z AUTO 24010KT 10SM CLR 14/00 A3004 RMK AO2,K2G9,2020-12-11T19:35:00Z,40.03,-79.02,14.0,0.0,240,10,,10.0,30.041338,,,TRUE,TRUE,,,,,,,CLR,,,,,,,,VFR,,,,,,,,,,,,SPECI,677.0
K2G4 111935Z AUTO 25007G14KT 10SM CLR 13/00 A3005 RMK AO1,K2G4,2020-12-11T19:35:00Z,39.58,-79.33,13.0,0.0,250,7,14,10.0,30.050198,,,TRUE,TRUE,,,,,,,CLR,,,,,,,,VFR,,,,,,,,,,,,SPECI,908.0
K2D5 111935Z AUTO 01007KT 7SM OVC004 M05/M05 A3015 RMK AO2,K2D5,2020-12-11T19:35:00Z,46.17,-98.08,-5.0,-5.0,10,7,,7.0,30.15059,,,TRUE,TRUE,,,,,,,OVC,400,,,,,,,LIFR,,,,,,,,,,,,METAR,407.0
K2C8 111935Z AUTO 00000KT 10SM OVC006 M04/M05 A3020 RMK AO2,K2C8,2020-12-11T19:35:00Z,48.78,-97.63,-4.0,-5.0,0,0,,10.0,30.200787,,,TRUE,TRUE,,,,,,,OVC,600,,,,,,,IFR,,,,,,,,,,,,METAR,271.0
K2A0 111935Z AUTO 25005KT 10SM CLR 17/07 A3006 RMK A01,K2A0,2020-12-11T19:35:00Z,35.48,-84.93,17.0,7.0,250,5,,10.0,30.059055,,,TRUE,TRUE,,,,,,,CLR,,,,,,,,VFR,,,,,,,,,,,,SPECI,219.0
K27K 111935Z AUTO 18011KT 10SM CLR 17/05 A3000 RMK AO1,K27K,2020-12-11T19:35:00Z,38.23,-84.43,17.0,5.0,180,11,,10.0,30.0,,,TRUE,TRUE,,,,,,,CLR,,,,,,,,VFR,,,,,,,,,,,,SPECI,283.0
K24J 111935Z AUTO VRB04KT 10SM FEW046 21/09 A3012 RMK A01,K24J,2020-12-11T19:35:00Z,30.3,-83.03,21.0,9.0,0,4,,10.0,30.121063,,,TRUE,TRUE,,,,,,,FEW,4600,,,,,,,VFR,,,,,,,,,,,,SPECI,30.0
K24A 111935Z AUTO 04003KT 10SM CLR 15/01 A3012 RMK AO2 T01510012,K24A,2020-12-11T19:35:00Z,35.32,-83.2,15.1,1.2,40,3,,10.0,30.121063,,,TRUE,TRUE,,,,,,,CLR,,,,,,,,VFR,,,,,,,,,,,,SPECI,864.0
K22N 111935Z AUTO 00000KT 10SM CLR 10/03 A3010 RMK AO2,K22N,2020-12-11T19:35:00Z,40.8,-75.77,10.0,3.0,0,0,,10.0,30.100393,,,TRUE,TRUE,,,,,,,CLR,,,,,,,,VFR,,,,,,,,,,,,SPECI,159.0
K20V 111935Z AUTO 00000KT 10SM SCT033 OVC039 M01/M05 A2982 RMK AO2,K20V,2020-12-11T19:35:00Z,40.05,-106.37,-1.0,-5.0,0,0,,10.0,29.819881,,,TRUE,TRUE,,,,,,,SCT,3300,OVC,3900,,,,,VFR,,,,,,,,,,,,METAR,2259.0
K20U 111935Z AUTO 00000KT 10SM -DZ CLR M02/M02 A3007 RMK AO2,K20U,2020-12-11T19:35:00Z,46.93,-103.98,-2.0,-2.0,0,0,,10.0,30.070866,,,TRUE,TRUE,,,,,,-DZ,CLR,,,,,,,,VFR,,,,,,,,,,,,SPECI,839.0
K1V6 111935Z AUTO 00000KT 7SM OVC009 M01/M02 A2985 RMK AO2,K1V6,2020-12-11T19:35:00Z,38.43,-105.1,-1.0,-2.0,0,0,,7.0,29.84941,,,TRUE,TRUE,,,,,,,OVC,900,,,,,,,IFR,,,,,,,,,,,,SPECI,1658.0
K1U7 111935Z AUTO 30010G16KT 10SM SCT050 BKN055 M01/M11 A2990 RMK A01,K1U7,2020-12-11T19:35:00Z,42.25,-111.33,-1.0,-11.0,300,10,16,10.0,29.899607,,,TRUE,TRUE,,,,,,,SCT,5000,BKN,5500,,,,,VFR,,,,,,,,,,,,METAR,1808.0
K1S5 111935Z AUTO 04003KT M1/4SM FZFG OVC001 M01/M01 A3009 RMK AO2 T10061007,K1S5,2020-12-11T19:35:00Z,46.33,-119.97,-0.6,-0.7,40,3,,0.25,30.088583,,,TRUE,TRUE,,,,,,FZFG,OVC,100,,,,,,,LIFR,,,,,,,,,,,,SPECI,228.0
K1R7 111935Z AUTO 17009G15KT 10SM OVC050 20/13 A3002 RMK AO2 PWINO,K1R7,2020-12-11T19:35:00Z,31.6,-90.42,20.0,13.0,170,9,15,10.0,30.02067,,,TRUE,TRUE,,,,,TRUE,,OVC,5000,,,,,,,VFR,,,,,,,,,,,,SPECI,142.0
K1P1 111935Z AUTO 00000KT 10SM CLR 06/M01 A3005 RMK AO2 T00551012,K1P1,2020-12-11T19:35:00Z,43.78,-71.75,5.5,-1.2,0,0,,10.0,30.050198,,,TRUE,TRUE,,,,,,,CLR,,,,,,,,VFR,,,,,,,,,,,,SPECI,155.0
K1M5 111935Z AUTO 17009KT 10SM CLR 17/08 A2999 RMK A01,K1M5,2020-12-11T19:35:00Z,36.6,-86.48,17.0,8.0,170,9,,10.0,29.991142,,,TRUE,TRUE,,,,,,,CLR,,,,,,,,VFR,,,,,,,,,,,,SPECI,239.0
K1K1 111935Z AUTO 31007KT 10SM OVC018 04/00 A2981 RMK AO2 T00361003,K1K1,2020-12-11T19:35:00Z,37.77,-97.12,3.6,-0.3,310,7,,10.0,29.811024,,,TRUE,TRUE,,,,,,,OVC,1800,,,,,,,MVFR,,,,,,,,,,,,SPECI,411.0
K1H2 111935Z AUTO 18005KT 10SM CLR 18/10 A2985 RMK AO2 T01750096,K1H2,2020-12-11T19:35:00Z,39.07,-88.53,17.5,9.6,180,5,,10.0,29.84941,,,TRUE,TRUE,,,,,,,CLR,,,,,,,,VFR,,,,,,,,,,,,SPECI,174.0
K1F0 111935Z AUTO 33006KT 10SM OVC021 11/08 A2982 RMK AO2 T01120076,K1F0,2020-12-11T19:35:00Z,34.15,-97.12,11.2,7.6,330,6,,10.0,29.819881,,,TRUE,TRUE,,,,,,,OVC,2100,,,,,,,MVFR,,,,,,,,,,,,SPECI,256.0
K1A9 111935Z AUTO 18004KT 10SM CLR 19/12 A3008 RMK AO2 T01870117,K1A9,2020-12-11T19:35:00Z,32.43,-86.52,18.7,11.7,180,4,,10.0,30.079725,,,TRUE,TRUE,,,,,,,CLR,,,,,,,,VFR,,,,,,,,,,,,SPECI,65.0
K1A6 111935Z AUTO 19005KT 10SM CLR 17/04 A3007 RMK AO2 T01670038,K1A6,2020-12-11T19:35:00Z,36.62,-83.73,16.7,3.8,190,5,,10.0,30.070866,,,TRUE,TRUE,,,,,,,CLR,,,,,,,,VFR,,,,,,,,,,,,SPECI,348.0
K1A5 111935Z AUTO 00000KT 10SM CLR 18/02 A3013 RMK AO2 T01750020,K1A5,2020-12-11T19:35:00Z,35.22,-83.42,17.5,2.0,0,0,,10.0,30.129921,,,TRUE,TRUE,,,,,,,CLR,,,,,,,,VFR,,,,,,,,,,,,METAR,611.0
K19S 111935Z AUTO 33014KT 10SM OVC018 01/M03 A2988 RMK AO2 T00101026,K19S,2020-12-11T19:35:00Z,37.48,-100.83,1.0,-2.6,330,14,,10.0,29.878937,,,TRUE,TRUE,,,,,,,OVC,1800,,,,,,,MVFR,,,,,,,,,,,,SPECI,886.0
K18A 111935Z AUTO 23004KT 10SM CLR 18/06 A3012 RMK AO2 T01820064,K18A,2020-12-11T19:35:00Z,34.35,-83.13,18.2,6.4,230,4,,10.0,30.121063,,,TRUE,TRUE,,,,,,,CLR,,,,,,,,VFR,,,,,,,,,,,,SPECI,260.0
K17J 111935Z AUTO 28003KT 10SM CLR 21/06 A3012 RMK AO2 T02070062,K17J,2020-12-11T19:35:00Z,31.0,-84.87,20.7,6.2,280,3,,10.0,30.121063,,,TRUE,TRUE,,,,,,,CLR,,,,,,,,VFR,,,,,,,,,,,,METAR,42.0
K14Y 111935Z AUTO 07005KT 10SM OVC006 M02/M03 A3012 RMK AO2,K14Y,2020-12-11T19:35:00Z,45.9,-94.87,-2.0,-3.0,70,5,,10.0,30.121063,,,TRUE,TRUE,,,,,,,OVC,600,,,,,,,IFR,,,,,,,,,,,,METAR,404.0
K13K 111935Z AUTO 31012KT 10SM SCT021 BKN090 BKN110 06/01 A2977 RMK AO2 T00640006,K13K,2020-12-11T19:35:00Z,37.85,-96.3,6.4,0.6,310,12,,10.0,29.769686,,,TRUE,TRUE,,,,,,,SCT,2100,BKN,9000,BKN,11000,,,VFR,,,,,,,,,,,,SPECI,367.0
K11R 111935Z AUTO 25003KT 10SM BKN009 BKN015 OVC026 20/20 A2987 RMK AO2 LTG DSNT E P0005 T02020195,K11R,2020-12-11T19:35:00Z,30.22,-96.37,20.2,19.5,250,3,,10.0,29.870079,,,TRUE,TRUE,,,,,,,BKN,900,BKN,1500,OVC,2600,,,IFR,,,,,,0.05,,,,,,METAR,87.0
K0V4 111935Z AUTO 20007KT 10SM CLR 18/05 A3013 RMK AO1 T01820051,K0V4,2020-12-11T19:35:00Z,37.15,-79.02,18.2,5.1,200,7,,10.0,30.129921,,,TRUE,TRUE,,,,,,,CLR,,,,,,,,VFR,,,,,,,,,,,,SPECI,186.0
K0S9 111935Z AUTO 00000KT 10SM OVC050 07/05 A3006 RMK AO2,K0S9,2020-12-11T19:35:00Z,48.05,-122.82,7.0,5.0,0,0,,10.0,30.059055,,,TRUE,TRUE,,,,,,,OVC,5000,,,,,,,VFR,,,,,,,,,,,,SPECI,33.0
K0R4 111935Z AUTO 17010KT 10SM SCT050 SCT060 22/13 A2996 RMK AO2 T02200129,K0R4,2020-12-11T19:35:00Z,31.57,-91.5,22.0,12.9,170,10,,10.0,29.958662,,,TRUE,TRUE,,,,,,,SCT,5000,SCT,6000,,,,,VFR,,,,,,,,,,,,SPECI,16.0
K0R0 111935Z AUTO 18005KT 10SM OVC050 22/13 A3004 RMK AO2,K0R0,2020-12-11T19:35:00Z,31.3,-89.82,22.0,13.0,180,5,,10.0,30.041338,,,TRUE,TRUE,,,,,,,OVC,5000,,,,,,,VFR,,,,,,,,,,,,SPECI,76.0
K0F2 111935Z AUTO 31008KT 10SM BKN014 BKN027 12/08 A2984 RMK AO2 T01220080,K0F2,2020-12-11T19:35:00Z,33.6,-97.78,12.2,8.0,310,8,,10.0,29.840551,,,TRUE,TRUE,,,,,,,BKN,1400,BKN,2700,,,,,MVFR,,,,,,,,,,,,SPECI,330.0
K0E0 111935Z AUTO 28022G27KT 10SM SCT050 BKN070 BKN075 06/M06 A2990 RMK AO2 T00621059,K0E0,2020-12-11T19:35:00Z,34.98,-106.0,6.2,-5.9,280,22,27,10.0,29.899607,,,TRUE,TRUE,,,,,,,SCT,5000,BKN,7000,BKN,7500,,,VFR,,,,,,,,,,,,SPECI,1887.0
K0CO 111935Z AUTO 01006KT M1/4SM +SN OVC002 M13/M23 A2972 RMK AO2 P0001,K0CO,2020-12-11T19:35:00Z,39.8,-105.77,-13.0,-23.0,10,6,,0.25,29.719488,,,TRUE,TRUE,,,,,,+SN,OVC,200,,,,,,,LIFR,,,,,,0.01,,,,,,SPECI,3804.0
K0A9 111935Z AUTO 00000KT 10SM CLR 18/01 A3007 RMK AO2,K0A9,2020-12-11T19:35:00Z,36.37,-82.17,18.0,1.0,0,0,,10.0,30.070866,,,TRUE,TRUE,,,,,,,CLR,,,,,,,,VFR,,,,,,,,,,,,SPECI,479.0
K0A0 111935Z AUTO 00000KT 10SM CLR 12/01 A2997 RMK AO2,K0A0,2020-12-11T19:35:00Z,32.98,-106.97,12.0,1.0,0,0,,10.0,29.970472,,,TRUE,TRUE,,,,,,,CLR,,,,,,,,VFR,,,,,,,,,,,,SPECI,1401.0
K08D 111935Z AUTO 32005KT M1/4SM FZFG OVC002 M06/M06 A3011 RMK AO2,K08D,2020-12-11T19:35:00Z,48.3,-102.4,-6.0,-6.0,320,5,,0.25,30.109253,,,TRUE,TRUE,,,,,,FZFG,OVC,200,,,,,,,LIFR,,,,,,,,,,,,SPECI,683.0
K06D 111935Z AUTO 23005KT 1/4SM FZFG OVC002 M06/M06 A3013 RMK AO2,K06D,2020-12-11T19:35:00Z,48.88,-99.62,-6.0,-6.0,230,5,,0.25,30.129921,,,TRUE,TRUE,,,,,,FZFG,OVC,200,,,,,,,LIFR,,,,,,,,,,,,METAR,554.0
K06C 111935Z AUTO 04012G17KT 10SM OVC013 06/03 A2992 RMK AO2 T00550030,K06C,2020-12-11T19:35:00Z,41.98,-88.1,5.5,3.0,40,12,17,10.0,29.920275,,,TRUE,TRUE,,,,,,,OVC,1300,,,,,,,MVFR,,,,,,,,,,,,METAR,243.0
K05U 111935Z AUTO 12005KT 10SM CLR 03/M16 A3006 RMK A01,K05U,2020-12-11T19:35:00Z,39.6,-116.0,3.0,-16.0,120,5,,10.0,30.059055,,,TRUE,TRUE,,,,,,,CLR,,,,,,,,VFR,,,,,,,,,,,,SPECI,1813.0
K04W 111935Z AUTO 02007KT 10SM OVC019 00/M03 A3013 RMK AO2,K04W,2020-12-11T19:35:00Z,46.02,-92.9,0.0,-3.0,20,7,,10.0,30.129921,,,TRUE,TRUE,,,,,,,OVC,1900,,,,,,,MVFR,,,,,,,,,,,,SPECI,310.0
K04V 111935Z AUTO 32020G26KT 10SM SCT060 00/M07 A2978 RMK AO2,K04V,2020-12-11T19:35:00Z,38.1,-106.17,0.0,-7.0,320,20,26,10.0,29.778543,,,TRUE,TRUE,,,,,,,SCT,6000,,,,,,,VFR,,,,,,,,,,,,SPECI,2389.0
K00U 111935Z AUTO 00000KT 10SM CLR M04/M05 A2998 RMK A01,K00U,2020-12-11T19:35:00Z,45.75,-107.67,-4.0,-5.0,0,0,,10.0,29.97933,,,TRUE,TRUE,,,,,,,CLR,,,,,,,,VFR,,,,,,,,,,,,METAR,922.0
ETOU 111935Z AUTO 10004KT 8000 BR SCT005 SCT014 03/03 A2937 RMK AO2 RAE17 SLP955 $,ETOU,2020-12-11T19:35:00Z,50.03,8.32,3.0,3.0,100,4,,4.97,29.371063,995.5,,TRUE,TRUE,TRUE,,,,,BR,SCT,500,SCT,1400,,,,,MVFR,,,,,,,,,,,,SPECI,141.0
CYPO 111935Z AUTO 33008KT 9SM BKN023 OVC110 M12/M15 A3030 RMK SLP267,CYPO,2020-12-11T19:35:00Z,54.98,-85.43,-12.0,-15.0,330,8,,9.0,30.301182,1026.7,,TRUE,,,,,,,,BKN,2300,OVC,11000,,,,,MVFR,,,,,,,,,,,,SPECI,49.0
CYDL 111935Z AUTO VRB02KT 2 1/2SM -SN BKN034 BKN046 OVC055 M10/M11 A2995 RMK SLP199,CYDL,2020-12-11T19:35:00Z,58.42,-130.02,-10.0,-11.0,0,2,,2.5,29.949802,1019.9,,TRUE,,,,,,,-SN,BKN,3400,BKN,4600,OVC,5500,,,IFR,,,,,,,,,,,,SPECI,804.0
YBCG 111934Z AUTO 23012KT 9999 RA SCT016 SCT049 SCT071 17/16 Q1019,YBCG,2020-12-11T19:34:00Z,-28.17,153.5,17.0,16.0,230,12,,6.21,30.088583,,,TRUE,,,,,,,RA,SCT,1600,SCT,4900,SCT,7100,,,VFR,,,,,,,,,,,,SPECI,5.0
PASK 111934Z AUTO 07006KT 8SM -SN BKN002 M34/M37 A3043 RMK AO2 SNB32 FZRANO,PASK,2020-12-11T19:34:00Z,66.6,-160.0,-34.0,-37.0,70,6,,8.0,30.431103,,,TRUE,TRUE,,,,TRUE,,-SN,BKN,200,,,,,,,LIFR,,,,,,,,,,,,SPECI,3.0
PAIM 111934Z AUTO 19007KT 10SM CLR M20/M23 A3020 RMK AO2 SLP284,PAIM,2020-12-11T19:34:00Z,66.0,-153.7,-20.0,-23.0,190,7,,10.0,30.200787,1028.4,,TRUE,TRUE,,,,,,,CLR,,,,,,,,VFR,,,,,,,,,,,,METAR,309.0
KUNO 111934Z AUTO VRB04KT 5SM -RA BR BKN007 OVC080 13/12 A2981 RMK AO2 CIG 006V010 P0004 T01330117,KUNO,2020-12-11T19:34:00Z,36.88,-91.9,13.3,11.7,0,4,,5.0,29.811024,,,TRUE,TRUE,,,,,,-RA BR,BKN,700,OVC,8000,,,,,IFR,,,,,,0.04,,,,,,METAR,376.0
KPWT 111934Z AUTO 22005KT 10SM BKN006 BKN050 04/04 A3007 RMK AO2 $,KPWT,2020-12-11T19:34:00Z,47.5,-122.77,4.0,4.0,220,5,,10.0,30.070866,,,TRUE,TRUE,TRUE,,,,,,BKN,600,BKN,5000,,,,,IFR,,,,,,,,,,,,SPECI,143.0
KMLC 111934Z AUTO 21007KT 9SM -RA FEW007 OVC012 14/13 A2979 RMK AO2 RAB07 P0001 T01440133,KMLC,2020-12-11T19:34:00Z,34.88,-95.78,14.4,13.3,210,7,,9.0,29.790354,,,TRUE,TRUE,,,,,,-RA,FEW,700,OVC,1200,,,,,MVFR,,,,,,0.01,,,,,,METAR,231.0
KLNR 111934Z AUTO 05009KT 2SM -SN BR BKN011 BKN016 OVC022 01/M01 A2999 RMK AO2 P0002 T00111006,KLNR,2020-12-11T19:34:00Z,43.22,-90.18,1.1,-0.6,50,9,,2.0,29.991142,,,TRUE,TRUE,,,,,,-SN BR,BKN,1100,BKN,1600,OVC,2200,,,IFR,,,,,,0.02,,,,,,METAR,218.0
KLHX 111934Z AUTO 02007KT 3SM -SN SCT010 OVC032 01/M02 A2988 RMK AO2 P0001 T00061022,KLHX,2020-12-11T19:34:00Z,38.05,-103.52,0.6,-2.2,20,7,,3.0,29.878937,,,TRUE,TRUE,,,,,,-SN,SCT,1000,OVC,3200,,,,,MVFR,,,,,,0.01,,,,,,SPECI,1289.0
KGUR 111934Z AUTO 11007KT 6SM BR OVC037 M03/M05 A3001 RMK AO2 SNE34 SLP201,KGUR,2020-12-11T19:34:00Z,42.25,-104.72,-3.0,-5.0,110,7,,6.0,30.008858,1020.1,,TRUE,TRUE,,,,,,BR,OVC,3700,,,,,,,VFR,,,,,,,,,,,,SPECI,1341.0
KEAR 111934Z AUTO 01019G24KT 10SM UP OVC010 00/M02 A2986 RMK AO2 P0000 FZRANO,KEAR,2020-12-11T19:34:00Z,40.72,-99.0,0.0,-2.0,10,19,24,10.0,29.861221,,,TRUE,TRUE,,,,TRUE,,UP,OVC,1000,,,,,,,MVFR,,,,,,0.005,,,,,,SPECI,649.0
KDVN 111934Z AUTO 06011KT 2 1/2SM RA BR OVC008 05/03 A2990 RMK AO2 CIG 006V012 P0004 T00500033,KDVN,2020-12-11T19:34:00Z,41.62,-90.58,5.0,3.3,60,11,,2.5,29.899607,,,TRUE,TRUE,,,,,,RA BR,OVC,800,,,,,,,IFR,,,,,,0.04,,,,,,METAR,227.0
KAUS 111934Z 00000KT 10SM FEW007 SCT110 21/18 A2982 RMK AO2 RAB1859E21 P0000 T02060183,KAUS,2020-12-11T19:34:00Z,30.18,-97.68,20.6,18.3,0,0,,10.0,29.819881,,,,TRUE,,,,,,,FEW,700,SCT,11000,,,,,VFR,,,,,,0.005,,,,,,METAR,148.0
K2V6 111934Z AUTO 33010KT 10SM OVC011 M02/M05 A2990 RMK AO2,K2V6,2020-12-11T19:34:00Z,40.1,-102.72,-2.0,-5.0,330,10,,10.0,29.899607,,,TRUE,TRUE,,,,,,,OVC,1100,,,,,,,MVFR,,,,,,,,,,,,SPECI,1257.0
ETNL 111934Z 11013KT 1800 BR OVC001 M01/M01 Q1000 RED,ETNL,2020-12-11T19:34:00Z,53.92,12.27,-1.0,-1.0,110,13,,1.12,29.52756,,,,,,,,,,BR,OVC,100,,,,,,,LIFR,,,,,,,,,,,,SPECI,40.0
EHGR 111934Z AUTO 13006KT 4100 BR SCT002 BKN004 OVC005 05/04 Q0989 AMB,EHGR,2020-12-11T19:34:00Z,51.55,4.93,5.0,4.0,130,6,,2.55,29.202755,,,TRUE,,,,,,,BR,SCT,200,BKN,400,OVC,500,,,LIFR,,,,,,,,,,,,SPECI,12.0
CYLA 111934Z 24013KT 13SM -SN FEW014 OVC048 M07/M10 A2967 RMK ST1SC7 SLP053,CYLA,2020-12-11T19:34:00Z,59.3,-69.58,-7.0,-10.0,240,13,,13.0,29.66929,1005.3,,,,,,,,,-SN,FEW,1400,OVC,4800,,,,,VFR,,,,,,,,,,,,SPECI,35.0
CYIN 111934Z AUTO 33006KT 5SM -SN M03/M04 A2994 RMK CLD MISG SLP184,CYIN,2020-12-11T19:34:00Z,51.27,-121.68,-3.0,-4.0,330,6,,5.0,29.940945,1018.4,,TRUE,,,,,,,-SN,,,,,,,,,,,,,,,,,,,,,SPECI,1127.0
PAGH 111933Z AUTO 00000KT 3SM HZ OVC002 M31/M34 A3041 RMK AO2 FZRANO,PAGH,2020-12-11T19:33:00Z,66.88,-157.17,-31.0,-34.0,0,0,,3.0,30.410433,,,TRUE,TRUE,,,,TRUE,,HZ,OVC,200,,,,,,,LIFR,,,,,,,,,,,,SPECI,56.0
PADM 111933Z AUTO 04033G39KT 2SM -SN CLR M17/M21 A2994 RMK AO2 PK WND 04039/1931 VIS 1V4 P0000 FZRANO,PADM,2020-12-11T19:33:00Z,61.87,-162.03,-17.0,-21.0,40,33,39,2.0,29.940945,,,TRUE,TRUE,,,,TRUE,,-SN,CLR,,,,,,,,IFR,,,,,,0.005,,,,,,SPECI,17.0
KXVG 111933Z AUTO 06003KT 10SM OVC005 M03/M04 A3014 RMK AO2,KXVG,2020-12-11T19:33:00Z,46.98,-94.2,-3.0,-4.0,60,3,,10.0,30.138779,,,TRUE,TRUE,,,,,,,OVC,500,,,,,,,IFR,,,,,,,,,,,,METAR,407.0
KRWL 111933Z AUTO 23005KT 2SM -SN SCT012 BKN019 OVC030 M03/M07 A2983 RMK AO2 P0000 T10331067,KRWL,2020-12-11T19:33:00Z,41.8,-107.2,-3.3,-6.7,230,5,,2.0,29.828741,,,TRUE,TRUE,,,,,,-SN,SCT,1200,BKN,1900,OVC,3000,,,IFR,,,,,,0.005,,,,,,SPECI,2066.0
KRSL 111933Z AUTO 35012KT 10SM OVC009 01/M02 A2983 RMK AO2 T00111017,KRSL,2020-12-11T19:33:00Z,38.87,-98.82,1.1,-1.7,350,12,,10.0,29.828741,,,TRUE,TRUE,,,,,,,OVC,900,,,,,,,IFR,,,,,,,,,,,,SPECI,569.0
KOWA 111933Z AUTO 03013G19KT 10SM CLR 03/M02 A3001 RMK AO2,KOWA,2020-12-11T19:33:00Z,44.12,-93.25,3.0,-2.0,30,13,19,10.0,30.008858,,,TRUE,TRUE,,,,,,,CLR,,,,,,,,VFR,,,,,,,,,,,,METAR,345.0
KORB 111933Z AUTO 00000KT 10SM OVC013 M03/M07 A3014 RMK AO2,KORB,2020-12-11T19:33:00Z,48.02,-92.87,-3.0,-7.0,0,0,,10.0,30.138779,,,TRUE,TRUE,,,,,,,OVC,1300,,,,,,,MVFR,,,,,,,,,,,,METAR,407.0
KMKC 111933Z 00000KT 10SM OVC009 07/04 A2973 RMK AO2 RAE1858 P0000 T00720044,KMKC,2020-12-11T19:33:00Z,39.12,-94.6,7.2,4.4,0,0,,10.0,29.731298,,,,TRUE,,,,,,,OVC,900,,,,,,,IFR,,,,,,0.005,,,,,,SPECI,228.0
KLAR 111933Z AUTO 16013KT 2SM -SN BR SCT025 OVC033 M07/M09 A2979 RMK AO2 P0000 T10671089 $,KLAR,2020-12-11T19:33:00Z,41.32,-105.67,-6.7,-8.9,160,13,,2.0,29.790354,,,TRUE,TRUE,TRUE,,,,,-SN BR,SCT,2500,OVC,3300,,,,,IFR,,,,,,0.005,,,,,,SPECI,2217.0
KIXD 111933Z 29008KT 10SM SCT016 BKN100 07/03 A2974 RMK AO2 T00670033,KIXD,2020-12-11T19:33:00Z,38.82,-94.88,6.7,3.3,290,8,,10.0,29.740158,,,,TRUE,,,,,,,SCT,1600,BKN,10000,,,,,VFR,,,,,,,,,,,,SPECI,322.0
KGGW 111933Z AUTO 10008KT 1/4SM FZFG OVC003 M04/M07 A3010 RMK AO2 T10441067,KGGW,2020-12-11T19:33:00Z,48.22,-106.62,-4.4,-6.7,100,8,,0.25,30.100393,,,TRUE,TRUE,,,,,,FZFG,OVC,300,,,,,,,LIFR,,,,,,,,,,,,SPECI,698.0
KFOZ 111933Z AUTO 35005KT 10SM OVC011 M03/M06 A3020 RMK AO2,KFOZ,2020-12-11T19:33:00Z,47.77,-93.65,-3.0,-6.0,350,5,,10.0,30.200787,,,TRUE,TRUE,,,,,,,OVC,1100,,,,,,,MVFR,,,,,,,,,,,,METAR,412.0
KETH 111933Z AUTO 33007KT 10SM OVC007 M03/M04 A3016 RMK AO2,KETH,2020-12-11T19:33:00Z,45.78,-96.55,-3.0,-4.0,330,7,,10.0,30.159449,,,TRUE,TRUE,,,,,,,OVC,700,,,,,,,IFR,,,,,,,,,,,,SPECI,309.0
KDVP 111933Z AUTO 03014G19KT 10SM SCT010 SCT120 01/M04 A3002 RMK AO2 T00061040,KDVP,2020-12-11T19:33:00Z,43.98,-95.78,0.6,-4.0,30,14,19,10.0,30.02067,,,TRUE,TRUE,,,,,,,SCT,1000,SCT,12000,,,,,VFR,,,,,,,,,,,,SPECI,493.0
KAQP 111933Z AUTO 02008KT 10SM M01/M04 A3011 RMK AO2,KAQP,2020-12-11T19:33:00Z,45.22,-96.0,-1.0,-4.0,20,8,,10.0,30.109253,,,TRUE,TRUE,,,,,,,,,,,,,,,,,,,,,,,,,,,SPECI,312.0
KAPA 111933Z 01007KT 1 3/4SM -SN BKN008 BKN015 OVC026 M04/M07 A2987 RMK AO2 P0000 T10391067,KAPA,2020-12-11T19:33:00Z,39.57,-104.85,-3.9,-6.7,10,7,,1.75,29.870079,,,,TRUE,,,,,,-SN,BKN,800,BKN,1500,OVC,2600,,,IFR,,,,,,0.005,,,,,,SPECI,1791.0
EHVL 111933Z AUTO 12016KT 3600 DZRA FEW005 SCT006 BKN007 04/03 Q0990 YLO,EHVL,2020-12-11T19:33:00Z,53.28,5.08,4.0,3.0,120,16,,2.24,29.232283,,,TRUE,,,,,,,DZ RA,FEW,500,SCT,600,BKN,700,,,IFR,,,,,,,,,,,,SPECI,2.0
CYXR 111933Z AUTO 34012KT 9SM SCT018 OVC034 M02/M05 A3008 RMK SLP203,CYXR,2020-12-11T19:33:00Z,47.7,-79.85,-2.0,-5.0,340,12,,9.0,30.079725,1020.3,,TRUE,,,,,,,,SCT,1800,OVC,3400,,,,,VFR,,,,,,,,,,,,SPECI,244.0
CYVT 111933Z AUTO 00000KT 9SM OVC023 M09/M11 A3023 RMK SLP270,CYVT,2020-12-11T19:33:00Z,55.83,-108.42,-9.0,-11.0,0,0,,9.0,30.230314,1027.0,,TRUE,,,,,,,,OVC,2300,,,,,,,MVFR,,,,,,,,,,,,SPECI,438.0
CYMH 111933Z AUTO 28004KT 9SM BKN010 OVC150 M01/M02 A2984 RMK SLP107,CYMH,2020-12-11T19:33:00Z,52.3,-55.82,-1.0,-2.0,280,4,,9.0,29.840551,1010.7,,TRUE,,,,,,,,BKN,1000,OVC,15000,,,,,MVFR,,,,,,,,,,,,SPECI,18.0
YLIS 111932Z AUTO 22012KT 9999 // SCT007 SCT026 OVC090 17/16 Q1021,YLIS,2020-12-11T19:32:00Z,-28.83,153.27,17.0,16.0,220,12,,6.21,30.147638,,,TRUE,,,,,,,,SCT,700,SCT,2600,OVC,9000,,,VFR,,,,,,,,,,,,SPECI,6.0
PADL 111932Z 01017KT 10SM BKN014 M09/M12 A2979 RMK AO2,PADL,2020-12-11T19:32:00Z,59.05,-158.5,-9.0,-12.0,10,17,,10.0,29.790354,,,,TRUE,,,,,,,BKN,1400,,,,,,,MVFR,,,,,,,,,,,,SPECI,20.0
PADK 111932Z AUTO 22007KT 10SM SCT023 02/00 A2912 RMK AO2 FZRANO,PADK,2020-12-11T19:32:00Z,51.88,-176.65,2.0,0.0,220,7,,10.0,29.120079,,,TRUE,TRUE,,,,TRUE,,,SCT,2300,,,,,,,VFR,,,,,,,,,,,,METAR,3.0
KMWL 111932Z AUTO 31010KT 10SM FEW018 SCT026 17/13 A2981 RMK AO2 T01720128,KMWL,2020-12-11T19:32:00Z,32.78,-98.07,17.2,12.8,310,10,,10.0,29.811024,,,TRUE,TRUE,,,,,,,FEW,1800,SCT,2600,,,,,VFR,,,,,,,,,,,,SPECI,288.0
KMSN 111932Z 05013G22KT 9SM -SN FEW016 BKN034 OVC043 02/00 A2999 RMK AO2 P0000 T00170000,KMSN,2020-12-11T19:32:00Z,43.13,-89.35,1.7,0.0,50,13,22,9.0,29.991142,,,,TRUE,,,,,,-SN,FEW,1600,BKN,3400,OVC,4300,,,VFR,,,,,,0.005,,,,,,SPECI,262.0
KMOT 111932Z 25003KT 3SM BR OVC002 M06/M08 A3014 RMK AO2 T10611078,KMOT,2020-12-11T19:32:00Z,48.25,-101.27,-6.1,-7.8,250,3,,3.0,30.138779,,,,TRUE,,,,,,BR,OVC,200,,,,,,,LIFR,,,,,,,,,,,,SPECI,507.0
KJEF 111932Z 00000KT 8SM BKN027 OVC075 11/08 A2977 RMK AO2 RAE25 P0001 T01060083,KJEF,2020-12-11T19:32:00Z,38.6,-92.15,10.6,8.3,0,0,,8.0,29.769686,,,,TRUE,,,,,,,BKN,2700,OVC,7500,,,,,MVFR,,,,,,0.01,,,,,,SPECI,167.0
KEVW 111932Z AUTO 25016KT 10SM FEW020 SCT048 M03/M09 A2989 RMK AO2 T10281094,KEVW,2020-12-11T19:32:00Z,41.27,-111.03,-2.8,-9.4,250,16,,10.0,29.890747,,,TRUE,TRUE,,,,,,,FEW,2000,SCT,4800,,,,,VFR,,,,,,,,,,,,SPECI,2178.0
EHEH 111932Z AUTO 13007KT 090V160 2700 R21/2600N -RA FEW003 SCT004 BKN006 04/04 Q0990 YLO TEMPO 2500 DZRA SCT003 BKN005 OVC008,EHEH,2020-12-11T19:32:00Z,51.45,5.38,4.0,4.0,130,7,,1.68,29.232283,,,TRUE,,,,,,,-RA,FEW,300,SCT,400,BKN,600,,,IFR,,,,,,,,,,,,SPECI,20.0
CYUS 111932Z AUTO 27010G18KT 250V310 ////SM //// BKN003 BKN007 OVC012 M31/M35 A2994,CYUS,2020-12-11T19:32:00Z,68.78,-93.42,-31.0,-35.0,270,10,18,,29.940945,,,TRUE,,,,,,,,BKN,300,BKN,700,OVC,1200,,,,,,,,,,,,,,,SPECI,30.0
CYQF 111932Z AUTO 15010KT 9SM OVC009 M07/M08 A3008 RMK SLP255,CYQF,2020-12-11T19:32:00Z,52.17,-113.9,-7.0,-8.0,150,10,,9.0,30.079725,1025.5,,TRUE,,,,,,,,OVC,900,,,,,,,IFR,,,,,,,,,,,,SPECI,912.0
CYMJ 111932Z 30006KT 4SM BR OVC005 M06/M07 A3016 RMK ST8 SLP250,CYMJ,2020-12-11T19:32:00Z,50.32,-105.55,-6.0,-7.0,300,6,,4.0,30.159449,1025.0,,,,,,,,,BR,OVC,500,,,,,,,IFR,,,,,,,,,,,,SPECI,578.0
YLHI 111931Z AUTO 10019G29KT 9999 // SCT025 BKN030 BKN037 19/16 Q1023,YLHI,2020-12-11T19:31:00Z,-31.53,159.07,19.0,16.0,100,19,29,6.21,30.206694,,,TRUE,,,,,,,,SCT,2500,BKN,3000,BKN,3700,,,MVFR,,,,,,,,,,,,SPECI,2.0
PATA 111931Z 00000KT 5SM HZ BKN010 M38/ A3033 RMK AO2 T1383,PATA,2020-12-11T19:31:00Z,65.17,-152.1,-38.3,,0,0,,5.0,30.33071,,,,TRUE,,,,,,HZ,BKN,1000,,,,,,,MVFR,,,,,,,,,,,,SPECI,62.0
LTCC 111931Z VRB02KT 4000 0400N R34/P1500U R16/0500D BCFG FEW008 SCT100 BKN200 03/03 Q1022 NOSIG RMK RWY16 15003KT 090V170,LTCC,2020-12-11T19:31:00Z,37.88,40.2,3.0,3.0,0,2,,2.49,30.177166,,,,,,TRUE,,,,BCFG,FEW,800,SCT,10000,BKN,20000,,,IFR,,,,,,,,,,,,SPECI,676.0
KSAT 111931Z 00000KT 10SM BKN015 BKN060 BKN110 22/17 A2985 RMK AO2 T02170167,KSAT,2020-12-11T19:31:00Z,29.53,-98.48,21.7,16.7,0,0,,10.0,29.84941,,,,TRUE,,,,,,,BKN,1500,BKN,6000,BKN,11000,,,MVFR,,,,,,,,,,,,SPECI,246.0
KMLP 111931Z AUTO VRB04KT 10SM OVC004 M05/M08 A2986 RMK AO2 CIG 001V009 T10501078,KMLP,2020-12-11T19:31:00Z,47.45,-115.67,-5.0,-7.8,0,4,,10.0,29.861221,,,TRUE,TRUE,,,,,,,OVC,400,,,,,,,LIFR,,,,,,,,,,,,METAR,1837.0
EHLW 111931Z AUTO 12009KT 070V150 6000 -RADZ FEW016 OVC020 04/02 Q0991 WHT,EHLW,2020-12-11T19:31:00Z,53.22,5.75,4.0,2.0,120,9,,3.73,29.26181,,,TRUE,,,,,,,-RA -DZ,FEW,1600,OVC,2000,,,,,MVFR,,,,,,,,,,,,SPECI,1.0
EGUN 111931Z AUTO 00000KT 8000 BR SCT008 OVC019 08/08 A2913 RMK AO2 CIG 018 RWY11 SLP868 FZRANO $,EGUN,2020-12-11T19:31:00Z,52.37,0.48,8.0,8.0,0,0,,4.97,29.128937,986.8,,TRUE,TRUE,TRUE,,,TRUE,,BR,SCT,800,OVC,1900,,,,,MVFR,,,,,,,,,,,,SPECI,10.0
CYEN 111931Z AUTO 30006KT 6SM BR OVC006 M04/M05 A3011 RMK SLP240,CYEN,2020-12-11T19:31:00Z,49.22,-102.97,-4.0,-5.0,300,6,,6.0,30.109253,1024.0,,TRUE,,,,,,,BR,OVC,600,,,,,,,IFR,,,,,,,,,,,,SPECI,580.0
CYBQ 111931Z AUTO 07005KT 020V080 3SM -SN BKN045 OVC055 M20/M23 A3030 RMK SLP302,CYBQ,2020-12-11T19:31:00Z,58.7,-98.5,-20.0,-23.0,70,5,,3.0,30.301182,1030.2,,TRUE,,,,,,,-SN,BKN,4500,OVC,5500,,,,,MVFR,,,,,,,,,,,,SPECI,272.0
CYBL 111931Z 01002KT 2SM -RA BR SCT004 OVC011 04/03 A3007 RMK SF3SC5 SLP188,CYBL,2020-12-11T19:31:00Z,49.95,-125.27,4.0,3.0,10,2,,2.0,30.070866,1018.8,,,,,,,,,-RA BR,SCT,400,OVC,1100,,,,,IFR,,,,,,,,,,,,SPECI,94.0
CWZZ 111931Z AUTO 29012KT ////SM FEW005 BKN014 OVC024 M09/M13 A2956,CWZZ,2020-12-11T19:31:00Z,58.47,-62.65,-9.0,-13.0,290,12,,,29.56004,,,TRUE,,,,,,,,FEW,500,BKN,1400,OVC,2400,,,,,,,,,,,,,,,SPECI,50.0
ZYTX 111930Z VRB01MPS CAVOK M14/M18 Q1022 NOSIG,ZYTX,2020-12-11T19:30:00Z,41.63,123.48,-14.0,-18.0,0,2,,6.21,30.177166,,,,,,TRUE,,,,,CAVOK,,,,,,,,VFR,,,,,,,,,,,,METAR,56.0
ZYTL 111930Z 27002MPS CAVOK M05/M08 Q1022 NOSIG,ZYTL,2020-12-11T19:30:00Z,38.97,121.55,-5.0,-8.0,270,4,,6.21,30.177166,,,,,,TRUE,,,,,CAVOK,,,,,,,,VFR,,,,,,,,,,,,METAR,33.0
ZWWW 111930Z VRB01MPS 3000 -SG BR SCT018 M14/M15 Q1035 NOSIG,ZWWW,2020-12-11T19:30:00Z,43.9,87.47,-14.0,-15.0,0,2,,1.86,30.561024,,,,,,TRUE,,,,-SG BR,SCT,1800,,,,,,,IFR,,,,,,,,,,,,METAR,654.0
ZSSS 111930Z 31003MPS 3000 BR NSC 07/04 Q1022 NOSIG,ZSSS,2020-12-11T19:30:00Z,31.2,121.33,7.0,4.0,310,6,,1.86,30.177166,,,,,,TRUE,,,,BR,CLR,,,,,,,,IFR,,,,,,,,,,,,METAR,2.0
ZSPD 111930Z 32004MPS 280V340 4000 BR SCT016 07/04 Q1021 NOSIG,ZSPD,2020-12-11T19:30:00Z,31.15,121.8,7.0,4.0,320,8,,2.49,30.147638,,,,,,TRUE,,,,BR,SCT,1600,,,,,,,IFR,,,,,,,,,,,,METAR,4.0
ZSHC 111930Z 35003MPS 310V010 3000 BR FEW011 BKN023 08/06 Q1022 NOSIG,ZSHC,2020-12-11T19:30:00Z,30.22,120.43,8.0,6.0,350,6,,1.86,30.177166,,,,,,TRUE,,,,BR,FEW,1100,BKN,2300,,,,,IFR,,,,,,,,,,,,METAR,8.0
ZMUB 111930Z 00000MPS 8000NW NSC M34/M38 Q1015 NOSIG RMK QFE654.0 64 NT,ZMUB,2020-12-11T19:30:00Z,47.83,106.75,-34.0,-38.0,0,0,,4.97,29.970472,,,,,,TRUE,,,,,CLR,,,,,,,,MVFR,,,,,,,,,,,,METAR,1300.0
ZGGG 111930Z 33004MPS 9999 BKN040 19/13 Q1016 NOSIG,ZGGG,2020-12-11T19:30:00Z,23.4,113.3,19.0,13.0,330,8,,6.21,30.0,,,,,,TRUE,,,,,BKN,4000,,,,,,,VFR,,,,,,,,,,,,METAR,11.0
ZBYN 111930Z VRB01MPS 7000 NSC M06/M11 Q1020 NOSIG,ZBYN,2020-12-11T19:30:00Z,37.73,112.63,-6.0,-11.0,0,2,,4.35,30.11811,,,,,,TRUE,,,,,CLR,,,,,,,,MVFR,,,,,,,,,,,,METAR,778.0
ZBTJ 111930Z VRB01MPS 0400 R16R/1400N R16L/0900D FZFG NSC M03/M04 Q1021 NOSIG,ZBTJ,2020-12-11T19:30:00Z,39.12,117.35,-3.0,-4.0,0,2,,0.25,30.147638,,,,,,TRUE,,,,FZFG,CLR,,,,,,,,LIFR,,,,,,,,,,,,SPECI,4.0
ZBAD 111930Z VRB01MPS 0100 R35R/0150N R35L/0150N R01L/0175N R11L/0200N FZFG VV000 M05/M06 Q1021 NOSIG,ZBAD,2020-12-11T19:30:00Z,39.5,116.42,-5.0,-6.0,0,2,,0.06,30.147638,,,,,,TRUE,,,,FZFG,OVX,0,,,,,,,LIFR,,,,,,,,,,,0,METAR,25.0
ZBAA 111930Z 36001MPS 8000 NSC M07/M08 Q1021 NOSIG,ZBAA,2020-12-11T19:30:00Z,40.07,116.6,-7.0,-8.0,360,2,,4.97,30.147638,,,,,,TRUE,,,,,CLR,,,,,,,,MVFR,,,,,,,,,,,,METAR,31.0
YWLM 111930Z AUTO 11011KT 9999 // OVC077 19/09 Q1027,YWLM,2020-12-11T19:30:00Z,-32.8,151.83,19.0,9.0,110,11,,6.21,30.324802,,,TRUE,,,,,,,,OVC,7700,,,,,,,VFR,,,,,,,,,,,,SPECI,7.0
YTEF 111930Z AUTO 28015KT 9999 // BKN013 BKN018 22/20 Q1003,YTEF,2020-12-11T19:30:00Z,-21.72,122.23,22.0,20.0,280,15,,6.21,29.616142,,,TRUE,,,,,,,,BKN,1300,BKN,1800,,,,,MVFR,,,,,,,,,,,,SPECI,298.0
YSTW 111930Z AUTO 20006KT 9999 // NCD 12/09 Q1025 RF00.0/000.8,YSTW,2020-12-11T19:30:00Z,-31.08,150.85,12.0,9.0,200,6,,6.21,30.265747,,,TRUE,,,,,,,,CLR,,,,,,,,VFR,,,,,,,,,,,,SPECI,404.0
YSSY 111930Z 07006KT 9999 FEW032 SCT054 BKN068 18/13 Q1028,YSSY,2020-12-11T19:30:00Z,-33.95,151.17,18.0,13.0,70,6,,6.21,30.35433,,,,,,,,,,,FEW,3200,SCT,5400,BKN,6800,,,VFR,,,,,,,,,,,,METAR,3.0
YSRI 111930Z AUTO 13010KT 9999 // SCT032 OVC049 16/12 Q1029,YSRI,2020-12-11T19:30:00Z,-33.6,150.77,16.0,12.0,130,10,,6.21,30.383858,,,TRUE,,,,,,,,SCT,3200,OVC,4900,,,,,VFR,,,,,,,,,,,,SPECI,19.0
YSNF 111930Z AUTO 11012KT 9999 // BKN014 BKN018 OVC025 20/18 Q1019,YSNF,2020-12-11T19:30:00Z,-29.03,167.93,20.0,18.0,110,12,,6.21,30.088583,,,TRUE,,,,,,,,BKN,1400,BKN,1800,OVC,2500,,,MVFR,,,,,,,,,,,,SPECI,113.0
YSDU 111930Z AUTO 11012KT 9999 // ////// 15/09 Q1025 RF00.0/000.0,YSDU,2020-12-11T19:30:00Z,-32.22,148.57,15.0,9.0,110,12,,6.21,30.265747,,,TRUE,,,,,,,,,,,,,,,,,,,,,,,,,,,,SPECI,285.0
YSCB 111930Z AUTO 14006KT 9999 // OVC044 10/05 Q1030,YSCB,2020-12-11T19:30:00Z,-35.3,149.18,10.0,5.0,140,6,,6.21,30.413385,,,TRUE,,,,,,,,OVC,4400,,,,,,,VFR,,,,,,,,,,,,SPECI,577.0
YPXM 111930Z AUTO 21004KT 7000 // OVC033 23/22 Q1009 RF00.0////./,YPXM,2020-12-11T19:30:00Z,-10.45,105.68,23.0,22.0,210,4,,4.35,29.793306,,,TRUE,,,,,,,,OVC,3300,,,,,,,MVFR,,,,,,,,,,,,SPECI,262.0
YPWR 111930Z AUTO 13010KT 9999 // NCD 24/M04 Q1014 RF00.0/000.0,YPWR,2020-12-11T19:30:00Z,-31.15,136.82,24.0,-4.0,130,10,,6.21,29.940945,,,TRUE,,,,,,,,CLR,,,,,,,,VFR,,,,,,,,,,,,METAR,169.0
YPPH 111930Z 00000KT CAVOK 19/16 Q1002,YPPH,2020-12-11T19:30:00Z,-31.93,115.98,19.0,16.0,0,0,,6.21,29.586615,,,,,,,,,,,CAVOK,,,,,,,,VFR,,,,,,,,,,,,METAR,16.0
YPPD 111930Z AUTO 24006KT //// // OVC022 OVC027 25/23 Q1003,YPPD,2020-12-11T19:30:00Z,-20.37,118.62,25.0,23.0,240,6,,,29.616142,,,TRUE,,,,,,,,OVC,2200,OVC,2700,,,,,,,,,,,,,,,,,SPECI,6.0
YPLM 111930Z AUTO 22009KT 9999 // NCD 23/20 Q1004 RF00.0/000.0,YPLM,2020-12-11T19:30:00Z,-22.23,114.08,23.0,20.0,220,9,,6.21,29.64567,,,TRUE,,,,,,,,CLR,,,,,,,,VFR,,,,,,,,,,,,SPECI,5.0
YPKU 111930Z AUTO 01004KT 9999 // NCD 27/27 Q1006 RF00.0/000.0,YPKU,2020-12-11T19:30:00Z,-15.77,128.7,27.0,27.0,10,4,,6.21,29.704725,,,TRUE,,,,,,,,CLR,,,,,,,,VFR,,,,,,,,,,,,SPECI,42.0
YPKG 111930Z AUTO 16007KT 9999 // OVC008 17/16 Q1003 RF00.0/000.0,YPKG,2020-12-11T19:30:00Z,-30.78,121.45,17.0,16.0,160,7,,6.21,29.616142,,,TRUE,,,,,,,,OVC,800,,,,,,,IFR,,,,,,,,,,,,SPECI,372.0
YPJT 111930Z AUTO 00000KT 9999 // NCD 19/17 Q1003 RF00.0/000.0,YPJT,2020-12-11T19:30:00Z,-32.1,115.88,19.0,17.0,0,0,,6.21,29.616142,,,TRUE,,,,,,,,CLR,,,,,,,,VFR,,,,,,,,,,,,METAR,29.0
YPGV 111930Z AUTO 35003KT 9999 // NCD 27/24 Q1008 RF00.0/000.0,YPGV,2020-12-11T19:30:00Z,-12.27,136.82,27.0,24.0,350,3,,6.21,29.763779,,,TRUE,,,,,,,,CLR,,,,,,,,VFR,,,,,,,,,,,,SPECI,53.0
YPEA 111930Z AUTO 24002KT 9999 // NCD 19/15 Q1002,YPEA,2020-12-11T19:30:00Z,-31.67,116.02,19.0,15.0,240,2,,6.21,29.586615,,,TRUE,,,,,,,,CLR,,,,,,,,VFR,,,,,,,,,,,,SPECI,38.0
YPDN 111930Z AUTO 13003KT 9999 // SCT023 BKN029 28/25 Q1008,YPDN,2020-12-11T19:30:00Z,-12.42,130.9,28.0,25.0,130,3,,6.21,29.763779,,,TRUE,,,,,,,,SCT,2300,BKN,2900,,,,,MVFR,,,,,,,,,,,,SPECI,32.0
YPCC 111930Z AUTO 15008KT 9999 // SCT047 OVC057 26/21 Q1009,YPCC,2020-12-11T19:30:00Z,-12.18,96.83,26.0,21.0,150,8,,6.21,29.793306,,,TRUE,,,,,,,,SCT,4700,OVC,5700,,,,,VFR,,,,,,,,,,,,SPECI,3.0
YPAD 111930Z 07015KT CAVOK 24/M01 Q1017,YPAD,2020-12-11T19:30:00Z,-34.95,138.52,24.0,-1.0,70,15,,6.21,30.029528,,,,,,,,,,,CAVOK,,,,,,,,VFR,,,,,,,,,,,,METAR,2.0
YMML 111930Z 03005KT CAVOK 10/08 Q1026,YMML,2020-12-11T19:30:00Z,-37.67,144.82,10.0,8.0,30,5,,6.21,30.295275,,,,,,,,,,,CAVOK,,,,,,,,VFR,,,,,,,,,,,,METAR,115.0
YMLT 111930Z AUTO 17003KT 9999 // NCD 08/07 Q1032 RF00.0/000.0,YMLT,2020-12-11T19:30:00Z,-41.53,147.2,8.0,7.0,170,3,,6.21,30.47244,,,TRUE,,,,,,,,CLR,,,,,,,,VFR,,,,,,,,,,,,SPECI,167.0
YMHB 111930Z 31007KT 9999 FEW012 BKN017 11/08 Q1033 RF00/0/000/0,YMHB,2020-12-11T19:30:00Z,-42.83,147.52,11.0,8.0,310,7,,6.21,30.501968,,,,,,,,,,,FEW,1200,BKN,1700,,,,,MVFR,,,,,,,,,,,,SPECI,2.0
YMAV 111930Z AUTO 00000KT 9999 // NCD 10/10 Q1026 RF00.0/000.0,YMAV,2020-12-11T19:30:00Z,-38.03,144.48,10.0,10.0,0,0,,6.21,30.295275,,,TRUE,,,,,,,,CLR,,,,,,,,VFR,,,,,,,,,,,,SPECI,11.0
YKRY 111930Z AUTO 14009KT 9999 // OVC013 16/14 Q1019,YKRY,2020-12-11T19:30:00Z,-26.57,151.83,16.0,14.0,140,9,,6.21,30.088583,,,TRUE,,,,,,,,OVC,1300,,,,,,,MVFR,,,,,,,,,,,,SPECI,435.0
YHID 111930Z AUTO 12005KT 9999 // NCD 27/24 Q1008 RF00.0/000.0,YHID,2020-12-11T19:30:00Z,-10.58,142.3,27.0,24.0,120,5,,6.21,29.763779,,,TRUE,,,,,,,,CLR,,,,,,,,VFR,,,,,,,,,,,,METAR,5.0
YGLA 111930Z AUTO 15008KT 9999 // BKN057 22/15 Q1014 RF00.0/000.0,YGLA,2020-12-11T19:30:00Z,-23.87,151.22,22.0,15.0,150,8,,6.21,29.940945,,,TRUE,,,,,,,,BKN,5700,,,,,,,VFR,,,,,,,,,,,,METAR,17.0
YGFN 111930Z AUTO 16007KT 120V230 1500 // SCT025 BKN031 OVC039 15/15 Q1023,YGFN,2020-12-11T19:30:00Z,-29.77,153.03,15.0,15.0,160,7,,0.93,30.206694,,,TRUE,,,,,,,,SCT,2500,BKN,3100,OVC,3900,,,LIFR,,,,,,,,,,,,SPECI,26.0
YGEL 111930Z AUTO 35005KT 9999 // NCD 20/19 Q1002 RF00.0/000.0,YGEL,2020-12-11T19:30:00Z,-28.8,114.7,20.0,19.0,350,5,,6.21,29.586615,,,TRUE,,,,,,,,CLR,,,,,,,,VFR,,,,,,,,,,,,METAR,32.0
YFRT 111930Z AUTO 05023KT 9999 // BKN011 OVC021 17/16 Q1003,YFRT,2020-12-11T19:30:00Z,-30.83,128.12,17.0,16.0,50,23,,6.21,29.616142,,,TRUE,,,,,,,,BKN,1100,OVC,2100,,,,,MVFR,,,,,,,,,,,,SPECI,159.0
YESP 111930Z AUTO 09010KT 9999 // OVC014 18/15 Q1006,YESP,2020-12-11T19:30:00Z,-33.68,121.82,18.0,15.0,90,10,,6.21,29.704725,,,TRUE,,,,,,,,OVC,1400,,,,,,,MVFR,,,,,,,,,,,,SPECI,143.0
YCIN 111930Z AUTO 33005KT 9999 -SHRA SCT023 BKN037 25/25 Q1004,YCIN,2020-12-11T19:30:00Z,-17.58,123.83,25.0,25.0,330,5,,6.21,29.64567,,,TRUE,,,,,,,-SHRA,SCT,2300,BKN,3700,,,,,VFR,,,,,,,,,,,,METAR,83.0
YCFS 111930Z AUTO 25006KT 3100 +RA SCT008 OVC013 15/15 Q1024,YCFS,2020-12-11T19:30:00Z,-30.32,153.12,15.0,15.0,250,6,,1.93,30.236221,,,TRUE,,,,,,,+RA,SCT,800,OVC,1300,,,,,IFR,,,,,,,,,,,,SPECI,2.0
YBWW 111930Z AUTO 16006KT 9999 // SCT032 15/13 Q1019 RF00.0/012.8,YBWW,2020-12-11T19:30:00Z,,,15.0,13.0,160,6,,6.21,30.088583,,,TRUE,,,,,,,,SCT,3200,,,,,,,VFR,,,,,,,,,,,,METAR,
YBTL 111930Z AUTO 17005KT 9999 // NCD 25/19 Q1012,YBTL,2020-12-11T19:30:00Z,-19.25,146.75,25.0,19.0,170,5,,6.21,29.88189,,,TRUE,,,,,,,,CLR,,,,,,,,VFR,,,,,,,,,,,,SPECI,4.0
YBRM 111930Z AUTO 27009KT 9999 // SCT100 BKN120 27/24 Q1004,YBRM,2020-12-11T19:30:00Z,-17.93,122.23,27.0,24.0,270,9,,6.21,29.64567,,,TRUE,,,,,,,,SCT,10000,BKN,12000,,,,,VFR,,,,,,,,,,,,SPECI,11.0
YBRK 111930Z AUTO 13004KT 9999 // NCD 21/15 Q1014 RF00.0/000.0,YBRK,2020-12-11T19:30:00Z,-23.37,150.47,21.0,15.0,130,4,,6.21,29.940945,,,TRUE,,,,,,,,CLR,,,,,,,,VFR,,,,,,,,,,,,SPECI,10.0
YBMA 111930Z AUTO 05004KT 9999 // NCD 23/19 Q1011 RF00.0/000.0,YBMA,2020-12-11T19:30:00Z,-20.67,139.48,23.0,19.0,50,4,,6.21,29.852362,,,TRUE,,,,,,,,CLR,,,,,,,,VFR,,,,,,,,,,,,SPECI,346.0
YBLN 111930Z AUTO 17005KT 9999 // NCD 19/16 Q1003 RF00.0/000.0,YBLN,2020-12-11T19:30:00Z,-33.68,115.4,19.0,16.0,170,5,,6.21,29.616142,,,TRUE,,,,,,,,CLR,,,,,,,,VFR,,,,,,,,,,,,METAR,17.0
YBHM 111930Z AUTO 12020KT 9999 // SCT029 25/20 Q1012 RF00.0/000.0,YBHM,2020-12-11T19:30:00Z,-20.35,148.95,25.0,20.0,120,20,,6.21,29.88189,,,TRUE,,,,,,,,SCT,2900,,,,,,,VFR,,,,,,,,,,,,SPECI,4.0
YBCS 111930Z AUTO 17007KT 9999 // SCT028 25/22 Q1010,YBCS,2020-12-11T19:30:00Z,-16.87,145.75,25.0,22.0,170,7,,6.21,29.822834,,,TRUE,,,,,,,,SCT,2800,,,,,,,VFR,,,,,,,,,,,,SPECI,2.0
YBBN 111930Z 20007KT 9999 -RA FEW010 OVC110 17/16 Q1019,YBBN,2020-12-11T19:30:00Z,-27.38,153.13,17.0,16.0,200,7,,6.21,30.088583,,,,,,,,,,-RA,FEW,1000,OVC,11000,,,,,VFR,,,,,,,,,,,,METAR,3.0
YBAS 111930Z AUTO 08005KT 040V160 9999 // OVC099 25/13 Q1011,YBAS,2020-12-11T19:30:00Z,-23.8,133.9,25.0,13.0,80,5,,6.21,29.852362,,,TRUE,,,,,,,,OVC,9900,,,,,,,VFR,,,,,,,,,,,,SPECI,549.0
YAMB 111930Z AUTO 14004KT 9999 RA OVC100 17/16 Q1019,YAMB,2020-12-11T19:30:00Z,-27.63,152.72,17.0,16.0,140,4,,6.21,30.088583,,,TRUE,,,,,,,RA,OVC,10000,,,,,,,VFR,,,,,,,,,,,,METAR,26.0
YABA 111930Z AUTO 07009KT 5000 // OVC006 18/17 Q1005,YABA,2020-12-11T19:30:00Z,-34.93,117.8,18.0,17.0,70,9,,3.11,29.675198,,,TRUE,,,,,,,,OVC,600,,,,,,,IFR,,,,,,,,,,,,SPECI,67.0
WSSS 111930Z VRB02KT 9999 FEW018 BKN300 27/24 Q1009 NOSIG,WSSS,2020-12-11T19:30:00Z,1.37,103.97,27.0,24.0,0,2,,6.21,29.793306,,,,,,TRUE,,,,,FEW,1800,BKN,30000,,,,,VFR,,,,,,,,,,,,METAR,17.0
WMKP 111930Z 35003KT 8000 FEW025 26/23 Q1009 NOSIG,WMKP,2020-12-11T19:30:00Z,5.28,100.27,26.0,23.0,350,3,,4.97,29.793306,,,,,,TRUE,,,,,FEW,2500,,,,,,,MVFR,,,,,,,,,,,,METAR,4.0
WMKK 111930Z VRB02KT 4000 BR FEW000 FEW017CB 25/24 Q1009 NOSIG,WMKK,2020-12-11T19:30:00Z,2.75,101.72,25.0,24.0,0,2,,2.49,29.793306,,,,,,TRUE,,,,BR,FEW,0,FEW,1700,,,,,IFR,,,,,,,,,,,,METAR,21.0
WIMM 111930Z 24004KT 7000 SCT017 25/24 Q1009 NOSIG,WIMM,2020-12-11T19:30:00Z,3.57,98.67,25.0,24.0,240,4,,4.35,29.793306,,,,,,TRUE,,,,,SCT,1700,,,,,,,MVFR,,,,,,,,,,,,METAR,27.0
WIII 111930Z 26009KT 8000 SCT020 25/22 Q1009 NOSIG,WIII,2020-12-11T19:30:00Z,-6.13,106.67,25.0,22.0,260,9,,4.97,29.793306,,,,,,TRUE,,,,,SCT,2000,,,,,,,MVFR,,,,,,,,,,,,METAR,9.0
WBSB 111930Z 22002KT 9999 -RA FEW003 FEW015CB BKN150 25/24 Q1009 NOSIG,WBSB,2020-12-11T19:30:00Z,4.93,114.92,25.0,24.0,220,2,,6.21,29.793306,,,,,,TRUE,,,,-RA,FEW,300,FEW,1500,BKN,15000,,,VFR,,,,,,,,,,,,METAR,15.0
WBKK 111930Z 11004KT 9999 FEW014 25/24 Q1008 NOSIG,WBKK,2020-12-11T19:30:00Z,5.93,116.05,25.0,24.0,110,4,,6.21,29.763779,,,,,,TRUE,,,,,FEW,1400,,,,,,,VFR,,,,,,,,,,,,METAR,9.0
WBGG 111930Z VRB02KT 7000 -RA SCT020 24/24 Q1009 NOSIG,WBGG,2020-12-11T19:30:00Z,1.48,110.35,24.0,24.0,0,2,,4.35,29.793306,,,,,,TRUE,,,,-RA,SCT,2000,,,,,,,MVFR,,,,,,,,,,,,METAR,26.0
WAOO 111930Z AUTO 06005KT 8000 VCTS FEW019 SCT080 BKN110 23/23 Q1008,WAOO,2020-12-11T19:30:00Z,-3.45,114.77,23.0,23.0,60,5,,4.97,29.763779,,,TRUE,,,,,,,VCTS,FEW,1900,SCT,8000,BKN,11000,,,MVFR,,,,,,,,,,,,METAR,23.0
WAMM 111930Z VRB02KT 9999 FEW021 24/23 Q1008 NOSIG,WAMM,2020-12-11T19:30:00Z,1.55,124.92,24.0,23.0,0,2,,6.21,29.763779,,,,,,TRUE,,,,,FEW,2100,,,,,,,VFR,,,,,,,,,,,,METAR,86.0
WADL 111930Z 29004KT 6000 FEW015CB BKN016 24/24 Q1008 RERA NOSIG RMK CB TO SE AND SW,WADL,2020-12-11T19:30:00Z,-8.75,116.28,24.0,24.0,290,4,,3.73,29.763779,,,,,,TRUE,,,,,FEW,1500,BKN,1600,,,,,MVFR,,,,,,,,,,,,SPECI,97.0
WADD 111930Z 32006KT 9999 SCT016 26/25 Q1007 RERA NOSIG,WADD,2020-12-11T19:30:00Z,-8.73,115.17,26.0,25.0,320,6,,6.21,29.734253,,,,,,TRUE,,,,,SCT,1600,,,,,,,VFR,,,,,,,,,,,,METAR,3.0
WAAA 111930Z 14001KT 8000 SCT019 25/24 Q1009 NOSIG,WAAA,2020-12-11T19:30:00Z,-5.07,119.55,25.0,24.0,140,1,,4.97,29.793306,,,,,,TRUE,,,,,SCT,1900,,,,,,,MVFR,,,,,,,,,,,,METAR,13.0
VYYY 111930Z 34004KT 6000 NSC 22/21 Q1011 NOSIG,VYYY,2020-12-11T19:30:00Z,16.9,96.13,22.0,21.0,340,4,,3.73,29.852362,,,,,,TRUE,,,,,CLR,,,,,,,,MVFR,,,,,,,,,,,,METAR,31.0
VVTS 111930Z VRB03KT 7000 FEW017 SCT050 27/25 Q1008 NOSIG,VVTS,2020-12-11T19:30:00Z,10.82,106.67,27.0,25.0,0,3,,4.35,29.763779,,,,,,TRUE,,,,,FEW,1700,SCT,5000,,,,,MVFR,,,,,,,,,,,,METAR,10.0
VVPB 111930Z 27003KT 3500 -RA BR BKN010 BKN035 21/21 Q1013 NOSIG,VVPB,2020-12-11T19:30:00Z,16.38,107.7,21.0,21.0,270,3,,2.17,29.911417,,,,,,TRUE,,,,-RA BR,BKN,1000,BKN,3500,,,,,IFR,,,,,,,,,,,,METAR,15.0
VVNB 111930Z 10006KT 4700 BR BKN044 20/17 Q1014 NOSIG,VVNB,2020-12-11T19:30:00Z,21.22,105.8,20.0,17.0,100,6,,2.92,29.940945,,,,,,TRUE,,,,BR,BKN,4400,,,,,,,IFR,,,,,,,,,,,,METAR,6.0
VVDN 111930Z 33001KT 8000 FEW015 BKN060 22/21 Q1013 NOSIG,VVDN,2020-12-11T19:30:00Z,16.03,108.2,22.0,21.0,330,1,,4.97,29.911417,,,,,,TRUE,,,,,FEW,1500,BKN,6000,,,,,MVFR,,,,,,,,,,,,METAR,7.0
VVCT 111930Z 19002KT 8000 FEW013 26/26 Q1009 NOSIG,VVCT,2020-12-11T19:30:00Z,10.08,105.72,26.0,26.0,190,2,,4.97,29.793306,,,,,,TRUE,,,,,FEW,1300,,,,,,,MVFR,,,,,,,,,,,,METAR,6.0
VVCR 111930Z 06006KT 9999 FEW015 25/22 Q1011 NOSIG,VVCR,2020-12-11T19:30:00Z,12.0,109.22,25.0,22.0,60,6,,6.21,29.852362,,,,,,TRUE,,,,,FEW,1500,,,,,,,VFR,,,,,,,,,,,,METAR,12.0
VVCI 111930Z 06006KT 9000 FEW030 OVC037 21/18 Q1014 NOSIG,VVCI,2020-12-11T19:30:00Z,20.82,106.73,21.0,18.0,60,6,,5.59,29.940945,,,,,,TRUE,,,,,FEW,3000,OVC,3700,,,,,VFR,,,,,,,,,,,,METAR,6.0
VTSS 111930Z 00000KT 8000 FEW020 SCT100 25/25 Q1009 NOSIG,VTSS,2020-12-11T19:30:00Z,6.92,100.38,25.0,25.0,0,0,,4.97,29.793306,,,,,,TRUE,,,,,FEW,2000,SCT,10000,,,,,MVFR,,,,,,,,,,,,METAR,28.0
VTSP 111930Z 08002KT 9999 FEW020 24/21 Q1009 NOSIG,VTSP,2020-12-11T19:30:00Z,8.12,98.32,24.0,21.0,80,2,,6.21,29.793306,,,,,,TRUE,,,,,FEW,2000,,,,,,,VFR,,,,,,,,,,,,METAR,12.0
VTCC 111930Z VRB02KT 9000 NSC 15/13 Q1013 NOSIG,VTCC,2020-12-11T19:30:00Z,18.77,98.97,15.0,13.0,0,2,,5.59,29.911417,,,,,,TRUE,,,,,CLR,,,,,,,,VFR,,,,,,,,,,,,METAR,308.0
VTBU 111930Z 35005KT 5000 BR FEW025 25/22 Q1009 NOSIG,VTBU,2020-12-11T19:30:00Z,12.68,101.0,25.0,22.0,350,5,,3.11,29.793306,,,,,,TRUE,,,,BR,FEW,2500,,,,,,,MVFR,,,,,,,,,,,,METAR,12.0
VTBS 111930Z VRB01KT 9000 FEW030 26/19 Q1010 NOSIG,VTBS,2020-12-11T19:30:00Z,13.68,100.75,26.0,19.0,0,1,,5.59,29.822834,,,,,,TRUE,,,,,FEW,3000,,,,,,,VFR,,,,,,,,,,,,METAR,1.0
VTBD 111930Z 35004KT 9000 FEW030 26/20 Q1010 NOSIG,VTBD,2020-12-11T19:30:00Z,13.92,100.6,26.0,20.0,350,4,,5.59,29.822834,,,,,,TRUE,,,,,FEW,3000,,,,,,,VFR,,,,,,,,,,,,METAR,6.0
VOVZ 111930Z VRB02KT 3500 BR NSC 20/19 Q1014 NOSIG,VOVZ,2020-12-11T19:30:00Z,17.72,83.22,20.0,19.0,0,2,,2.17,29.940945,,,,,,TRUE,,,,BR,CLR,,,,,,,,IFR,,,,,,,,,,,,METAR,4.0
VOTV 111930Z 00000KT 3000 BR SCT012 FEW025CB BKN080 28/23 Q1011 NOSIG,VOTV,2020-12-11T19:30:00Z,8.48,76.92,28.0,23.0,0,0,,1.86,29.852362,,,,,,TRUE,,,,BR,SCT,1200,FEW,2500,BKN,8000,,,IFR,,,,,,,,,,,,METAR,9.0
VOMM 111930Z 00000KT 4000 BR FEW020 23/22 Q1013 NOSIG,VOMM,2020-12-11T19:30:00Z,13.0,80.17,23.0,22.0,0,0,,2.49,29.911417,,,,,,TRUE,,,,BR,FEW,2000,,,,,,,IFR,,,,,,,,,,,,METAR,7.0
VOML 111930Z 00000KT 6000 FEW015 FEW025CB BKN080 26/24 Q1011 NOSIG,VOML,2020-12-11T19:30:00Z,12.97,74.88,26.0,24.0,0,0,,3.73,29.852362,,,,,,TRUE,,,,,FEW,1500,FEW,2500,BKN,8000,,,MVFR,,,,,,,,,,,,METAR,100.0
VOKN 111930Z VRB01KT 4000 BR FEW008 SCT012 FEW025CB 25/24 Q1011 TEMPO 3000 BR,VOKN,2020-12-11T19:30:00Z,11.92,75.55,25.0,24.0,0,1,,2.49,29.852362,,,,,,,,,,BR,FEW,800,SCT,1200,FEW,2500,,,IFR,,,,,,,,,,,,METAR,105.0
VOHS 111930Z 15004KT 5000 BR FEW015 SCT100 18/17 Q1016 NOSIG,VOHS,2020-12-11T19:30:00Z,17.23,78.43,18.0,17.0,150,4,,3.11,30.0,,,,,,TRUE,,,,BR,FEW,1500,SCT,10000,,,,,MVFR,,,,,,,,,,,,METAR,607.0
VOGO 111930Z 07005KT 6000 FEW020 BKN090 26/24 Q1011 NOSIG,VOGO,2020-12-11T19:30:00Z,15.38,73.83,26.0,24.0,70,5,,3.73,29.852362,,,,,,TRUE,,,,,FEW,2000,BKN,9000,,,,,MVFR,,,,,,,,,,,,METAR,56.0
VOCL 111930Z 00000KT 4000 HZ SCT012 FEW025CB BKN080 27/23 Q1011 NOSIG,VOCL,2020-12-11T19:30:00Z,11.13,75.95,27.0,23.0,0,0,,2.49,29.852362,,,,,,TRUE,,,,HZ,SCT,1200,FEW,2500,BKN,8000,,,IFR,,,,,,,,,,,,METAR,104.0
VOCI 111930Z 00000KT 4000 BR FEW015 26/24 Q1011 NOSIG,VOCI,2020-12-11T19:30:00Z,10.15,76.4,26.0,24.0,0,0,,2.49,29.852362,,,,,,TRUE,,,,BR,FEW,1500,,,,,,,IFR,,,,,,,,,,,,METAR,8.0
VOBL 111930Z VRB02KT 6000 NSC 16/16 Q1018 NOSIG,VOBL,2020-12-11T19:30:00Z,13.2,77.7,16.0,16.0,0,2,,3.73,30.059055,,,,,,TRUE,,,,,CLR,,,,,,,,MVFR,,,,,,,,,,,,METAR,908.0
VMMC 111930Z 01005KT 9000 FEW020 SCT045 19/17 Q1015 NOSIG,VMMC,2020-12-11T19:30:00Z,22.15,113.58,19.0,17.0,10,5,,5.59,29.970472,,,,,,TRUE,,,,,FEW,2000,SCT,4500,,,,,VFR,,,,,,,,,,,,METAR,1.0
VILK 111930Z VRB02KT 0600 R27/1500 FG VV/// 17/15 Q1014 NOSIG,VILK,2020-12-11T19:30:00Z,26.75,80.88,17.0,15.0,0,2,,0.37,29.940945,,,,,,TRUE,,,,FG,OVX,0,,,,,,,LIFR,,,,,,,,,,,,SPECI,121.0
VIJP 111930Z VRB02KT 2500 HZ SCT030 SCT100 19/16 Q1014 NOSIG,VIJP,2020-12-11T19:30:00Z,26.82,75.8,19.0,16.0,0,2,,1.55,29.940945,,,,,,TRUE,,,,HZ,SCT,3000,SCT,10000,,,,,IFR,,,,,,,,,,,,METAR,383.0
VIDP 111930Z 15004KT 1800 R28/P2000 R29/P2000 BR SCT040 BKN100 16/14 Q1013 NOSIG,VIDP,2020-12-11T19:30:00Z,28.57,77.12,16.0,14.0,150,4,,1.12,29.911417,,,,,,TRUE,,,,BR,SCT,4000,BKN,10000,,,,,IFR,,,,,,,,,,,,SPECI,236.0
VIAR 111930Z 28010KT 2500 -TSRA SCT035 FEW040CB OVC100 12/12 Q1014 NOSIG,VIAR,2020-12-11T19:30:00Z,31.7,74.8,12.0,12.0,280,10,,1.55,29.940945,,,,,,TRUE,,,,-TSRA,SCT,3500,FEW,4000,OVC,10000,,,IFR,,,,,,,,,,,,METAR,226.0
VHHH 111930Z 29003KT 6000 FEW023 SCT045 21/17 Q1015 NOSIG,VHHH,2020-12-11T19:30:00Z,22.32,113.92,21.0,17.0,290,3,,3.73,29.970472,,,,,,TRUE,,,,,FEW,2300,SCT,4500,,,,,MVFR,,,,,,,,,,,,METAR,9.0
VGHS 111930Z 00000KT 2500 BR NSC 19/16 Q1013 NOSIG,VGHS,2020-12-11T19:30:00Z,23.85,90.4,19.0,16.0,0,0,,1.55,29.911417,,,,,,TRUE,,,,BR,CLR,,,,,,,,IFR,,,,,,,,,,,,METAR,11.0
VECC 111930Z 00000KT 1500 BR NSC 15/14 Q1013 NOSIG,VECC,2020-12-11T19:30:00Z,22.65,88.43,15.0,14.0,0,0,,0.93,29.911417,,,,,,TRUE,,,,BR,CLR,,,,,,,,LIFR,,,,,,,,,,,,METAR,11.0
VDSR 111930Z 00000KT 9000 SCT015 24/24 Q1008,VDSR,2020-12-11T19:30:00Z,13.42,103.8,24.0,24.0,0,0,,5.59,29.763779,,,,,,,,,,,SCT,1500,,,,,,,VFR,,,,,,,,,,,,METAR,16.0
VDPP 111930Z 36002KT 9000 FEW017 SCT040 27/23 Q1008,VDPP,2020-12-11T19:30:00Z,11.55,104.83,27.0,23.0,360,2,,5.59,29.763779,,,,,,,,,,,FEW,1700,SCT,4000,,,,,VFR,,,,,,,,,,,,METAR,10.0
VABB 111930Z 35005KT 2500 HZ FEW020 SCT100 26/22 Q1012 NOSIG,VABB,2020-12-11T19:30:00Z,19.1,72.87,26.0,22.0,350,5,,1.55,29.88189,,,,,,TRUE,,,,HZ,FEW,2000,SCT,10000,,,,,IFR,,,,,,,,,,,,METAR,14.0
VAAH 111930Z 15003KT 3500 BR FEW020 SCT080 20/19 Q1013 TEMPO 3000 BR,VAAH,2020-12-11T19:30:00Z,23.07,72.63,20.0,19.0,150,3,,2.17,29.911417,,,,,,,,,,BR,FEW,2000,SCT,8000,,,,,IFR,,,,,,,,,,,,METAR,52.0
UWWW 111930Z 10001MPS 5000 BR SCT006 M18/M19 Q1041 R15/CLRD60 NOSIG RMK QFE769/1025,UWWW,2020-12-11T19:30:00Z,53.5,50.17,-18.0,-19.0,100,2,,3.11,30.73819,,,,,,TRUE,,,,BR,SCT,600,,,,,,,MVFR,,,,,,,,,,,,SPECI,124.0
UWUU 111930Z 00000MPS 4500 BR NSC M21/M23 Q1043 R32L/0///60 NOSIG,UWUU,2020-12-11T19:30:00Z,54.57,55.87,-21.0,-23.0,0,0,,2.8,30.797245,,,,,,TRUE,,,,BR,CLR,,,,,,,,IFR,,,,,,,,,,,,SPECI,137.0
UWSG 111930Z 09002MPS 2800 -SN BR OVC009 M14/M16 Q1039 R08/410167 NOSIG RMK QFE777/1036,UWSG,2020-12-11T19:30:00Z,51.72,46.17,-14.0,-16.0,90,4,,1.74,30.679134,,,,,,TRUE,,,,-SN BR,OVC,900,,,,,,,IFR,,,,,,,,,,,,METAR,31.0
UWOO 111930Z 09001MPS 9000 NSC M19/M21 Q1043 R08/850350 NOSIG RMK QFE772/1029,UWOO,2020-12-11T19:30:00Z,51.8,55.47,-19.0,-21.0,90,2,,5.59,30.797245,,,,,,TRUE,,,,,CLR,,,,,,,,VFR,,,,,,,,,,,,METAR,90.0
UWKS 111930Z 16003MPS CAVOK M18/M19 Q1038 R24/910455 NOSIG RMK QFE764,UWKS,2020-12-11T19:30:00Z,56.08,47.35,-18.0,-19.0,160,6,,6.21,30.649607,,,,,,TRUE,,,,,CAVOK,,,,,,,,VFR,,,,,,,,,,,,METAR,165.0
UWKE 111930Z 23004MPS CAVOK M15/M17 Q1040 R21/310070 NOSIG RMK QFE763/1018,UWKE,2020-12-11T19:30:00Z,55.57,52.08,-15.0,-17.0,230,8,,6.21,30.708662,,,,,,TRUE,,,,,CAVOK,,,,,,,,VFR,,,,,,,,,,,,SPECI,193.0
UWKD 111930Z 14003MPS 9000 NSC M18/M20 Q1040 R11/810050 NOSIG RMK QFE770/1026,UWKD,2020-12-11T19:30:00Z,55.62,49.28,-18.0,-20.0,140,6,,5.59,30.708662,,,,,,TRUE,,,,,CLR,,,,,,,,VFR,,,,,,,,,,,,SPECI,114.0
UWGG 111930Z 14002MPS CAVOK M13/M16 Q1035 R18L/090060 NOSIG,UWGG,2020-12-11T19:30:00Z,56.23,43.78,-13.0,-16.0,140,4,,6.21,30.561024,,,,,,TRUE,,,,,CAVOK,,,,,,,,VFR,,,,,,,,,,,,METAR,73.0
UUYY 111930Z 21003MPS CAVOK M09/M14 Q1032 R18/61D NOSIG RMK QFE765/1021,UUYY,2020-12-11T19:30:00Z,61.65,50.83,-9.0,-14.0,210,6,,6.21,30.47244,,,,,,TRUE,,,,,CAVOK,,,,,,,,VFR,,,,,,,,,,,,METAR,107.0
UUWW 111930Z 13003MPS CAVOK M09/M13 Q1031 R06/290050 NOSIG,UUWW,2020-12-11T19:30:00Z,55.6,37.27,-9.0,-13.0,130,6,,6.21,30.442913,,,,,,TRUE,,,,,CAVOK,,,,,,,,VFR,,,,,,,,,,,,SPECI,195.0
UUOO 111930Z 11004MPS CAVOK M10/M14 Q1031 R12/190055 NOSIG RMK QFE759,UUOO,2020-12-11T19:30:00Z,51.82,39.23,-10.0,-14.0,110,8,,6.21,30.442913,,,,,,TRUE,,,,,CAVOK,,,,,,,,VFR,,,,,,,,,,,,SPECI,154.0
UUOL 111930Z 11004MPS CAVOK M12/M15 Q1032 R15/090055 NOSIG,UUOL,2020-12-11T19:30:00Z,52.7,39.53,-12.0,-15.0,110,8,,6.21,30.47244,,,,,,TRUE,,,,,CAVOK,,,,,,,,VFR,,,,,,,,,,,,METAR,176.0
UUOK 111930Z 12005MPS CAVOK M07/M12 Q1027 R12/090060 NOSIG RMK QFE752/1003,UUOK,2020-12-11T19:30:00Z,51.75,36.28,-7.0,-12.0,120,10,,6.21,30.324802,,,,,,TRUE,,,,,CAVOK,,,,,,,,VFR,,,,,,,,,,,,METAR,203.0
UUOB 111930Z 08006MPS CAVOK M07/M11 Q1026 R11/810255 NOSIG,UUOB,2020-12-11T19:30:00Z,50.65,36.58,-7.0,-11.0,80,12,,6.21,30.295275,,,,,,TRUE,,,,,CAVOK,,,,,,,,VFR,,,,,,,,,,,,METAR,218.0
UUEE 111930Z 12003MPS CAVOK M10/M13 Q1030 R06R/290051 R06L/290051 NOSIG,UUEE,2020-12-11T19:30:00Z,55.97,37.42,-10.0,-13.0,120,6,,6.21,30.413385,,,,,,TRUE,,,,,CAVOK,,,,,,,,VFR,,,,,,,,,,,,SPECI,186.0
UUDL 111930Z 15002MPS CAVOK M14/M16 Q1033 R23/010060 NOSIG RMK QFE766,UUDL,2020-12-11T19:30:00Z,57.57,40.17,-14.0,-16.0,150,4,,6.21,30.501968,,,,,,TRUE,,,,,CAVOK,,,,,,,,VFR,,,,,,,,,,,,METAR,88.0
UUDD 111930Z 14003MPS CAVOK M11/M14 Q1031 R14R/CLRD60 NOSIG,UUDD,2020-12-11T19:30:00Z,55.4,37.9,-11.0,-14.0,140,6,,6.21,30.442913,,,,,,TRUE,,,,,CAVOK,,,,,,,,VFR,,,,,,,,,,,,METAR,165.0
UUBW 111930Z 10003MPS CAVOK M12/M14 Q1032 R30/010060 NOSIG,UUBW,2020-12-11T19:30:00Z,55.55,38.15,-12.0,-14.0,100,6,,6.21,30.47244,,,,,,TRUE,,,,,CAVOK,,,,,,,,VFR,,,,,,,,,,,,METAR,111.0
UTTT 111930Z 13004KT 090V160 0150 R08L/0550N FZFG VV001 M01/M01 Q1027 R08L/CLRD70 NOSIG RMK BASE160,UTTT,2020-12-11T19:30:00Z,41.27,69.27,-1.0,-1.0,130,4,,0.09,30.324802,,,,,,TRUE,,,,FZFG,OVX,0,,,,,,,LIFR,,,,,,,,,,,100,SPECI,429.0
UTST 111930Z 04004KT 9000 OVC025 04/M00 Q1027 R88/CLRD70 NOSIG,UTST,2020-12-11T19:30:00Z,37.28,67.32,4.0,0.0,40,4,,5.59,30.324802,,,,,,TRUE,,,,,OVC,2500,,,,,,,MVFR,,,,,,,,,,,,SPECI,311.0
UTSS 111930Z 30006KT 1300 R09/P2000 BR SCT007 M01/M02 Q1025 R09/CLRD70 NOSIG,UTSS,2020-12-11T19:30:00Z,39.7,66.98,-1.0,-2.0,300,6,,0.81,30.265747,,,,,,TRUE,,,,BR,SCT,700,,,,,,,LIFR,,,,,,,,,,,,SPECI,665.0
UTSK 111930Z 15002KT 3000 BR FEW049 00/M02 Q1027 R16/CLRD70,UTSK,2020-12-11T19:30:00Z,38.8,65.77,0.0,-2.0,150,2,,1.86,30.324802,,,,,,,,,,BR,FEW,4900,,,,,,,IFR,,,,,,,,,,,,SPECI,399.0
UTSB 111930Z 26004KT CAVOK M01/M08 Q1028 R01/CLRD70 NOSIG,UTSB,2020-12-11T19:30:00Z,39.77,64.48,-1.0,-8.0,260,4,,6.21,30.35433,,,,,,TRUE,,,,,CAVOK,,,,,,,,VFR,,,,,,,,,,,,SPECI,225.0
UTSA 111930Z 21002KT 4800 BR NSC M05/M07 Q1027 R25/CLRD70 NOSIG,UTSA,2020-12-11T19:30:00Z,40.12,65.17,-5.0,-7.0,210,2,,2.98,30.324802,,,,,,TRUE,,,,BR,CLR,,,,,,,,IFR,,,,,,,,,,,,SPECI,346.0
UTNU 111930Z 05006KT CAVOK M07/M12 Q1031 R31/CLRD70 NOSIG,UTNU,2020-12-11T19:30:00Z,41.58,60.63,-7.0,-12.0,50,6,,6.21,30.442913,,,,,,TRUE,,,,,CAVOK,,,,,,,,VFR,,,,,,,,,,,,SPECI,97.0
UTNN 111930Z 35006KT CAVOK M10/M14 Q1033 R33/CLRD60 NOSIG,UTNN,2020-12-11T19:30:00Z,42.48,59.63,-10.0,-14.0,350,6,,6.21,30.501968,,,,,,TRUE,,,,,CAVOK,,,,,,,,VFR,,,,,,,,,,,,SPECI,76.0
UTDT 111930Z 00000MPS 3700 BR FEW011 OVC031 04/03 Q1025 R35/////// RMK QFE729/0972,UTDT,2020-12-11T19:30:00Z,37.87,68.87,4.0,3.0,0,0,,2.3,30.265747,,,,,,,,,,BR,FEW,1100,OVC,3100,,,,,IFR,,,,,,,,,,,,METAR,443.0
UTDL 111930Z 00000MPS 0600 R26/1800N FG OVC002 00/M01 Q1027 R26/CLRD70 NOSIG RMK QBB080 QFE732/0976,UTDL,2020-12-11T19:30:00Z,40.22,69.7,0.0,-1.0,0,0,,0.37,30.324802,,,,,,TRUE,,,,FG,OVC,200,,,,,,,LIFR,,,,,,,,,,,,SPECI,436.0
UTDK 111930Z 19001MPS 9999 OVC021 04/01 Q1025 R01/09//70 RMK QFE711/0948,UTDK,2020-12-11T19:30:00Z,37.98,69.8,4.0,1.0,190,2,,6.21,30.265747,,,,,,,,,,,OVC,2100,,,,,,,MVFR,,,,,,,,,,,,METAR,675.0
UTDD 111930Z 09001MPS 5000 BR FU OVC015 02/00 Q1025 R09/D NOSIG RMK QFE700/0933,UTDD,2020-12-11T19:30:00Z,38.53,68.82,2.0,0.0,90,2,,3.11,30.265747,,,,,,TRUE,,,,BR FU,OVC,1500,,,,,,,MVFR,,,,,,,,,,,,METAR,785.0
USTR 111930Z 22004MPS CAVOK M14/M17 Q1036 R30/450160 R21/450160 NOSIG,USTR,2020-12-11T19:30:00Z,57.18,65.32,-14.0,-17.0,220,8,,6.21,30.590551,,,,,,TRUE,,,,,CAVOK,,,,,,,,VFR,,,,,,,,,,,,SPECI,93.0
USSS 111930Z 30004MPS CAVOK M09/M15 Q1039 R26R/120050 NOSIG RMK QFE758/1010,USSS,2020-12-11T19:30:00Z,56.75,60.78,-9.0,-15.0,300,8,,6.21,30.679134,,,,,,TRUE,,,,,CAVOK,,,,,,,,VFR,,,,,,,,,,,,SPECI,222.0
USRR 111930Z 24004MPS 9999 OVC005 M11/M12 Q1027 R25/32//40 NOSIG RMK OBST OBSC QFE765,USRR,2020-12-11T19:30:00Z,61.33,73.42,-11.0,-12.0,240,8,,6.21,30.324802,,,,,,TRUE,,,,,OVC,500,,,,,,,IFR,,,,,,,,,,,,SPECI,52.0
USPP 111930Z 16001MPS 7000 -SN SCT006 M16/M18 Q1040 R21/090060 TEMPO 1000 -SN BR OVC003 RMK QBB190 QFE769,USPP,2020-12-11T19:30:00Z,57.92,56.02,-16.0,-18.0,160,2,,4.35,30.708662,,,,,,,,,,-SN,SCT,600,,,,,,,MVFR,,,,,,,,,,,,SPECI,120.0
USNN 111930Z 16002MPS 9999 OVC005 M14/M16 Q1028 R21/420560 NOSIG RMK QFE766,USNN,2020-12-11T19:30:00Z,60.95,76.48,-14.0,-16.0,160,4,,6.21,30.35433,,,,,,TRUE,,,,,OVC,500,,,,,,,IFR,,,,,,,,,,,,SPECI,52.0
USHH 111930Z 25004MPS CAVOK M11/M13 Q1028 R24/390035 NOSIG,USHH,2020-12-11T19:30:00Z,61.03,69.08,-11.0,-13.0,250,8,,6.21,30.35433,,,,,,TRUE,,,,,CAVOK,,,,,,,,VFR,,,,,,,,,,,,METAR,46.0
USCM 111930Z 35001MPS 6000 NSC M17/M19 Q1039 R36/090060 TEMPO 0300 FZFG VV002 RMK QFE740,USCM,2020-12-11T19:30:00Z,53.4,58.75,-17.0,-19.0,350,2,,3.73,30.679134,,,,,,,,,,,CLR,,,,,,,,MVFR,,,,,,,,,,,,METAR,425.0
USCC 111930Z 27004MPS 4900 BR NSC M10/M13 Q1039 R27/350045 NOSIG RMK QFE759,USCC,2020-12-11T19:30:00Z,55.3,61.5,-10.0,-13.0,270,8,,3.04,30.679134,,,,,,TRUE,,,,BR,CLR,,,,,,,,MVFR,,,,,,,,,,,,SPECI,227.0
URWW 111930Z 09007MPS CAVOK M11/M14 Q1032 R06/010070 TEMPO OVC003,URWW,2020-12-11T19:30:00Z,48.78,44.33,-11.0,-14.0,90,14,,6.21,30.47244,,,,,,,,,,,CAVOK,,,,,,,,VFR,,,,,,,,,,,,SPECI,131.0
URWI 111930Z AUTO 09010MPS 9999 // ///026/// M04/M08 Q1027,URWI,2020-12-11T19:30:00Z,46.37,44.33,-4.0,-8.0,90,19,,6.21,30.324802,,,TRUE,,,,,,,,,,,,,,,,,,,,,,,,,,,,SPECI,145.0
URWA 111930Z 09008MPS CAVOK M06/M09 Q1032 R09/010070 NOSIG RMK QFE776/1035,URWA,2020-12-11T19:30:00Z,46.28,47.98,-6.0,-9.0,90,16,,6.21,30.47244,,,,,,TRUE,,,,,CAVOK,,,,,,,,VFR,,,,,,,,,,,,SPECI,-19.0
URSS 111930Z 05003MPS 9999 BKN100 07/02 Q1016 R02/010070 R06/010070 NOSIG RMK QFE761 R06/09004MPS QFE761,URSS,2020-12-11T19:30:00Z,43.45,39.92,7.0,2.0,50,6,,6.21,30.0,,,,,,TRUE,,,,,BKN,10000,,,,,,,VFR,,,,,,,,,,,,METAR,4.0
URRP 111930Z 10011MPS 9999 SCT026 M02/M07 Q1024 R05/CLRD70 NOSIG RMK QFE763/1018,URRP,2020-12-11T19:30:00Z,47.5,39.92,-2.0,-7.0,100,21,,6.21,30.236221,,,,,,TRUE,,,,,SCT,2600,,,,,,,VFR,,,,,,,,,,,,METAR,73.0
URMT 111930Z 12010MPS 9999 OVC007 M02/M02 Q1019 R07/010070 NOSIG RMK QFE724,URMT,2020-12-11T19:30:00Z,45.12,42.12,-2.0,-2.0,120,19,,6.21,30.088583,,,,,,TRUE,,,,,OVC,700,,,,,,,IFR,,,,,,,,,,,,SPECI,448.0
URMO 111930Z AUTO 22002MPS 170V280 7000 // ///004/// M03/M04 Q1020 RMK QFE721/0962,URMO,2020-12-11T19:30:00Z,43.2,44.6,-3.0,-4.0,220,4,,4.35,30.11811,,,TRUE,,,,,,,,,,,,,,,,,,,,,,,,,,,,METAR,505.0
URMM 111930Z 10003MPS 9999 OVC005 M00/M01 Q1021 R12/090070 NOSIG RMK MT OBSC QFE737/0983,URMM,2020-12-11T19:30:00Z,44.22,43.07,0.0,-1.0,100,6,,6.21,30.147638,,,,,,TRUE,,,,,OVC,500,,,,,,,IFR,,,,,,,,,,,,SPECI,318.0
URML 111930Z 16008MPS 9999 -RA SCT018 OVC027 06/04 Q1024 R14/01//70 NOSIG RMK QFE768/1024,URML,2020-12-11T19:30:00Z,42.82,47.65,6.0,4.0,160,16,,6.21,30.236221,,,,,,TRUE,,,,-RA,SCT,1800,OVC,2700,,,,,MVFR,,,,,,,,,,,,SPECI,4.0
URMG 111930Z 30003MPS 9999 BKN025 M00/M02 Q1022 R26/090070 NOSIG RMK QFE751/1002,URMG,2020-12-11T19:30:00Z,43.38,45.7,0.0,-2.0,300,6,,6.21,30.177166,,,,,,TRUE,,,,,BKN,2500,,,,,,,MVFR,,,,,,,,,,,,METAR,160.0
URKK 111930Z 09006MPS CAVOK 01/M03 Q1017 R05R/19//65 NOSIG RMK QFE760,URKK,2020-12-11T19:30:00Z,45.03,39.15,1.0,-3.0,90,12,,6.21,30.029528,,,,,,TRUE,,,,,CAVOK,,,,,,,,VFR,,,,,,,,,,,,SPECI,29.0
URKA 111930Z 08004MPS 9999 FEW/// 02/M02 Q1014 R04/010065 NOSIG RMK QFE756/1009,URKA,2020-12-11T19:30:00Z,45.0,37.35,2.0,-2.0,80,8,,6.21,29.940945,,,,,,TRUE,,,,,,,,,,,,,,,,,,,,,,,,,SPECI,41.0
URFF 111930Z 07004MPS 6000 BKN038 05/05 Q1010 R01/290295 BECMG 1400 BR BKN004 BKN020CB,URFF,2020-12-11T19:30:00Z,45.03,33.98,5.0,5.0,70,8,,3.73,29.822834,,,,,,,,,,,BKN,3800,,,,,,,MVFR,,,,,,,,,,,,METAR,190.0
UNTT 111930Z 19003MPS 9000 -SHSN BKN022CB M12/M14 Q1031 R21/490237 NOSIG RMK QFE758,UNTT,2020-12-11T19:30:00Z,56.38,85.22,-12.0,-14.0,190,6,,5.59,30.442913,,,,,,TRUE,,,,-SHSN,BKN,2200,,,,,,,MVFR,,,,,,,,,,,,METAR,179.0
UNOO 111930Z 29005MPS CAVOK M11/M13 Q1033 R25/420350 NOSIG RMK QFE766,UNOO,2020-12-11T19:30:00Z,54.97,73.32,-11.0,-13.0,290,10,,6.21,30.501968,,,,,,TRUE,,,,,CAVOK,,,,,,,,VFR,,,,,,,,,,,,SPECI,85.0
UNNT 111930Z 21006MPS 9000 -SN OVC018 M10/M14 Q1033 R25/810160 R16/490150 NOSIG RMK QFE765/1020,UNNT,2020-12-11T19:30:00Z,55.02,82.65,-10.0,-14.0,210,12,,5.59,30.501968,,,,,,TRUE,,,,-SN,OVC,1800,,,,,,,MVFR,,,,,,,,,,,,SPECI,106.0
UNKL 111930Z 24002MPS 9000 -SN SCT028 M22/M24 Q1032 R29/410155 NOSIG RMK QFE748,UNKL,2020-12-11T19:30:00Z,56.17,92.48,-22.0,-24.0,240,4,,5.59,30.47244,,,,,,TRUE,,,,-SN,SCT,2800,,,,,,,VFR,,,,,,,,,,,,SPECI,278.0
UNEE 111930Z 19004MPS 9999 -SHSN OVC023CB M12/M14 Q1032 R23/850541 NOSIG RMK QFE751,UNEE,2020-12-11T19:30:00Z,55.27,86.1,-12.0,-14.0,190,8,,6.21,30.47244,,,,,,TRUE,,,,-SHSN,OVC,2300,,,,,,,MVFR,,,,,,,,,,,,SPECI,261.0
UNBB 111930Z 23006MPS 7000 -SN BKN018 M11/M14 Q1035 R24/420250 NOSIG RMK QFE754,UNBB,2020-12-11T19:30:00Z,53.37,83.53,-11.0,-14.0,230,12,,4.35,30.561024,,,,,,TRUE,,,,-SN,BKN,1800,,,,,,,MVFR,,,,,,,,,,,,SPECI,249.0
UNAA 111930Z 29001MPS 6000 1300N BR FU NSC M16/M18 Q1035 R02/CLRD60 NOSIG RMK QFE754,UNAA,2020-12-11T19:30:00Z,53.75,91.4,-16.0,-18.0,290,2,,3.73,30.561024,,,,,,TRUE,,,,FU BR,CLR,,,,,,,,MVFR,,,,,,,,,,,,SPECI,249.0
UMMS 111930Z 13008G12MPS 9999 BKN012 M02/M04 Q1018 R13L/650530 R13R/////// NOSIG,UMMS,2020-12-11T19:30:00Z,53.88,28.03,-2.0,-4.0,130,16,23,6.21,30.059055,,,,,,TRUE,,,,,BKN,1200,,,,,,,MVFR,,,,,,,,,,,,METAR,196.0
UMKK 111930Z 12004MPS 9999 OVC004 01/00 Q1010 R24/19//95 NOSIG RMK QBB140 OBST OBSC QFE756/1008,UMKK,2020-12-11T19:30:00Z,54.88,20.57,1.0,0.0,120,8,,6.21,29.822834,,,,,,TRUE,,,,,OVC,400,,,,,,,LIFR,,,,,,,,,,,,SPECI,6.0
UMII 111930Z 14006G09MPS 7000 NSC M03/M06 Q1021 R23/710345 TEMPO 2000 BR SCT005,UMII,2020-12-11T19:30:00Z,55.13,30.35,-3.0,-6.0,140,12,17,4.35,30.147638,,,,,,,,,,,CLR,,,,,,,,MVFR,,,,,,,,,,,,METAR,208.0
ULWC 111930Z 17002MPS 9999 FEW033 M05/M08 Q1029 R21/720255 NOSIG RMK QFE761/1015,ULWC,2020-12-11T19:30:00Z,59.28,38.02,-5.0,-8.0,170,4,,6.21,30.383858,,,,,,TRUE,,,,,FEW,3300,,,,,,,VFR,,,,,,,,,,,,METAR,113.0
ULOO 111930Z 12003MPS 090V150 5000 -SHRASN BKN003 BKN014CB OVC024 01/01 Q1019 R19/990328 NOSIG RMK QBB110 OBST OBSC QFE760,ULOO,2020-12-11T19:30:00Z,57.78,28.4,1.0,1.0,120,6,,3.11,30.088583,,,,,,TRUE,,,,-SHRA -SHSN,BKN,300,BKN,1400,OVC,2400,,,LIFR,,,,,,,,,,,,SPECI,46.0
ULMM 111930Z 21001MPS 9999 BKN011CB M01/M03 Q1020 R13/490152 NOSIG RMK QFE758,ULMM,2020-12-11T19:30:00Z,68.78,32.75,-1.0,-3.0,210,2,,6.21,30.11811,,,,,,TRUE,,,,,BKN,1100,,,,,,,MVFR,,,,,,,,,,,,SPECI,79.0
ULLI 111930Z 12003MPS 3300 -FZRA BKN004 OVC020 M01/M01 Q1021 R10R/520545 R10L/590531 NOSIG RMK QBB140 OBST OBSC,ULLI,2020-12-11T19:30:00Z,59.8,30.27,-1.0,-1.0,120,6,,2.05,30.147638,,,,,,TRUE,,,,-FZRA,BKN,400,OVC,2000,,,,,LIFR,,,,,,,,,,,,SPECI,25.0
ULAA 111930Z 08001MPS CAVOK M17/M20 Q1027 R26/190060 NOSIG RMK QFE768/1025,ULAA,2020-12-11T19:30:00Z,64.6,40.72,-17.0,-20.0,80,2,,6.21,30.324802,,,,,,TRUE,,,,,CAVOK,,,,,,,,VFR,,,,,,,,,,,,SPECI,10.0
UKOO 111930Z 07007MPS 030V100 9999 OVC011 03/01 Q1011 R16/190058 NOSIG,UKOO,2020-12-11T19:30:00Z,46.42,30.68,3.0,1.0,70,14,,6.21,29.852362,,,,,,TRUE,,,,,OVC,1100,,,,,,,MVFR,,,,,,,,,,,,METAR,52.0
UKOH 111930Z 09009MPS CAVOK 02/M00 Q1013 R03/CLRD65 NOSIG,UKOH,2020-12-11T19:30:00Z,46.67,32.5,2.0,0.0,90,17,,6.21,29.911417,,,,,,TRUE,,,,,CAVOK,,,,,,,,VFR,,,,,,,,,,,,METAR,43.0
UKLL 111930Z 13008MPS 3800 BR OVC002 03/02 Q1007 R13/290055 NOSIG,UKLL,2020-12-11T19:30:00Z,49.82,23.95,3.0,2.0,130,16,,2.36,29.734253,,,,,,TRUE,,,,BR,OVC,200,,,,,,,LIFR,,,,,,,,,,,,METAR,316.0
UKKM 111930Z AUTO 11006MPS 9999 // ///013/// M03/M04 Q1018,UKKM,2020-12-11T19:30:00Z,50.6,30.2,-3.0,-4.0,110,12,,6.21,30.059055,,,TRUE,,,,,,,,,,,,,,,,,,,,,,,,,,,,SPECI,156.0
UKKK 111930Z 11006MPS CAVOK M03/M05 Q1018 R08/920340 NOSIG,UKKK,2020-12-11T19:30:00Z,50.4,30.45,-3.0,-5.0,110,12,,6.21,30.059055,,,,,,TRUE,,,,,CAVOK,,,,,,,,VFR,,,,,,,,,,,,METAR,175.0
UKHH 111930Z 11006MPS CAVOK M06/M10 Q1025 R07/0///81 NOSIG,UKHH,2020-12-11T19:30:00Z,49.92,36.28,-6.0,-10.0,110,12,,6.21,30.265747,,,,,,TRUE,,,,,CAVOK,,,,,,,,VFR,,,,,,,,,,,,SPECI,149.0
UKDE 111930Z 09006MPS 060V120 9999 SCT021 M00/M04 Q1019 R02/210070 NOSIG,UKDE,2020-12-11T19:30:00Z,47.87,35.32,0.0,-4.0,90,12,,6.21,30.088583,,,,,,TRUE,,,,,SCT,2100,,,,,,,VFR,,,,,,,,,,,,SPECI,106.0
UKBB 111930Z 12003MPS CAVOK M03/M05 Q1019 R18L/720145 NOSIG,UKBB,2020-12-11T19:30:00Z,50.33,30.9,-3.0,-5.0,120,6,,6.21,30.088583,,,,,,TRUE,,,,,CAVOK,,,,,,,,VFR,,,,,,,,,,,,SPECI,125.0
UIUU 111930Z 08002MPS 3900 FU FEW043 M23/M26 Q1022 R26/420355 NOSIG RMK QFE722/0963,UIUU,2020-12-11T19:30:00Z,51.8,107.45,-23.0,-26.0,80,4,,2.42,30.177166,,,,,,TRUE,,,,FU,FEW,4300,,,,,,,IFR,,,,,,,,,,,,SPECI,508.0
UIII 111930Z 07002MPS 9999 BKN040 M27/M30 Q1025 R12/810360 NOSIG RMK QFE726/0969,UIII,2020-12-11T19:30:00Z,52.27,104.37,-27.0,-30.0,70,4,,6.21,30.265747,,,,,,TRUE,,,,,BKN,4000,,,,,,,VFR,,,,,,,,,,,,SPECI,480.0
UIBB 111930Z AUTO 30004MPS 9999 // ///034/// M25/M27 Q1023 RMK QFE724/0965,UIBB,2020-12-11T19:30:00Z,56.37,101.7,-25.0,-27.0,300,8,,6.21,30.206694,,,TRUE,,,,,,,,,,,,,,,,,,,,,,,,,,,,SPECI,485.0
UIAA 111930Z 03001MPS 9999 NSC M28/M31 Q1018 R29/CLRD60 NOSIG RMK QFE705/0940,UIAA,2020-12-11T19:30:00Z,52.02,113.32,-28.0,-31.0,30,2,,6.21,30.059055,,,,,,TRUE,,,,,CLR,,,,,,,,VFR,,,,,,,,,,,,SPECI,650.0
UHWW 111930Z 33003MPS 9999 NSC M10/M16 Q1019 R25L/0///70 NOSIG RMK QFE763,UHWW,2020-12-11T19:30:00Z,43.4,132.15,-10.0,-16.0,330,6,,6.21,30.088583,,,,,,TRUE,,,,,CLR,,,,,,,,VFR,,,,,,,,,,,,METAR,11.0
UHSS 111930Z 36004MPS 9999 SCT040CB M08/M10 Q1012 R01/450250 NOSIG RMK QFE758/1010,UHSS,2020-12-11T19:30:00Z,46.88,142.72,-8.0,-10.0,360,8,,6.21,29.88189,,,,,,TRUE,,,,,SCT,4000,,,,,,,VFR,,,,,,,,,,,,METAR,14.0
UHPP 111930Z 01004MPS 9999 NSC M11/M15 Q1004 R34L/CLRD70 NOSIG RMK QFE750/1000,UHPP,2020-12-11T19:30:00Z,53.17,158.45,-11.0,-15.0,10,8,,6.21,29.64567,,,,,,TRUE,,,,,CLR,,,,,,,,VFR,,,,,,,,,,,,METAR,33.0
UHHH 111930Z 23004MPS CAVOK M18/M23 Q1015 R23L/090060 NOSIG RMK QFE755/1007,UHHH,2020-12-11T19:30:00Z,48.52,135.18,-18.0,-23.0,230,8,,6.21,29.970472,,,,,,TRUE,,,,,CAVOK,,,,,,,,VFR,,,,,,,,,,,,METAR,74.0
UGTB 111930Z 13002KT 6000 SCT006 OVC009 01/00 Q1028 R13R/19//60 TEMPO 4000 BR OVC004,UGTB,2020-12-11T19:30:00Z,41.67,44.95,1.0,0.0,130,2,,3.73,30.35433,,,,,,,,,,,SCT,600,OVC,900,,,,,IFR,,,,,,,,,,,,METAR,468.0
UGSB 111930Z 12018KT CAVOK 13/M03 Q1016 NOSIG,UGSB,2020-12-11T19:30:00Z,41.62,41.6,13.0,-3.0,120,18,,6.21,30.0,,,,,,TRUE,,,,,CAVOK,,,,,,,,VFR,,,,,,,,,,,,METAR,32.0
UGKO 111930Z 08027G45KT CAVOK 07/M03 Q1019 NOSIG,UGKO,2020-12-11T19:30:00Z,42.18,42.48,7.0,-3.0,80,27,45,6.21,30.088583,,,,,,TRUE,,,,,CAVOK,,,,,,,,VFR,,,,,,,,,,,,METAR,44.0
UEEE 111930Z 01001MPS 0600 0300SW R23L/1400D FG VV004 M48/M53 Q1032 R23L/450157 NOSIG RMK QBB120 QFE765,UEEE,2020-12-11T19:30:00Z,62.08,129.77,-48.0,-53.0,10,2,,0.37,30.47244,,,,,,TRUE,,,,FG,OVX,0,,,,,,,LIFR,,,,,,,,,,,400,METAR,106.0
UDYZ 111930Z 00000KT 3500 BR FEW046 01/M01 Q1023 R09/010070 NOSIG,UDYZ,2020-12-11T19:30:00Z,40.15,44.4,1.0,-1.0,0,0,,2.17,30.206694,,,,,,TRUE,,,,BR,FEW,4600,,,,,,,IFR,,,,,,,,,,,,SPECI,851.0
UDSG 111930Z 00000KT 4900 BR OVC026 M01/M03 Q1021 R02/CLRD70 NOSIG,UDSG,2020-12-11T19:30:00Z,40.75,43.87,-1.0,-3.0,0,0,,3.04,30.147638,,,,,,TRUE,,,,BR,OVC,2600,,,,,,,MVFR,,,,,,,,,,,,METAR,1515.0
UCFO 111930Z 19002MPS 0500 0450W R12/1300N FZFG FU NSC M04/M05 Q1024 R12/0///95 TEMPO 0200 FZFG FU,UCFO,2020-12-11T19:30:00Z,40.6,72.8,-4.0,-5.0,190,4,,0.31,30.236221,,,,,,,,,,FZFG FU,CLR,,,,,,,,LIFR,,,,,,,,,,,,METAR,881.0
UCFM 111930Z VRB01MPS 0900 0700W R26/P1500 PRFG VV002 M11/M12 Q1029 R26/1///95 TEMPO 0600 FZFG,UCFM,2020-12-11T19:30:00Z,43.07,74.48,-11.0,-12.0,0,2,,0.56,30.383858,,,,,,,,,,PRFG,OVX,0,,,,,,,LIFR,,,,,,,,,,,200,METAR,632.0
UBBG 111930Z 00000KT 8000 OVC020 01/00 Q1028 R30/CLRD// NOSIG,UBBG,2020-12-11T19:30:00Z,40.73,46.32,1.0,0.0,0,0,,4.97,30.35433,,,,,,TRUE,,,,,OVC,2000,,,,,,,MVFR,,,,,,,,,,,,SPECI,333.0
UBBB 111930Z 13012KT 9999 OVC030 06/02 Q1029 R88/D NOSIG,UBBB,2020-12-11T19:30:00Z,40.47,50.07,6.0,2.0,130,12,,6.21,30.383858,,,,,,TRUE,,,,,OVC,3000,,,,,,,MVFR,,,,,,,,,,,,METAR,94.0
UAUU 111930Z 23002MPS CAVOK M19/M21 Q1042 R15/820054 NOSIG RMK QFE764/1019,UAUU,2020-12-11T19:30:00Z,53.2,63.55,-19.0,-21.0,230,4,,6.21,30.767717,,,,,,TRUE,,,,,CAVOK,,,,,,,,VFR,,,,,,,,,,,,SPECI,177.0
UATT 111930Z 12002MPS 090V150 9999 SCT010 M13/M15 Q1041 R13/0///60 NOSIG RMK QFE761/1015,UATT,2020-12-11T19:30:00Z,50.25,57.2,-13.0,-15.0,120,4,,6.21,30.73819,,,,,,TRUE,,,,,SCT,1000,,,,,,,VFR,,,,,,,,,,,,METAR,217.0
UATG 111930Z 11006MPS CAVOK M10/M13 Q1038 R14/CLRD70 NOSIG RMK QFE781/1041,UATG,2020-12-11T19:30:00Z,47.12,51.83,-10.0,-13.0,110,12,,6.21,30.649607,,,,,,TRUE,,,,,CAVOK,,,,,,,,VFR,,,,,,,,,,,,SPECI,-23.0
UATE 111930Z 11008MPS CAVOK M05/M11 Q1033 R12/0///70 NOSIG RMK QFE772/1030,UATE,2020-12-11T19:30:00Z,43.87,51.1,-5.0,-11.0,110,16,,6.21,30.501968,,,,,,TRUE,,,,,CAVOK,,,,,,,,VFR,,,,,,,,,,,,METAR,21.0
UASP 111930Z 21005MPS 9999 OVC016 M12/M14 Q1037 R21/420255 NOSIG RMK QFE766/1022,UASP,2020-12-11T19:30:00Z,52.2,77.07,-12.0,-14.0,210,10,,6.21,30.620079,,,,,,TRUE,,,,,OVC,1600,,,,,,,MVFR,,,,,,,,,,,,SPECI,122.0
UAKK 111930Z 18002MPS 5000 -SN BR BKN004 M15/M17 Q1038 R05/820555 NOSIG RMK QBB130 QFE730/0974,UAKK,2020-12-11T19:30:00Z,49.68,73.35,-15.0,-17.0,180,4,,3.11,30.649607,,,,,,TRUE,,,,-SN BR,BKN,400,,,,,,,LIFR,,,,,,,,,,,,SPECI,532.0
UAII 111930Z 00000MPS 0000 R28/M0200N FZFG SCT006 M08/M08 Q1027 R28/0///70 NOSIG RMK QBB180 QFE732/0976,UAII,2020-12-11T19:30:00Z,42.37,69.48,-8.0,-8.0,0,0,,0.0,30.324802,,,,,,TRUE,,,,FZFG,SCT,600,,,,,,,LIFR,,,,,,,,,,,,SPECI,410.0
UADD 111930Z 35002MPS 2000 BR OVC005 M08/M09 Q1029 R13/490150 NOSIG RMK QBB160 MT OBSC QFE714/0952,UADD,2020-12-11T19:30:00Z,42.85,71.3,-8.0,-9.0,350,4,,1.24,30.383858,,,,,,TRUE,,,,BR,OVC,500,,,,,,,IFR,,,,,,,,,,,,SPECI,663.0
UACC 111930Z 26005MPS 9000 OVC003 M08/M09 Q1039 R22/35//55 NOSIG RMK QBB110 QFE747/0996,UACC,2020-12-11T19:30:00Z,51.02,71.47,-8.0,-9.0,260,10,,5.59,30.679134,,,,,,TRUE,,,,,OVC,300,,,,,,,LIFR,,,,,,,,,,,,METAR,354.0
UAAA 111930Z VRB01MPS 2700 BR OVC006 M08/M09 Q1030 R23R/3///60 R23L/3///50 NOSIG RMK QBB180,UAAA,2020-12-11T19:30:00Z,43.35,77.03,-8.0,-9.0,0,2,,1.68,30.413385,,,,,,TRUE,,,,BR,OVC,600,,,,,,,IFR,,,,,,,,,,,,METAR,673.0
TFFR 111930Z AUTO 09010KT 060V130 9999 SCT028 27/22 Q1012 TEMPO 4000 SHRA SCT020TCU,TFFR,2020-12-11T19:30:00Z,16.27,-61.53,27.0,22.0,90,10,,6.21,29.88189,,,TRUE,,,,,,,,SCT,2800,,,,,,,VFR,,,,,,,,,,,,METAR,6.0
TFFF 111930Z AUTO 11013KT 9999 SCT030 SCT036 29/22 Q1012 NOSIG,TFFF,2020-12-11T19:30:00Z,14.6,-61.0,29.0,22.0,110,13,,6.21,29.88189,,,TRUE,,,TRUE,,,,,SCT,3000,SCT,3600,,,,,VFR,,,,,,,,,,,,METAR,3.0
SPZO 111930Z 27002G13KT 9999 VCSH FEW046TCU SCT080 23/00 Q1023 NOSIG RMK BIRD HAZARD RWY 28,SPZO,2020-12-11T19:30:00Z,-13.55,-71.93,23.0,0.0,270,2,13,6.21,30.206694,,,,,,TRUE,,,,VCSH,FEW,4600,SCT,8000,,,,,VFR,,,,,,,,,,,,SPECI,3249.0
SPJR 111930Z 17004KT 100V230 9999 SCT020 BKN043 18/12 Q1024,SPJR,2020-12-11T19:30:00Z,-7.13,-78.48,18.0,12.0,170,4,,6.21,30.236221,,,,,,,,,,,SCT,2000,BKN,4300,,,,,VFR,,,,,,,,,,,,METAR,2622.0
SOCA 111930Z AUTO 05009KT 9999 SCT023 SCT030 BKN078 30/24 Q1009 TEMPO 3000 SHRA SCT020TCU,SOCA,2020-12-11T19:30:00Z,4.82,-52.37,30.0,24.0,50,9,,6.21,29.793306,,,TRUE,,,,,,,,SCT,2300,SCT,3000,BKN,7800,,,VFR,,,,,,,,,,,,METAR,7.0
ROAH 111930Z 01015KT 9999 VCSH FEW014 BKN080 20/17 Q1012,ROAH,2020-12-11T19:30:00Z,26.18,127.65,20.0,17.0,10,15,,6.21,29.88189,,,,,,,,,,VCSH,FEW,1400,BKN,8000,,,,,VFR,,,,,,,,,,,,METAR,6.0
RKSI 111930Z 01003KT CAVOK 02/M06 Q1020 NOSIG,RKSI,2020-12-11T19:30:00Z,37.47,126.45,2.0,-6.0,10,3,,6.21,30.11811,,,,,,TRUE,,,,,CAVOK,,,,,,,,VFR,,,,,,,,,,,,METAR,7.0
RKNW 111930Z 27001KT 3200 BR FEW030 BKN200 M03/M03 A3008 RMK CIG200,RKNW,2020-12-11T19:30:00Z,37.33,127.95,-3.0,-3.0,270,1,,1.99,30.079725,,,,,,,,,,BR,FEW,3000,BKN,20000,,,,,IFR,,,,,,,,,,,,SPECI,152.0
RJTT 111930Z 34010KT 9999 FEW020 SCT025 BKN/// 11/06 Q1010 NOSIG,RJTT,2020-12-11T19:30:00Z,35.55,139.77,11.0,6.0,340,10,,6.21,29.822834,,,,,,TRUE,,,,,FEW,2000,SCT,2500,,,,,VFR,,,,,,,,,,,,METAR,5.0
RJGG 111930Z 35009KT 9999 FEW030 BKN060 11/05 Q1012 NOSIG,RJGG,2020-12-11T19:30:00Z,34.87,136.8,11.0,5.0,350,9,,6.21,29.88189,,,,,,TRUE,,,,,FEW,3000,BKN,6000,,,,,VFR,,,,,,,,,,,,METAR,5.0
RJFF 111930Z AUTO 18004KT 9999 OVC034 11/07 Q1015 BECMG 32006KT,RJFF,2020-12-11T19:30:00Z,33.58,130.45,11.0,7.0,180,4,,6.21,29.970472,,,TRUE,,,,,,,,OVC,3400,,,,,,,VFR,,,,,,,,,,,,METAR,7.0
RJCC 111930Z 34008KT 8000 -SHSN FEW010 BKN050 M00/M00 Q1011,RJCC,2020-12-11T19:30:00Z,42.77,141.68,0.0,0.0,340,8,,4.97,29.852362,,,,,,,,,,-SHSN,FEW,1000,BKN,5000,,,,,MVFR,,,,,,,,,,,,METAR,19.0
RJBB 111930Z AUTO 14007KT 9999 BKN050 OVC060 12/10 Q1012 BECMG 17008KT,RJBB,2020-12-11T19:30:00Z,34.43,135.25,12.0,10.0,140,7,,6.21,29.88189,,,TRUE,,,,,,,,BKN,5000,OVC,6000,,,,,VFR,,,,,,,,,,,,SPECI,8.0
RJAA 111930Z 32003KT 270V340 7000 FEW015 SCT045 BKN/// 07/06 Q1010 NOSIG,RJAA,2020-12-11T19:30:00Z,35.77,140.38,7.0,6.0,320,3,,4.35,29.822834,,,,,,TRUE,,,,,FEW,1500,SCT,4500,,,,,MVFR,,,,,,,,,,,,METAR,36.0
RCTP 111930Z 04007KT 9999 FEW012 BKN020 BKN035 20/18 Q1016 NOSIG RMK A3001,RCTP,2020-12-11T19:30:00Z,25.07,121.22,20.0,18.0,40,7,,6.21,30.0,,,,,,TRUE,,,,,FEW,1200,BKN,2000,BKN,3500,,,MVFR,,,,,,,,,,,,METAR,33.0
PAJN 111930Z 00000KT 1 1/2SM -SN BR FEW007 OVC028 01/00 A3010 RMK AO2 TWR VIS 2 1/2 P0001 T00060000 $,PAJN,2020-12-11T19:30:00Z,58.35,-134.55,0.6,0.0,0,0,,1.5,30.100393,,,,TRUE,TRUE,,,,,-SN BR,FEW,700,OVC,2800,,,,,IFR,,,,,,0.01,,,,,,SPECI,6.0
OTBD 111930Z 28004KT 250V310 CAVOK 21/14 Q1019 NOSIG,OTBD,2020-12-11T19:30:00Z,25.25,51.57,21.0,14.0,280,4,,6.21,30.088583,,,,,,TRUE,,,,,CAVOK,,,,,,,,VFR,,,,,,,,,,,,METAR,13.0
OPMT 111930Z 00000KT 4000 FU NSC 13/11 Q1014 NOSIG,OPMT,2020-12-11T19:30:00Z,30.2,71.42,13.0,11.0,0,0,,2.49,29.940945,,,,,,TRUE,,,,FU,CLR,,,,,,,,IFR,,,,,,,,,,,,METAR,122.0
OITT 111930Z 06006KT 6000 SCT030 FEW032CB OVC070 03/M02 Q1023 A3024,OITT,2020-12-11T19:30:00Z,38.13,46.23,3.0,-2.0,60,6,,3.73,30.206694,,,,,,,,,,,SCT,3000,FEW,3200,OVC,7000,,,MVFR,,,,,,,,,,,,METAR,1353.0
OITL 111930Z 00000KT 0600 FG OVC002 M03/M03 Q1023,OITL,2020-12-11T19:30:00Z,38.33,48.42,-3.0,-3.0,0,0,,0.37,30.206694,,,,,,,,,,FG,OVC,200,,,,,,,LIFR,,,,,,,,,,,,METAR,1314.0
OISS 111930Z 32004KT CAVOK 08/M02 Q1021 A3017,OISS,2020-12-11T19:30:00Z,29.53,52.58,8.0,-2.0,320,4,,6.21,30.147638,,,,,,,,,,,CAVOK,,,,,,,,VFR,,,,,,,,,,,,METAR,1484.0
OIMM 111930Z 16008KT 5000 BR OVC012 M02/M02 Q1024 A3024,OIMM,2020-12-11T19:30:00Z,36.23,59.63,-2.0,-2.0,160,8,,3.11,30.236221,,,,,,,,,,BR,OVC,1200,,,,,,,MVFR,,,,,,,,,,,,METAR,995.0
OIKB 111930Z 05004KT CAVOK 13/06 Q1016 A3003,OIKB,2020-12-11T19:30:00Z,27.22,56.37,13.0,6.0,50,4,,6.21,30.0,,,,,,,,,,,CAVOK,,,,,,,,VFR,,,,,,,,,,,,METAR,6.0
OIII 111930Z 27004KT 8000 NSC 02/M02 Q1021 A3016,OIII,2020-12-11T19:30:00Z,35.68,51.3,2.0,-2.0,270,4,,4.97,30.147638,,,,,,,,,,,CLR,,,,,,,,MVFR,,,,,,,,,,,,METAR,1182.0
OIFM 111930Z 06004KT 7000 NSC M01/M02 Q1022 A3019,OIFM,2020-12-11T19:30:00Z,32.75,51.87,-1.0,-2.0,60,4,,4.35,30.177166,,,,,,,,,,,CLR,,,,,,,,MVFR,,,,,,,,,,,,METAR,1539.0
OIAW 111930Z 29004KT 5000 BR NSC 14/11 Q1019,OIAW,2020-12-11T19:30:00Z,31.33,48.77,14.0,11.0,290,4,,3.11,30.088583,,,,,,,,,,BR,CLR,,,,,,,,MVFR,,,,,,,,,,,,METAR,25.0
OBBI 111930Z 30012KT CAVOK 20/14 Q1020 NOSIG,OBBI,2020-12-11T19:30:00Z,26.27,50.63,20.0,14.0,300,12,,6.21,30.11811,,,,,,TRUE,,,,,CAVOK,,,,,,,,VFR,,,,,,,,,,,,METAR,6.0
NZWN 111930Z AUTO 02004KT 270V200 9999 NCD 16/07 Q1013 BECMG 17010KT,NZWN,2020-12-11T19:30:00Z,-41.32,174.8,16.0,7.0,20,4,,6.21,29.911417,,,TRUE,,,,,,,,CLR,,,,,,,,VFR,,,,,,,,,,,,METAR,12.0
NZCH 111930Z AUTO 22007KT 170V260 9999 BKN048/// BKN060/// 14/04 Q1013 NOSIG,NZCH,2020-12-11T19:30:00Z,-43.48,172.52,14.0,4.0,220,7,,6.21,29.911417,,,TRUE,,,TRUE,,,,,BKN,4800,BKN,6000,,,,,VFR,,,,,,,,,,,,METAR,36.0
NZAA 111930Z AUTO 25017KT 9999 FEW040/// BKN050/// 16/10 Q1020 NOSIG,NZAA,2020-12-11T19:30:00Z,-37.02,174.8,16.0,10.0,250,17,,6.21,30.11811,,,TRUE,,,TRUE,,,,,FEW,4000,BKN,5000,,,,,VFR,,,,,,,,,,,,METAR,7.0
NWWW 111930Z AUTO VRB03KT 9999 -RA FEW048/// BKN088/// BKN110/// ///TCU 23/23 Q1010 TEMPO 4000 SHRA BKN014 SCT020CB,NWWW,2020-12-11T19:30:00Z,,,23.0,23.0,0,3,,6.21,29.822834,,,TRUE,,,,,,,-RA,FEW,4800,BKN,8800,BKN,11000,,,VFR,,,,,,,,,,,,METAR,
NLWW 111930Z 10005KT 070V140 9999 FEW016 SCT240 30/25 Q1010 TEMPO 4000 SHRA BKN014 SCT020TCU,NLWW,2020-12-11T19:30:00Z,,,30.0,25.0,100,5,,6.21,29.822834,,,,,,,,,,,FEW,1600,SCT,24000,,,,,VFR,,,,,,,,,,,,METAR,
NCRG 111930Z AUTO 08014KT 9999 FEW023/// 28/23 Q1015,NCRG,2020-12-11T19:30:00Z,,,28.0,23.0,80,14,,6.21,29.970472,,,TRUE,,,,,,,,FEW,2300,,,,,,,VFR,,,,,,,,,,,,METAR,
LZZI 111930Z VRB01KT 5000 BR BKN003 M02/M02 Q1004,LZZI,2020-12-11T19:30:00Z,49.23,18.62,-2.0,-2.0,0,1,,3.11,29.64567,,,,,,,,,,BR,BKN,300,,,,,,,LIFR,,,,,,,,,,,,METAR,311.0
LZTT 111930Z VRB01KT 0050 R27/0325N FZFG VV001 M03/M04 Q1004,LZTT,2020-12-11T19:30:00Z,49.07,20.25,-3.0,-4.0,0,1,,0.03,29.64567,,,,,,,,,,FZFG,OVX,0,,,,,,,LIFR,,,,,,,,,,,100,METAR,693.0
LZSL 111930Z VRB02KT 9999 OVC010 02/01 Q1006,LZSL,2020-12-11T19:30:00Z,48.63,19.13,2.0,1.0,0,2,,6.21,29.704725,,,,,,,,,,,OVC,1000,,,,,,,MVFR,,,,,,,,,,,,METAR,311.0
LZPP 111930Z 14009KT 9999 OVC007 03/01 Q1004,LZPP,2020-12-11T19:30:00Z,48.62,17.83,3.0,1.0,140,9,,6.21,29.64567,,,,,,,,,,,OVC,700,,,,,,,IFR,,,,,,,,,,,,METAR,160.0
LZKZ 111930Z 24004KT 5000 BR BKN006 01/00 Q1007,LZKZ,2020-12-11T19:30:00Z,48.67,21.23,1.0,0.0,240,4,,3.11,29.734253,,,,,,,,,,BR,BKN,600,,,,,,,IFR,,,,,,,,,,,,METAR,227.0
LZIB 111930Z 14011KT 6000 BKN003 BKN008 02/01 Q1004,LZIB,2020-12-11T19:30:00Z,48.17,17.22,2.0,1.0,140,11,,3.73,29.64567,,,,,,,,,,,BKN,300,BKN,800,,,,,LIFR,,,,,,,,,,,,METAR,129.0
LYVR 111930Z AUTO 33002KT 3400 BR OVC002/// 04/04 Q1006,LYVR,2020-12-11T19:30:00Z,45.13,21.32,4.0,4.0,330,2,,2.11,29.704725,,,TRUE,,,,,,,BR,OVC,200,,,,,,,LIFR,,,,,,,,,,,,METAR,82.0
LYUZ 111930Z AUTO VRB01KT CAVOK 02/02 Q1003,LYUZ,2020-12-11T19:30:00Z,43.9,19.67,2.0,2.0,0,1,,6.21,29.616142,,,TRUE,,,,,,,,CAVOK,,,,,,,,VFR,,,,,,,,,,,,METAR,914.0
LYTV 111930Z VRB02KT 9999 SCT046 OVC073 09/08 Q1002,LYTV,2020-12-11T19:30:00Z,42.4,18.72,9.0,8.0,0,2,,6.21,29.586615,,,,,,,,,,,SCT,4600,OVC,7300,,,,,VFR,,,,,,,,,,,,METAR,3.0
LYPG 111930Z 34003KT 6000 FEW030 BKN040 OVC070 08/08 Q1003 TEMPO 4000 BR,LYPG,2020-12-11T19:30:00Z,42.37,19.25,8.0,8.0,340,3,,3.73,29.616142,,,,,,,,,,,FEW,3000,BKN,4000,OVC,7000,,,MVFR,,,,,,,,,,,,SPECI,32.0
LYNI 111930Z 22003KT 190V250 0700 R29/0600N R11/0750N FG VV002 04/03 Q1006 NOSIG,LYNI,2020-12-11T19:30:00Z,43.33,21.85,4.0,3.0,220,3,,0.43,29.704725,,,,,,TRUE,,,,FG,OVX,0,,,,,,,LIFR,,,,,,,,,,,200,SPECI,197.0
LYKV 111930Z 13003KT 100V160 8000 BKN010 OVC020 06/06 Q1006 NOSIG,LYKV,2020-12-11T19:30:00Z,43.82,20.58,6.0,6.0,130,3,,4.97,29.704725,,,,,,TRUE,,,,,BKN,1000,OVC,2000,,,,,MVFR,,,,,,,,,,,,METAR,209.0
LYBT 111930Z 02004KT 1500 BR OVC002 04/04 Q1006 NOSIG,LYBT,2020-12-11T19:30:00Z,44.93,20.25,4.0,4.0,20,4,,0.93,29.704725,,,,,,TRUE,,,,BR,OVC,200,,,,,,,LIFR,,,,,,,,,,,,METAR,78.0
LYBE 111930Z 11004KT 5000 BR OVC006 05/04 Q1006 NOSIG,LYBE,2020-12-11T19:30:00Z,44.82,20.28,5.0,4.0,110,4,,3.11,29.704725,,,,,,TRUE,,,,BR,OVC,600,,,,,,,IFR,,,,,,,,,,,,METAR,93.0
LUKK 111930Z 06008KT 9999 OVC005 01/M00 Q1012 R08/110095 NOSIG,LUKK,2020-12-11T19:30:00Z,46.93,28.93,1.0,0.0,60,8,,6.21,29.88189,,,,,,TRUE,,,,,OVC,500,,,,,,,IFR,,,,,,,,,,,,METAR,102.0
LRTR 111930Z 11005KT 3500 BR OVC003 04/04 Q1006,LRTR,2020-12-11T19:30:00Z,45.82,21.33,4.0,4.0,110,5,,2.17,29.704725,,,,,,,,,,BR,OVC,300,,,,,,,LIFR,,,,,,,,,,,,METAR,104.0
LRTM 111930Z AUTO 21001KT 1400 R07/1800N FG FEW005/// SCT008/// 05/05 Q1006,LRTM,2020-12-11T19:30:00Z,46.47,24.42,5.0,5.0,210,1,,0.87,29.704725,,,TRUE,,,,,,,FG,FEW,500,SCT,800,,,,,LIFR,,,,,,,,,,,,METAR,289.0
LRTC 111930Z AUTO 04006KT 6000 FEW009/// SCT011/// BKN027/// 09/09 Q1008,LRTC,2020-12-11T19:30:00Z,45.07,28.72,9.0,9.0,40,6,,3.73,29.763779,,,TRUE,,,,,,,,FEW,900,SCT,1100,BKN,2700,,,MVFR,,,,,,,,,,,,METAR,52.0
LRSV 111930Z 09011KT 0100 R34/0350N -FZDZ FZFG VV001 M01/M01 Q1009 R16/29//95,LRSV,2020-12-11T19:30:00Z,47.68,26.35,-1.0,-1.0,90,11,,0.06,29.793306,,,,,,,,,,-FZDZ FZFG,OVX,0,,,,,,,LIFR,,,,,,,,,,,100,METAR,406.0
LRSM 111930Z AUTO 30003KT 3200 BR BKN009/// OVC011/// 04/04 Q1007,LRSM,2020-12-11T19:30:00Z,47.7,22.88,4.0,4.0,300,3,,1.99,29.734253,,,TRUE,,,,,,,BR,BKN,900,OVC,1100,,,,,IFR,,,,,,,,,,,,METAR,123.0
LRSB 111930Z 12002KT 7000 -RA SCT005 OVC040 04/04 Q1006 R27/29//95,LRSB,2020-12-11T19:30:00Z,45.78,24.08,4.0,4.0,120,2,,4.35,29.704725,,,,,,,,,,-RA,SCT,500,OVC,4000,,,,,MVFR,,,,,,,,,,,,METAR,442.0
LROP 111930Z VRB02KT 6000 OVC005 04/04 Q1009 R08R/29//95 NOSIG,LROP,2020-12-11T19:30:00Z,44.57,26.1,4.0,4.0,0,2,,3.73,29.793306,,,,,,TRUE,,,,,OVC,500,,,,,,,IFR,,,,,,,,,,,,SPECI,92.0
LROD 111930Z AUTO 13002KT 4300 BR SCT002/// OVC004/// 04/04 Q1007,LROD,2020-12-11T19:30:00Z,47.03,21.88,4.0,4.0,130,2,,2.67,29.734253,,,TRUE,,,,,,,BR,SCT,200,OVC,400,,,,,LIFR,,,,,,,,,,,,METAR,132.0
LRIA 111930Z 10006KT 9000 -DZ BKN005 01/00 Q1012 R14/19//95,LRIA,2020-12-11T19:30:00Z,47.17,27.62,1.0,0.0,100,6,,5.59,29.88189,,,,,,,,,,-DZ,BKN,500,,,,,,,IFR,,,,,,,,,,,,METAR,71.0
LRCV 111930Z 06002KT 0500 FG BKN001 BKN010 04/04 Q1007 R27/29//95,LRCV,2020-12-11T19:30:00Z,44.32,23.88,4.0,4.0,60,2,,0.31,29.734253,,,,,,,,,,FG,BKN,100,BKN,1000,,,,,LIFR,,,,,,,,,,,,METAR,192.0
LRCL 111930Z 01002KT 1800 BR FEW008 OVC039 04/04 Q1006 R07/29//95,LRCL,2020-12-11T19:30:00Z,46.78,23.68,4.0,4.0,10,2,,1.12,29.704725,,,,,,,,,,BR,FEW,800,OVC,3900,,,,,IFR,,,,,,,,,,,,METAR,313.0
LRCK 111930Z 28009KT 9999 SCT008 BKN029 06/06 Q1008 R18/290295 NOSIG,LRCK,2020-12-11T19:30:00Z,44.37,28.48,6.0,6.0,280,9,,6.21,29.763779,,,,,,TRUE,,,,,SCT,800,BKN,2900,,,,,MVFR,,,,,,,,,,,,SPECI,108.0
LRBS 111930Z VRB01KT 3000 BR OVC003 04/04 Q1009 R07/29//95 NOSIG,LRBS,2020-12-11T19:30:00Z,44.5,26.08,4.0,4.0,0,1,,1.86,29.793306,,,,,,TRUE,,,,BR,OVC,300,,,,,,,LIFR,,,,,,,,,,,,SPECI,91.0
LRBM 111930Z AUTO VRB01KT 2800 -SHSN FEW007/// BKN050/// ///// Q1007,LRBM,2020-12-11T19:30:00Z,47.67,23.47,,,0,1,,1.74,29.734253,,,TRUE,,,,,,,-SHSN,FEW,700,BKN,5000,,,,,IFR,,,,,,,,,,,,METAR,180.0
LRBC 111930Z 17003KT 5000 RA BR BKN006 BKN026 03/03 Q1010 R16/29//95,LRBC,2020-12-11T19:30:00Z,46.52,26.92,3.0,3.0,170,3,,3.11,29.822834,,,,,,,,,,RA BR,BKN,600,BKN,2600,,,,,IFR,,,,,,,,,,,,METAR,183.0
LRAR 111930Z 12002KT 5000 BR BKN002 OVC004 04/03 Q1007,LRAR,2020-12-11T19:30:00Z,46.18,21.27,4.0,3.0,120,2,,3.11,29.734253,,,,,,,,,,BR,BKN,200,OVC,400,,,,,LIFR,,,,,,,,,,,,METAR,102.0
LQMO 111930Z VRB02KT 9000 FEW040 SCT055 08/07 Q1002,LQMO,2020-12-11T19:30:00Z,43.28,17.83,8.0,7.0,0,2,,5.59,29.586615,,,,,,,,,,,FEW,4000,SCT,5500,,,,,VFR,,,,,,,,,,,,METAR,49.0
LPPT 111930Z 28008KT 230V330 3000 -DZ BR FEW003 BKN005 16/16 Q1018,LPPT,2020-12-11T19:30:00Z,38.77,-9.13,16.0,16.0,280,8,,1.86,30.059055,,,,,,,,,,-DZ BR,FEW,300,BKN,500,,,,,IFR,,,,,,,,,,,,METAR,98.0
LPPS 111930Z 34009KT 9999 SCT015 BKN030 17/14 Q1026,LPPS,2020-12-11T19:30:00Z,33.07,-16.35,17.0,14.0,340,9,,6.21,30.295275,,,,,,,,,,,SCT,1500,BKN,3000,,,,,MVFR,,,,,,,,,,,,METAR,89.0
LPPR 111930Z VRB01KT 9000 FEW008 SCT016 15/14 Q1015,LPPR,2020-12-11T19:30:00Z,41.23,-8.68,15.0,14.0,0,1,,5.59,29.970472,,,,,,,,,,,FEW,800,SCT,1600,,,,,VFR,,,,,,,,,,,,METAR,64.0
LPPD 111930Z 24010KT 9999 FEW008 16/15 Q1024,LPPD,2020-12-11T19:30:00Z,37.73,-25.68,16.0,15.0,240,10,,6.21,30.236221,,,,,,,,,,,FEW,800,,,,,,,VFR,,,,,,,,,,,,METAR,62.0
LPMA 111930Z 35007KT 310V030 9999 SCT015 SCT030 17/13 Q1026,LPMA,2020-12-11T19:30:00Z,32.7,-16.77,17.0,13.0,350,7,,6.21,30.295275,,,,,,,,,,,SCT,1500,SCT,3000,,,,,VFR,,,,,,,,,,,,METAR,54.0
LPHR 111930Z 24014KT 9999 FEW012 BKN035 18/15 Q1022,LPHR,2020-12-11T19:30:00Z,38.52,-28.72,18.0,15.0,240,14,,6.21,30.177166,,,,,,,,,,,FEW,1200,BKN,3500,,,,,VFR,,,,,,,,,,,,METAR,39.0
LPFR 111930Z 27014KT 9999 FEW010 16/16 Q1020,LPFR,2020-12-11T19:30:00Z,37.02,-7.97,16.0,16.0,270,14,,6.21,30.11811,,,,,,,,,,,FEW,1000,,,,,,,VFR,,,,,,,,,,,,METAR,3.0
LPAZ 111930Z 26006KT 9999 FEW010 SCT020 BKN032 16/14 Q1025,LPAZ,2020-12-11T19:30:00Z,36.97,-25.17,16.0,14.0,260,6,,6.21,30.265747,,,,,,,,,,,FEW,1000,SCT,2000,BKN,3200,,,VFR,,,,,,,,,,,,METAR,96.0
LKTB 111930Z 13012KT 7000 OVC006 02/01 Q1003 R27/29//95 TEMPO 4500 BR,LKTB,2020-12-11T19:30:00Z,49.15,16.68,2.0,1.0,130,12,,4.35,29.616142,,,,,,,,,,,OVC,600,,,,,,,IFR,,,,,,,,,,,,SPECI,233.0
LKPR 111930Z 14006KT 100V170 9999 OVC013 02/M01 Q1000 NOSIG,LKPR,2020-12-11T19:30:00Z,50.1,14.27,2.0,-1.0,140,6,,6.21,29.52756,,,,,,TRUE,,,,,OVC,1300,,,,,,,MVFR,,,,,,,,,,,,METAR,364.0
LKPD 111930Z 12006KT 9999 OVC017 03/01 Q1001 NOSIG RMK WHT WHT,LKPD,2020-12-11T19:30:00Z,50.02,15.73,3.0,1.0,120,6,,6.21,29.557087,,,,,,TRUE,,,,,OVC,1700,,,,,,,MVFR,,,,,,,,,,,,SPECI,226.0
LKNA 111930Z 13015KT 0200 R12/1000N -RA FG OVC001 00/00 Q1001 NOSIG RMK RED RED,LKNA,2020-12-11T19:30:00Z,49.17,16.12,0.0,0.0,130,15,,0.12,29.557087,,,,,,TRUE,,,,-RA FG,OVC,100,,,,,,,LIFR,,,,,,,,,,,,SPECI,460.0
LKMT 111930Z 00000KT 5000 R22/0500 R04/1900D BR MIFG NSC M02/M03 Q1003 BECMG 2500 BR,LKMT,2020-12-11T19:30:00Z,49.68,18.12,-2.0,-3.0,0,0,,3.11,29.616142,,,,,,,,,,MIFG BR,CLR,,,,,,,,MVFR,,,,,,,,,,,,SPECI,251.0
LKLN 111930Z AUTO 10004KT 9999 OVC012 02/01 Q0999,LKLN,2020-12-11T19:30:00Z,49.68,13.27,2.0,1.0,100,4,,6.21,29.498032,,,TRUE,,,,,,,,OVC,1200,,,,,,,MVFR,,,,,,,,,,,,METAR,353.0
LKKB 111930Z 12006KT 9999 OVC016 02/M01 Q1000 NOSIG,LKKB,2020-12-11T19:30:00Z,50.12,14.53,2.0,-1.0,120,6,,6.21,29.52756,,,,,,TRUE,,,,,OVC,1600,,,,,,,MVFR,,,,,,,,,,,,METAR,281.0
LKCV 111930Z 13010KT 9999 OVC017 03/00 Q1001 NOSIG RMK WHT WHT,LKCV,2020-12-11T19:30:00Z,49.93,15.38,3.0,0.0,130,10,,6.21,29.557087,,,,,,TRUE,,,,,OVC,1700,,,,,,,MVFR,,,,,,,,,,,,SPECI,234.0
LJPZ 111930Z VRB02KT 9999 SCT050 BKN220 06/06 Q1002,LJPZ,2020-12-11T19:30:00Z,45.47,13.62,6.0,6.0,0,2,,6.21,29.586615,,,,,,,,,,,SCT,5000,BKN,22000,,,,,VFR,,,,,,,,,,,,METAR,2.0
LJMB 111930Z 17008KT 6000 OVC011 03/02 Q1003,LJMB,2020-12-11T19:30:00Z,46.47,15.67,3.0,2.0,170,8,,3.73,29.616142,,,,,,,,,,,OVC,1100,,,,,,,MVFR,,,,,,,,,,,,METAR,263.0
LJLJ 111930Z 27003KT 4000 BR FEW003 OVC013 02/02 Q1003 NOSIG,LJLJ,2020-12-11T19:30:00Z,46.22,14.47,2.0,2.0,270,3,,2.49,29.616142,,,,,,TRUE,,,,BR,FEW,300,OVC,1300,,,,,IFR,,,,,,,,,,,,METAR,363.0
LJCE 111930Z AUTO 11004KT 080V140 9999 OVC019/// 04/02 Q1004,LJCE,2020-12-11T19:30:00Z,45.9,15.52,4.0,2.0,110,4,,6.21,29.64567,,,TRUE,,,,,,,,OVC,1900,,,,,,,MVFR,,,,,,,,,,,,METAR,153.0
LHBP 111930Z 15005KT 9999 OVC009 03/01 Q1006 NOSIG,LHBP,2020-12-11T19:30:00Z,47.43,19.27,3.0,1.0,150,5,,6.21,29.704725,,,,,,TRUE,,,,,OVC,900,,,,,,,IFR,,,,,,,,,,,,METAR,141.0
LFYR 111930Z AUTO 24007KT 210V280 //// // FEW019 SCT024 BKN054 09/08 Q0993,LFYR,2020-12-11T19:30:00Z,47.32,1.68,9.0,8.0,240,7,,,29.320866,,,TRUE,,,,,,,,FEW,1900,SCT,2400,BKN,5400,,,,,,,,,,,,,,,METAR,83.0
LFTW 111930Z AUTO 16005KT 140V210 0400 R18/0500N FG VV/// 07/07 Q1000,LFTW,2020-12-11T19:30:00Z,43.75,4.42,7.0,7.0,160,5,,0.25,29.52756,,,TRUE,,,,,,,FG,OVX,0,,,,,,,LIFR,,,,,,,,,,,,METAR,91.0
LFTH 111930Z AUTO VRB03KT 5000 BR BKN006/// OVC014/// ///TCU 08/08 Q1001 BECMG OVC020,LFTH,2020-12-11T19:30:00Z,43.1,6.15,8.0,8.0,0,3,,3.11,29.557087,,,TRUE,,,,,,,BR,BKN,600,OVC,1400,,,,,IFR,,,,,,,,,,,,SPECI,3.0
LFSX 111930Z AUTO 09006KT 9999 FEW005 BKN014 OVC035 05/05 Q0994,LFSX,2020-12-11T19:30:00Z,47.77,6.35,5.0,5.0,90,6,,6.21,29.350393,,,TRUE,,,,,,,,FEW,500,BKN,1400,OVC,3500,,,MVFR,,,,,,,,,,,,METAR,266.0
LFST 111930Z AUTO 15005KT 5000 -RA BR BKN047/// OVC056/// ///TCU 04/03 Q0994 TEMPO SHRA BKN010,LFST,2020-12-11T19:30:00Z,48.53,7.63,4.0,3.0,150,5,,3.11,29.350393,,,TRUE,,,,,,,-RA BR,BKN,4700,OVC,5600,,,,,MVFR,,,,,,,,,,,,SPECI,149.0
LFSO 111930Z AUTO 19015KT 9999 OVC009/// ///TCU 06/05 Q0992,LFSO,2020-12-11T19:30:00Z,48.57,5.97,6.0,5.0,190,15,,6.21,29.291338,,,TRUE,,,,,,,,OVC,900,,,,,,,IFR,,,,,,,,,,,,SPECI,328.0
LFSN 111930Z AUTO 18009KT 150V210 8000 -RA OVC012/// ///TCU 06/05 Q0992,LFSN,2020-12-11T19:30:00Z,48.68,6.22,6.0,5.0,180,9,,4.97,29.291338,,,TRUE,,,,,,,-RA,OVC,1200,,,,,,,MVFR,,,,,,,,,,,,METAR,214.0
LFSL 111930Z AUTO 26006KT 220V310 9999 BKN015/// OVC045/// ///TCU 09/08 Q0999 TEMPO 2000 RA BKN008 SCT015CB,LFSL,2020-12-11T19:30:00Z,45.03,1.48,9.0,8.0,260,6,,6.21,29.498032,,,TRUE,,,,,,,,BKN,1500,OVC,4500,,,,,MVFR,,,,,,,,,,,,SPECI,300.0
LFSI 111930Z AUTO 16009KT 9999 -RA FEW017/// BKN040/// BKN052/// ///TCU 08/06 Q0991,LFSI,2020-12-11T19:30:00Z,48.62,4.9,8.0,6.0,160,9,,6.21,29.26181,,,TRUE,,,,,,,-RA,FEW,1700,BKN,4000,BKN,5200,,,VFR,,,,,,,,,,,,METAR,136.0
LFSG 111930Z AUTO 19015KT 9999 OVC010 06/04 Q0993,LFSG,2020-12-11T19:30:00Z,48.33,6.07,6.0,4.0,190,15,,6.21,29.320866,,,TRUE,,,,,,,,OVC,1000,,,,,,,MVFR,,,,,,,,,,,,METAR,320.0
LFSD 111930Z AUTO 19012KT 9999 OVC010/// ///TCU 06/06 Q0994,LFSD,2020-12-11T19:30:00Z,47.27,5.08,6.0,6.0,190,12,,6.21,29.350393,,,TRUE,,,,,,,,OVC,1000,,,,,,,MVFR,,,,,,,,,,,,SPECI,218.0
LFSB 111930Z AUTO 14009KT 9999 BKN049/// OVC058/// ///CB 04/02 Q0995 TEMPO 4000 SHRA,LFSB,2020-12-11T19:30:00Z,47.6,7.52,4.0,2.0,140,9,,6.21,29.379921,,,TRUE,,,,,,,,BKN,4900,OVC,5800,,,,,VFR,,,,,,,,,,,,SPECI,262.0
LFRZ 111930Z AUTO 26008KT 9999 FEW024 BKN032 BKN039 10/09 Q0994 TEMPO 4000 SHRA BKN014 BKN025TCU,LFRZ,2020-12-11T19:30:00Z,47.32,-2.17,10.0,9.0,260,8,,6.21,29.350393,,,TRUE,,,,,,,,FEW,2400,BKN,3200,BKN,3900,,,VFR,,,,,,,,,,,,METAR,2.0
LFRV 111930Z AUTO 26006KT 9999 FEW035 SCT090 09/08 Q0993,LFRV,2020-12-11T19:30:00Z,47.72,-2.72,9.0,8.0,260,6,,6.21,29.320866,,,TRUE,,,,,,,,FEW,3500,SCT,9000,,,,,VFR,,,,,,,,,,,,METAR,132.0
LFRT 111930Z AUTO 27012KT 9999 BKN015/// BKN033/// OVC040/// ///TCU 09/07 Q0991,LFRT,2020-12-11T19:30:00Z,48.53,-2.85,9.0,7.0,270,12,,6.21,29.26181,,,TRUE,,,,,,,,BKN,1500,BKN,3300,OVC,4000,,,MVFR,,,,,,,,,,,,SPECI,134.0
LFRS 111930Z AUTO 25010KT 220V280 9999 FEW025/// BKN052/// ///CB 10/08 Q0994 TEMPO 4000 SHRA BKN014 BKN025TCU,LFRS,2020-12-11T19:30:00Z,47.17,-1.6,10.0,8.0,250,10,,6.21,29.350393,,,TRUE,,,,,,,,FEW,2500,BKN,5200,,,,,VFR,,,,,,,,,,,,SPECI,26.0
LFRQ 111930Z AUTO 29012KT 9999 -RA SCT020/// BKN033/// BKN041/// ///TCU 10/08 Q0994 TEMPO 31018G33KT 4000 SHRA BKN014 BKN020TCU,LFRQ,2020-12-11T19:30:00Z,47.97,-4.17,10.0,8.0,290,12,,6.21,29.350393,,,TRUE,,,,,,,-RA,SCT,2000,BKN,3300,BKN,4100,,,VFR,,,,,,,,,,,,SPECI,94.0
LFRO 111930Z AUTO 28019G29KT 9999 BKN018/// OVC024/// ///CB 10/08 Q0993,LFRO,2020-12-11T19:30:00Z,48.75,-3.47,10.0,8.0,280,19,29,6.21,29.320866,,,TRUE,,,,,,,,BKN,1800,OVC,2400,,,,,MVFR,,,,,,,,,,,,SPECI,86.0
LFRN 111930Z AUTO 24010KT 220V280 CAVOK 10/08 Q0992 TEMPO 4000 SHRA BKN014CB,LFRN,2020-12-11T19:30:00Z,48.07,-1.73,10.0,8.0,240,10,,6.21,29.291338,,,TRUE,,,,,,,,CAVOK,,,,,,,,VFR,,,,,,,,,,,,SPECI,35.0
LFRM 111930Z AUTO 23007KT 190V260 9999 -RA FEW033/// BKN047/// OVC058/// ///TCU 10/08 Q0992 TEMPO 4000 SHRA BKN012 BKN020CB,LFRM,2020-12-11T19:30:00Z,47.95,0.2,10.0,8.0,230,7,,6.21,29.291338,,,TRUE,,,,,,,-RA,FEW,3300,BKN,4700,OVC,5800,,,VFR,,,,,,,,,,,,SPECI,51.0
LFRL 111930Z AUTO 30017KT 9999 SCT014/// BKN020/// BKN029/// ///TCU 10/08 Q0994,LFRL,2020-12-11T19:30:00Z,48.27,-4.43,10.0,8.0,300,17,,6.21,29.350393,,,TRUE,,,,,,,,SCT,1400,BKN,2000,BKN,2900,,,MVFR,,,,,,,,,,,,METAR,80.0
LFRK 111930Z AUTO 23010KT 9999 BKN013 BKN054 BKN064 09/08 Q0990 TEMPO 3000 SHRA BKN014CB,LFRK,2020-12-11T19:30:00Z,49.17,-0.45,9.0,8.0,230,10,,6.21,29.232283,,,TRUE,,,,,,,,BKN,1300,BKN,5400,BKN,6400,,,MVFR,,,,,,,,,,,,SPECI,66.0
LFRJ 111930Z AUTO 28014KT 9999 SCT018/// BKN029/// BKN050/// ///TCU 09/08 Q0993,LFRJ,2020-12-11T19:30:00Z,48.52,-4.15,9.0,8.0,280,14,,6.21,29.320866,,,TRUE,,,,,,,,SCT,1800,BKN,2900,BKN,5000,,,MVFR,,,,,,,,,,,,METAR,109.0
LFRI 111930Z AUTO 24006KT 9999 FEW013/// SCT022/// BKN034/// ///CB 09/08 Q0995 TEMPO 4000 SHRA BKN014 BKN020TCU,LFRI,2020-12-11T19:30:00Z,46.7,-1.37,9.0,8.0,240,6,,6.21,29.379921,,,TRUE,,,,,,,,FEW,1300,SCT,2200,BKN,3400,,,VFR,,,,,,,,,,,,METAR,89.0
LFRH 111930Z AUTO 28009KT 9999 FEW023 SCT038 BKN080 10/07 Q0994 TEMPO 28020G30KT 4900 SHRA SCT010CB SCT015TCU,LFRH,2020-12-11T19:30:00Z,47.77,-3.45,10.0,7.0,280,9,,6.21,29.350393,,,TRUE,,,,,,,,FEW,2300,SCT,3800,BKN,8000,,,VFR,,,,,,,,,,,,SPECI,46.0
LFRG 111930Z AUTO 22007KT 9999 SCT010 BKN016 BKN039 09/08 Q0990 TEMPO 3000 SHRA BKN014CB,LFRG,2020-12-11T19:30:00Z,49.37,0.15,9.0,8.0,220,7,,6.21,29.232283,,,TRUE,,,,,,,,SCT,1000,BKN,1600,BKN,3900,,,MVFR,,,,,,,,,,,,SPECI,146.0
LFRD 111930Z AUTO 24009KT 9999 -RA BKN017 BKN024 OVC040 09/08 Q0991 TEMPO 3000 SHRA BKN014CB BECMG 27015G25KT,LFRD,2020-12-11T19:30:00Z,48.58,-2.07,9.0,8.0,240,9,,6.21,29.26181,,,TRUE,,,,,,,-RA,BKN,1700,BKN,2400,OVC,4000,,,MVFR,,,,,,,,,,,,SPECI,56.0
LFRC 111930Z AUTO 26008KT 9999 FEW019 SCT042 BKN048 08/08 Q0989,LFRC,2020-12-11T19:30:00Z,49.63,-1.47,8.0,8.0,260,8,,6.21,29.202755,,,TRUE,,,,,,,,FEW,1900,SCT,4200,BKN,4800,,,VFR,,,,,,,,,,,,METAR,137.0
LFRB 111930Z AUTO 29012KT 9999 BKN015/// BKN020/// BKN028/// ///TCU 10/08 Q0993 TEMPO 30020G35KT SHRA,LFRB,2020-12-11T19:30:00Z,48.45,-4.42,10.0,8.0,290,12,,6.21,29.320866,,,TRUE,,,,,,,,BKN,1500,BKN,2000,BKN,2800,,,MVFR,,,,,,,,,,,,SPECI,91.0
LFQQ 111930Z AUTO 16004KT 7000 -DZ FEW031/// BKN066/// BKN086/// ///TCU 08/07 Q0988 TEMPO 3000 SHRA BKN005 BKN015TCU,LFQQ,2020-12-11T19:30:00Z,50.57,3.1,8.0,7.0,160,4,,4.35,29.17323,,,TRUE,,,,,,,-DZ,FEW,3100,BKN,6600,BKN,8600,,,MVFR,,,,,,,,,,,,SPECI,43.0
LFQB 111930Z AUTO 17006KT 9999 RA FEW019/// OVC050/// ///TCU 09/08 Q0991,LFQB,2020-12-11T19:30:00Z,48.32,4.02,9.0,8.0,170,6,,6.21,29.26181,,,TRUE,,,,,,,RA,FEW,1900,OVC,5000,,,,,VFR,,,,,,,,,,,,METAR,107.0
LFQA 111930Z AUTO 13005KT 5000 -RA BR FEW008/// BKN026/// OVC035/// ///TCU 08/08 Q0990,LFQA,2020-12-11T19:30:00Z,49.2,4.15,8.0,8.0,130,5,,3.11,29.232283,,,TRUE,,,,,,,-RA BR,FEW,800,BKN,2600,OVC,3500,,,MVFR,,,,,,,,,,,,METAR,92.0
LFPV 111930Z AUTO 25005KT 9999 FEW010 SCT062 BKN076 09/08 Q0990 TEMPO 4000 SHRA BKN015TCU,LFPV,2020-12-11T19:30:00Z,48.77,2.2,9.0,8.0,250,5,,6.21,29.232283,,,TRUE,,,,,,,,FEW,1000,SCT,6200,BKN,7600,,,VFR,,,,,,,,,,,,SPECI,171.0
LFPT 111930Z AUTO 28005KT 9999 SCT022 BKN028 09/07 Q0990,LFPT,2020-12-11T19:30:00Z,49.1,2.03,9.0,7.0,280,5,,6.21,29.232283,,,TRUE,,,,,,,,SCT,2200,BKN,2800,,,,,MVFR,,,,,,,,,,,,METAR,91.0
LFPO 111930Z 24004KT 9999 FEW019 SCT031 BKN062 09/09 Q0991 NOSIG,LFPO,2020-12-11T19:30:00Z,48.72,2.38,9.0,9.0,240,4,,6.21,29.26181,,,,,,TRUE,,,,,FEW,1900,SCT,3100,BKN,6200,,,VFR,,,,,,,,,,,,METAR,88.0
LFPN 111930Z AUTO 26006KT CAVOK 08/08 Q0990 TEMPO 4000 -SHRA BKN008 SCT015TCU,LFPN,2020-12-11T19:30:00Z,48.75,2.12,8.0,8.0,260,6,,6.21,29.232283,,,TRUE,,,,,,,,CAVOK,,,,,,,,VFR,,,,,,,,,,,,SPECI,152.0
LFPM 111930Z AUTO 24009KT 9999 OVC017 09/09 Q0991,LFPM,2020-12-11T19:30:00Z,48.62,2.67,9.0,9.0,240,9,,6.21,29.26181,,,TRUE,,,,,,,,OVC,1700,,,,,,,MVFR,,,,,,,,,,,,METAR,91.0
LFPG 111930Z 25007KT 9999 -RA FEW007 BKN060 09/08 Q0990 NOSIG,LFPG,2020-12-11T19:30:00Z,49.02,2.53,9.0,8.0,250,7,,6.21,29.232283,,,,,,TRUE,,,,-RA,FEW,700,BKN,6000,,,,,VFR,,,,,,,,,,,,METAR,107.0
LFPB 111930Z AUTO 25005KT CAVOK ///// Q0990 TEMPO BKN015TCU,LFPB,2020-12-11T19:30:00Z,48.97,2.42,,,250,5,,6.21,29.232283,,,TRUE,,,,,,,,CAVOK,,,,,,,,VFR,,,,,,,,,,,,METAR,50.0
LFOZ 111930Z AUTO 25009KT 9999 FEW010/// SCT034/// OVC047/// ///TCU 09/08 Q0992,LFOZ,2020-12-11T19:30:00Z,47.9,2.17,9.0,8.0,250,9,,6.21,29.291338,,,TRUE,,,,,,,,FEW,1000,SCT,3400,OVC,4700,,,VFR,,,,,,,,,,,,METAR,121.0
LFOV 111930Z AUTO 23007KT 200V260 9999 FEW041 BKN150 OVC170 09/08 Q0992,LFOV,2020-12-11T19:30:00Z,48.03,-0.75,9.0,8.0,230,7,,6.21,29.291338,,,TRUE,,,,,,,,FEW,4100,BKN,15000,OVC,17000,,,VFR,,,,,,,,,,,,METAR,99.0
LFOT 111930Z AUTO 23010KT CAVOK 09/07 Q0993 TEMPO 4000 -RA BKN012 BECMG 22015G25KT,LFOT,2020-12-11T19:30:00Z,47.43,0.72,9.0,7.0,230,10,,6.21,29.320866,,,TRUE,,,,,,,,CAVOK,,,,,,,,VFR,,,,,,,,,,,,METAR,107.0
LFOP 111930Z AUTO 24007KT 9999 BKN014 BKN019 07/06 Q0990 TEMPO 3000 SHRA BKN005 BKN015TCU,LFOP,2020-12-11T19:30:00Z,49.37,1.17,7.0,6.0,240,7,,6.21,29.232283,,,TRUE,,,,,,,,BKN,1400,BKN,1900,,,,,MVFR,,,,,,,,,,,,SPECI,149.0
LFOK 111930Z AUTO 17011KT 9999 -RA FEW009/// SCT016/// BKN022/// ///CB 08/08 Q0990 TEMPO 3000 SHRA BKN005 BKN015TCU BECMG 24010KT,LFOK,2020-12-11T19:30:00Z,48.78,4.15,8.0,8.0,170,11,,6.21,29.232283,,,TRUE,,,,,,,-RA,FEW,900,SCT,1600,BKN,2200,,,MVFR,,,,,,,,,,,,SPECI,166.0
LFOJ 111930Z AUTO 25009KT 9999 FEW036 OVC054 09/07 Q0992,LFOJ,2020-12-11T19:30:00Z,47.98,1.75,9.0,7.0,250,9,,6.21,29.291338,,,TRUE,,,,,,,,FEW,3600,OVC,5400,,,,,VFR,,,,,,,,,,,,METAR,122.0
LFOH 111930Z AUTO 23010KT 9999 BKN018 BKN034 10/09 Q0989,LFOH,2020-12-11T19:30:00Z,49.52,0.08,10.0,9.0,230,10,,6.21,29.202755,,,TRUE,,,,,,,,BKN,1800,BKN,3400,,,,,MVFR,,,,,,,,,,,,METAR,87.0
LFOE 111930Z AUTO 22006KT 9999 FEW026 OVC035 08/07 Q0990,LFOE,2020-12-11T19:30:00Z,49.02,1.22,8.0,7.0,220,6,,6.21,29.232283,,,TRUE,,,,,,,,FEW,2600,OVC,3500,,,,,VFR,,,,,,,,,,,,METAR,132.0
LFOC 111930Z AUTO 24009KT 9999 ////// 08/07 Q0992,LFOC,2020-12-11T19:30:00Z,48.05,1.37,8.0,7.0,240,9,,6.21,29.291338,,,TRUE,,,,,,,,,,,,,,,,,,,,,,,,,,,,METAR,124.0
LFOB 111930Z AUTO 25006KT 9999 OVC014 09/08 Q0990 TEMPO 3000 SHRA BKN005 BKN015TCU,LFOB,2020-12-11T19:30:00Z,49.47,2.12,9.0,8.0,250,6,,6.21,29.232283,,,TRUE,,,,,,,,OVC,1400,,,,,,,MVFR,,,,,,,,,,,,SPECI,99.0
LFOA 111930Z AUTO 25015KT 9999 FEW016 BKN023 BKN031 09/08 Q0994,LFOA,2020-12-11T19:30:00Z,47.05,2.63,9.0,8.0,250,15,,6.21,29.350393,,,TRUE,,,,,,,,FEW,1600,BKN,2300,BKN,3100,,,MVFR,,,,,,,,,,,,METAR,174.0
LFMY 111930Z AUTO 07007KT 030V090 9999 OVC013 07/06 Q1000,LFMY,2020-12-11T19:30:00Z,43.6,5.1,7.0,6.0,70,7,,6.21,29.52756,,,TRUE,,,,,,,,OVC,1300,,,,,,,MVFR,,,,,,,,,,,,METAR,57.0
LFMV 111930Z AUTO 13008KT 100V160 9999 FEW008 BKN025 BKN030 07/06 Q1000 TEMPO 4000 BR BKN006 BKN033TCU,LFMV,2020-12-11T19:30:00Z,43.9,4.9,7.0,6.0,130,8,,6.21,29.52756,,,TRUE,,,,,,,,FEW,800,BKN,2500,BKN,3000,,,MVFR,,,,,,,,,,,,SPECI,33.0
LFMU 111930Z AUTO 26003KT 4000 BR FEW013/// BKN076/// BKN088/// ///TCU 07/06 Q1001 BECMG 9999 NSW BKN020,LFMU,2020-12-11T19:30:00Z,43.32,3.35,7.0,6.0,260,3,,2.49,29.557087,,,TRUE,,,,,,,BR,FEW,1300,BKN,7600,BKN,8800,,,IFR,,,,,,,,,,,,SPECI,14.0
LFMT 111930Z AUTO 28002KT 5000 BR BKN015 BKN036 BKN058 06/05 Q1000 TEMPO 2000 BR BKN006 BKN030TCU,LFMT,2020-12-11T19:30:00Z,43.57,3.97,6.0,5.0,280,2,,3.11,29.52756,,,TRUE,,,,,,,BR,BKN,1500,BKN,3600,BKN,5800,,,MVFR,,,,,,,,,,,,SPECI,1.0
LFMP 111930Z AUTO 30009G20KT 260V330 9999 FEW027/// SCT043/// BKN050/// ///TCU 13/07 Q1002 TEMPO 28020G30KT BECMG NSC,LFMP,2020-12-11T19:30:00Z,42.73,2.87,13.0,7.0,300,9,20,6.21,29.586615,,,TRUE,,,,,,,,FEW,2700,SCT,4300,BKN,5000,,,VFR,,,,,,,,,,,,SPECI,41.0
LFMO 111930Z AUTO 34002KT 6000 FEW009/// OVC017/// ///TCU 06/06 Q1000 BECMG 4000 BR BKN020 OVC030,LFMO,2020-12-11T19:30:00Z,44.13,4.87,6.0,6.0,340,2,,3.73,29.52756,,,TRUE,,,,,,,,FEW,900,OVC,1700,,,,,MVFR,,,,,,,,,,,,SPECI,56.0
LFMN 111930Z 34007KT 9999 OVC029 08/04 Q1002 NOSIG,LFMN,2020-12-11T19:30:00Z,43.65,7.2,8.0,4.0,340,7,,6.21,29.586615,,,,,,TRUE,,,,,OVC,2900,,,,,,,MVFR,,,,,,,,,,,,METAR,4.0
LFML 111930Z AUTO VRB02KT 9999 -RA BKN011/// OVC016/// ///CB 10/09 Q1000 TEMPO 4000 SHRA OVC011,LFML,2020-12-11T19:30:00Z,43.45,5.22,10.0,9.0,0,2,,6.21,29.52756,,,TRUE,,,,,,,-RA,BKN,1100,OVC,1600,,,,,MVFR,,,,,,,,,,,,SPECI,20.0
LFMK 111930Z AUTO 28013KT 9999 BKN028/// BKN035/// BKN050/// ///TCU 11/09 Q1002,LFMK,2020-12-11T19:30:00Z,43.22,2.32,11.0,9.0,280,13,,6.21,29.586615,,,TRUE,,,,,,,,BKN,2800,BKN,3500,BKN,5000,,,MVFR,,,,,,,,,,,,METAR,124.0
LFMI 111930Z AUTO 10005KT 9000 BKN006 BKN140 OVC160 08/08 Q1000 TEMPO 4000 SHRA BR BKN009 BKN033TCU,LFMI,2020-12-11T19:30:00Z,43.52,4.93,8.0,8.0,100,5,,5.59,29.52756,,,TRUE,,,,,,,,BKN,600,BKN,14000,OVC,16000,,,IFR,,,,,,,,,,,,METAR,20.0
LFMH 111930Z AUTO 19011KT 9999 FEW054/// SCT100/// OVC130/// ///TCU 08/04 Q0996 BECMG SCT030 BKN050,LFMH,2020-12-11T19:30:00Z,45.52,4.28,8.0,4.0,190,11,,6.21,29.409449,,,TRUE,,,,,,,,FEW,5400,SCT,10000,OVC,13000,,,VFR,,,,,,,,,,,,SPECI,400.0
LFMD 111930Z AUTO 01003KT 6000 OVC027 08/07 Q1002,LFMD,2020-12-11T19:30:00Z,43.53,6.95,8.0,7.0,10,3,,3.73,29.586615,,,TRUE,,,,,,,,OVC,2700,,,,,,,MVFR,,,,,,,,,,,,METAR,2.0
LFMC 111930Z AUTO 00000KT 4000 -RA BR FEW004/// BKN015/// OVC025/// ///TCU 05/04 Q1001,LFMC,2020-12-11T19:30:00Z,43.37,6.38,5.0,4.0,0,0,,2.49,29.557087,,,TRUE,,,,,,,-RA BR,FEW,400,BKN,1500,OVC,2500,,,IFR,,,,,,,,,,,,METAR,79.0
LFLY 111930Z AUTO 19020KT 9999 -RA FEW044/// BKN052/// OVC078/// ///CB 08/05 Q0996 TEMPO 18025G35KT 4000 SHRA BKN025,LFLY,2020-12-11T19:30:00Z,45.72,4.95,8.0,5.0,190,20,,6.21,29.409449,,,TRUE,,,,,,,-RA,FEW,4400,BKN,5200,OVC,7800,,,VFR,,,,,,,,,,,,SPECI,197.0
LFLX 111930Z AUTO 24015KT 9999 FEW015 BKN023 BKN030 09/08 Q0995 TEMPO 4000 -RA BKN012 BECMG 22015G25KT,LFLX,2020-12-11T19:30:00Z,46.87,1.73,9.0,8.0,240,15,,6.21,29.379921,,,TRUE,,,,,,,,FEW,1500,BKN,2300,BKN,3000,,,MVFR,,,,,,,,,,,,METAR,157.0
LFLW 111930Z AUTO 27009KT 230V320 9999 BKN016/// BKN024/// BKN035/// ///CB 07/06 Q0999,LFLW,2020-12-11T19:30:00Z,44.88,2.42,7.0,6.0,270,9,,6.21,29.498032,,,TRUE,,,,,,,,BKN,1600,BKN,2400,BKN,3500,,,MVFR,,,,,,,,,,,,METAR,638.0
LFLS 111930Z AUTO 20004KT 120V260 9999 BKN014/// BKN029/// OVC062/// ///CB 05/04 Q0998 TEMPO 4000 RA BKN012,LFLS,2020-12-11T19:30:00Z,45.37,5.32,5.0,4.0,200,4,,6.21,29.468504,,,TRUE,,,,,,,,BKN,1400,BKN,2900,OVC,6200,,,MVFR,,,,,,,,,,,,SPECI,386.0
LFLP 111930Z AUTO 29006KT 250V320 9000 -RA BKN044/// OVC056/// ///TCU 03/02 Q0997 BECMG OVC035,LFLP,2020-12-11T19:30:00Z,45.92,6.1,3.0,2.0,290,6,,5.59,29.438976,,,TRUE,,,,,,,-RA,BKN,4400,OVC,5600,,,,,VFR,,,,,,,,,,,,METAR,460.0
LFLN 111930Z AUTO 19006KT 9999 BKN028/// BKN034/// OVC052/// ///TCU 08/07 Q0995 TEMPO 3000 SHRA,LFLN,2020-12-11T19:30:00Z,46.42,4.02,8.0,7.0,190,6,,6.21,29.379921,,,TRUE,,,,,,,,BKN,2800,BKN,3400,OVC,5200,,,MVFR,,,,,,,,,,,,METAR,238.0
LFLL 111930Z 19017KT 9999 -RA SCT050 BKN064 07/05 Q0996 NOSIG,LFLL,2020-12-11T19:30:00Z,45.72,5.07,7.0,5.0,190,17,,6.21,29.409449,,,,,,TRUE,,,,-RA,SCT,5000,BKN,6400,,,,,VFR,,,,,,,,,,,,METAR,234.0
LFLC 111930Z AUTO 26011G21KT 9999 SCT034 BKN074 BKN100 11/04 Q0996 NOSIG,LFLC,2020-12-11T19:30:00Z,45.78,3.17,11.0,4.0,260,11,21,6.21,29.409449,,,TRUE,,,TRUE,,,,,SCT,3400,BKN,7400,BKN,10000,,,VFR,,,,,,,,,,,,METAR,325.0
LFLB 111930Z AUTO 19010KT 9999 -RA BKN052/// BKN070/// OVC082/// ///TCU 05/03 Q0998 BECMG SCT020 OVC040,LFLB,2020-12-11T19:30:00Z,45.63,5.87,5.0,3.0,190,10,,6.21,29.468504,,,TRUE,,,,,,,-RA,BKN,5200,BKN,7000,OVC,8200,,,VFR,,,,,,,,,,,,SPECI,234.0
LFKS 111930Z AUTO 28005KT 250V310 9999 ////// 09/05 Q1002,LFKS,2020-12-11T19:30:00Z,41.92,9.4,9.0,5.0,280,5,,6.21,29.586615,,,TRUE,,,,,,,,,,,,,,,,,,,,,,,,,,,,METAR,22.0
LFKJ 111930Z AUTO 03007KT 360V060 9999 BKN056 OVC200 09/06 Q1002 TEMPO SHRA FEW030CB BKN040,LFKJ,2020-12-11T19:30:00Z,41.92,8.8,9.0,6.0,30,7,,6.21,29.586615,,,TRUE,,,,,,,,BKN,5600,OVC,20000,,,,,VFR,,,,,,,,,,,,SPECI,9.0
LFKF 111930Z AUTO VRB01KT 9999 FEW027/// BKN035/// OVC044/// ///TCU 09/09 Q1002 TEMPO SHRA,LFKF,2020-12-11T19:30:00Z,41.5,9.08,9.0,9.0,0,1,,6.21,29.586615,,,TRUE,,,,,,,,FEW,2700,BKN,3500,OVC,4400,,,VFR,,,,,,,,,,,,SPECI,15.0
LFKC 111930Z AUTO 21003KT 9999 OVC050 09/06 Q1002,LFKC,2020-12-11T19:30:00Z,42.52,8.8,9.0,6.0,210,3,,6.21,29.586615,,,TRUE,,,,,,,,OVC,5000,,,,,,,VFR,,,,,,,,,,,,METAR,38.0
LFKB 111930Z AUTO 22003KT 9999 BKN080 BKN100 BKN150 07/05 Q1002 TEMPO FEW026TCU BKN030,LFKB,2020-12-11T19:30:00Z,42.55,9.48,7.0,5.0,220,3,,6.21,29.586615,,,TRUE,,,,,,,,BKN,8000,BKN,10000,BKN,15000,,,VFR,,,,,,,,,,,,SPECI,7.0
LFJR 111930Z AUTO 23008KT 9999 BKN015/// BKN047/// OVC056/// ///TCU 10/08 Q0993,LFJR,2020-12-11T19:30:00Z,47.57,-0.32,10.0,8.0,230,8,,6.21,29.320866,,,TRUE,,,,,,,,BKN,1500,BKN,4700,OVC,5600,,,MVFR,,,,,,,,,,,,METAR,50.0
LFJL 111930Z AUTO 17011KT 6000 -RA OVC011 05/05 Q0992 TEMPO 3000 SHRA BKN006 SCT020TCU,LFJL,2020-12-11T19:30:00Z,48.97,6.25,5.0,5.0,170,11,,3.73,29.291338,,,TRUE,,,,,,,-RA,OVC,1100,,,,,,,MVFR,,,,,,,,,,,,SPECI,259.0
LFGJ 111930Z AUTO 19017KT 9999 -RA FEW036/// SCT046/// OVC052/// ///TCU 07/05 Q0994,LFGJ,2020-12-11T19:30:00Z,47.05,5.43,7.0,5.0,190,17,,6.21,29.350393,,,TRUE,,,,,,,-RA,FEW,3600,SCT,4600,OVC,5200,,,VFR,,,,,,,,,,,,METAR,191.0
LFGA 111930Z AUTO 17008KT 9999 FEW034 05/02 Q0994,LFGA,2020-12-11T19:30:00Z,48.1,7.35,5.0,2.0,170,8,,6.21,29.350393,,,TRUE,,,,,,,,FEW,3400,,,,,,,VFR,,,,,,,,,,,,METAR,191.0
LFCR 111930Z AUTO 27015KT 9999 BKN013/// OVC020/// ///TCU 08/06 Q1000 TEMPO 29018G30KT 2000 RA BKN005,LFCR,2020-12-11T19:30:00Z,44.4,2.47,8.0,6.0,270,15,,6.21,29.52756,,,TRUE,,,,,,,,BKN,1300,OVC,2000,,,,,MVFR,,,,,,,,,,,,SPECI,576.0
LFCK 111930Z AUTO 27014KT 9999 -RADZ BKN012/// OVC017/// ///CB 10/09 Q1003 TEMPO 27022G35KT 3000 RA BKN008 SCT020CB,LFCK,2020-12-11T19:30:00Z,43.55,2.28,10.0,9.0,270,14,,6.21,29.616142,,,TRUE,,,,,,,-RA -DZ,BKN,1200,OVC,1700,,,,,MVFR,,,,,,,,,,,,METAR,223.0
LFBZ 111930Z AUTO 27016KT 230V290 9999 FEW019/// SCT032/// BKN050/// ///CB 13/10 Q1005 BECMG 28015G25KT BKN025,LFBZ,2020-12-11T19:30:00Z,43.47,-1.53,13.0,10.0,270,16,,6.21,29.675198,,,TRUE,,,,,,,,FEW,1900,SCT,3200,BKN,5000,,,VFR,,,,,,,,,,,,SPECI,70.0
LFBY 111930Z AUTO 28011KT 240V310 5000 // ////// 13/09 Q1004,LFBY,2020-12-11T19:30:00Z,43.68,-1.07,13.0,9.0,280,11,,3.11,29.64567,,,TRUE,,,,,,,,,,,,,,,,,,,,,,,,,,,,METAR,32.0
LFBU 111930Z AUTO 23008KT 9999 FEW009/// SCT028/// BKN040/// ///TCU 10/09 Q0998 TEMPO 25015G25KT 3000 SHRA BKN008 BKN015TCU,LFBU,2020-12-11T19:30:00Z,45.72,0.22,10.0,9.0,230,8,,6.21,29.468504,,,TRUE,,,,,,,,FEW,900,SCT,2800,BKN,4000,,,VFR,,,,,,,,,,,,METAR,124.0
LFBT 111930Z AUTO 24016KT 9999 -RA FEW029/// SCT035/// BKN041/// ///TCU 11/06 Q1005 TEMPO 27020G35KT 3000 SHRA BKN012 BKN015TCU,LFBT,2020-12-11T19:30:00Z,43.18,0.0,11.0,6.0,240,16,,6.21,29.675198,,,TRUE,,,,,,,-RA,FEW,2900,SCT,3500,BKN,4100,,,VFR,,,,,,,,,,,,SPECI,359.0
LFBP 111930Z AUTO 26020KT 9999 -RA FEW027/// SCT034/// BKN044/// ///TCU 12/08 Q1004 TEMPO 27015G35KT 3000 SHRA FEW010CB BKN015TCU,LFBP,2020-12-11T19:30:00Z,43.38,-0.42,12.0,8.0,260,20,,6.21,29.64567,,,TRUE,,,,,,,-RA,FEW,2700,SCT,3400,BKN,4400,,,VFR,,,,,,,,,,,,SPECI,182.0
LFBO 111930Z AUTO 28016KT 9999 FEW020/// BKN025/// BKN032/// ///CB 11/09 Q1003 TEMPO 28020G30KT 4000 SHRA,LFBO,2020-12-11T19:30:00Z,43.62,1.37,11.0,9.0,280,16,,6.21,29.616142,,,TRUE,,,,,,,,FEW,2000,BKN,2500,BKN,3200,,,MVFR,,,,,,,,,,,,SPECI,150.0
LFBM 111930Z AUTO 26007KT 9999 FEW020/// BKN026/// BKN040/// ///TCU 11/09 Q1003 BECMG 27015G30KT SHRA,LFBM,2020-12-11T19:30:00Z,43.92,-0.5,11.0,9.0,260,7,,6.21,29.616142,,,TRUE,,,,,,,,FEW,2000,BKN,2600,BKN,4000,,,MVFR,,,,,,,,,,,,METAR,56.0
LFBL 111930Z AUTO 24009KT 200V260 9999 -RA OVC008/// ///TCU 08/07 Q0997 TEMPO 2000 RA BKN008 FEW020CB,LFBL,2020-12-11T19:30:00Z,45.87,1.17,8.0,7.0,240,9,,6.21,29.438976,,,TRUE,,,,,,,-RA,OVC,800,,,,,,,IFR,,,,,,,,,,,,SPECI,402.0
LFBI 111930Z AUTO 23012KT 9999 BKN017 BKN030 BKN062 09/07 Q0995 TEMPO 24015G25KT 4000 SHRA BKN007 BKN020TCU,LFBI,2020-12-11T19:30:00Z,46.58,0.32,9.0,7.0,230,12,,6.21,29.379921,,,TRUE,,,,,,,,BKN,1700,BKN,3000,BKN,6200,,,MVFR,,,,,,,,,,,,SPECI,117.0
LFBH 111930Z AUTO 27011KT 9999 SCT024/// BKN034/// BKN040/// ///TCU 11/10 Q0997 TEMPO 28018G30KT 3000 SHRA BKN015TCU SCT020CB,LFBH,2020-12-11T19:30:00Z,46.18,-1.2,11.0,10.0,270,11,,6.21,29.438976,,,TRUE,,,,,,,,SCT,2400,BKN,3400,BKN,4000,,,VFR,,,,,,,,,,,,SPECI,18.0
LFBG 111930Z AUTO 25007KT 9999 -RADZ SCT026/// BKN039/// BKN054/// ///CB 10/10 Q0998,LFBG,2020-12-11T19:30:00Z,45.67,-0.32,10.0,10.0,250,7,,6.21,29.468504,,,TRUE,,,,,,,-RA -DZ,SCT,2600,BKN,3900,BKN,5400,,,VFR,,,,,,,,,,,,SPECI,28.0
LFBE 111930Z AUTO 25011KT 9999 FEW029/// BKN035/// BKN042/// ///TCU 11/09 Q1000 TEMPO 26015G25KT 3000 SHRA,LFBE,2020-12-11T19:30:00Z,44.82,0.52,11.0,9.0,250,11,,6.21,29.52756,,,TRUE,,,,,,,,FEW,2900,BKN,3500,BKN,4200,,,VFR,,,,,,,,,,,,SPECI,49.0
LFBD 111930Z AUTO 27016KT 9999 -RA FEW022/// SCT040/// BKN048/// ///CB 11/10 Q1001 TEMPO 29015G30KT 3000 SHRA,LFBD,2020-12-11T19:30:00Z,44.82,-0.7,11.0,10.0,270,16,,6.21,29.557087,,,TRUE,,,,,,,-RA,FEW,2200,SCT,4000,BKN,4800,,,VFR,,,,,,,,,,,,SPECI,48.0
LFBC 111930Z AUTO 27016G27KT 230V290 9999 -RA FEW015/// BKN021/// BKN026/// ///TCU 13/10 Q1002,LFBC,2020-12-11T19:30:00Z,44.52,-1.12,13.0,10.0,270,16,27,6.21,29.586615,,,TRUE,,,,,,,-RA,FEW,1500,BKN,2100,BKN,2600,,,MVFR,,,,,,,,,,,,METAR,22.0
LFBA 111930Z AUTO 26012KT 9999 SCT035 BKN064 OVC078 12/09 Q1002 TEMPO 27015G30KT 3000 SHRA SCT010 BKN012TCU,LFBA,2020-12-11T19:30:00Z,44.17,0.6,12.0,9.0,260,12,,6.21,29.586615,,,TRUE,,,,,,,,SCT,3500,BKN,6400,OVC,7800,,,VFR,,,,,,,,,,,,SPECI,68.0
LFAT 111930Z AUTO 25004KT 220V280 9999 FEW030 09/09 Q0988,LFAT,2020-12-11T19:30:00Z,50.52,1.62,9.0,9.0,250,4,,6.21,29.17323,,,TRUE,,,,,,,,FEW,3000,,,,,,,VFR,,,,,,,,,,,,METAR,2.0
LFAQ 111930Z AUTO 22005KT 9000 OVC017 07/07 Q0989,LFAQ,2020-12-11T19:30:00Z,49.97,2.7,7.0,7.0,220,5,,5.59,29.202755,,,TRUE,,,,,,,,OVC,1700,,,,,,,MVFR,,,,,,,,,,,,METAR,107.0
LFAC 111930Z AUTO 22003KT 190V260 9999 BKN043 BKN052 08/07 Q0987,LFAC,2020-12-11T19:30:00Z,50.97,1.95,8.0,7.0,220,3,,6.21,29.143702,,,TRUE,,,,,,,,BKN,4300,BKN,5200,,,,,VFR,,,,,,,,,,,,METAR,3.0
LEZL 111930Z 26015KT 9999 BKN024 18/14 Q1018 NOSIG,LEZL,2020-12-11T19:30:00Z,37.42,-5.9,18.0,14.0,260,15,,6.21,30.059055,,,,,,TRUE,,,,,BKN,2400,,,,,,,MVFR,,,,,,,,,,,,METAR,26.0
LEZG 111930Z 30009KT 9999 SCT050 12/10 Q1005,LEZG,2020-12-11T19:30:00Z,41.67,-1.02,12.0,10.0,300,9,,6.21,29.675198,,,,,,,,,,,SCT,5000,,,,,,,VFR,,,,,,,,,,,,METAR,245.0
LEXJ 111930Z 30023G34KT 8000 SCT050 13/10 Q1007 RERA,LEXJ,2020-12-11T19:30:00Z,43.42,-3.82,13.0,10.0,300,23,34,4.97,29.734253,,,,,,,,,,,SCT,5000,,,,,,,MVFR,,,,,,,,,,,,METAR,1.0
LEVX 111930Z 22004KT 150V300 9000 FEW017 BKN026 BKN047 12/10 Q1014 TEMPO 3000 BR BKN010,LEVX,2020-12-11T19:30:00Z,42.23,-8.62,12.0,10.0,220,4,,5.59,29.940945,,,,,,,,,,,FEW,1700,BKN,2600,BKN,4700,,,MVFR,,,,,,,,,,,,SPECI,253.0
LEVT 111930Z 33005KT 9999 SCT021 SCT028 09/07 Q1007,LEVT,2020-12-11T19:30:00Z,42.87,-2.72,9.0,7.0,330,5,,6.21,29.734253,,,,,,,,,,,SCT,2100,SCT,2800,,,,,VFR,,,,,,,,,,,,METAR,501.0
LEVS 111930Z 24011KT 9999 SCT050 14/10 Q1010,LEVS,2020-12-11T19:30:00Z,40.37,-3.78,14.0,10.0,240,11,,6.21,29.822834,,,,,,,,,,,SCT,5000,,,,,,,VFR,,,,,,,,,,,,METAR,683.0
LEVD 111930Z 28021G36KT CAVOK 10/05 Q1008,LEVD,2020-12-11T19:30:00Z,41.72,-4.85,10.0,5.0,280,21,36,6.21,29.763779,,,,,,,,,,,CAVOK,,,,,,,,VFR,,,,,,,,,,,,METAR,844.0
LEVC 111930Z 26015KT 9999 FEW025 20/13 Q1004 NOSIG,LEVC,2020-12-11T19:30:00Z,39.5,-0.47,20.0,13.0,260,15,,6.21,29.64567,,,,,,TRUE,,,,,FEW,2500,,,,,,,VFR,,,,,,,,,,,,METAR,58.0
LETU 111930Z AUTO 30005KT 250V350 9999 BKN037 12/10 Q1006,LETU,2020-12-11T19:30:00Z,,,12.0,10.0,300,5,,6.21,29.704725,,,TRUE,,,,,,,,BKN,3700,,,,,,,VFR,,,,,,,,,,,,METAR,
LETO 111930Z 27018G29KT 230V290 9999 FEW050 15/07 Q1009 NOSIG,LETO,2020-12-11T19:30:00Z,40.48,-3.47,15.0,7.0,270,18,29,6.21,29.793306,,,,,,TRUE,,,,,FEW,5000,,,,,,,VFR,,,,,,,,,,,,METAR,598.0
LETL 111930Z AUTO 30011KT 270V330 9999 FEW046 12/06 Q1007,LETL,2020-12-11T19:30:00Z,40.42,-1.22,12.0,6.0,300,11,,6.21,29.734253,,,TRUE,,,,,,,,FEW,4600,,,,,,,VFR,,,,,,,,,,,,METAR,1024.0
LESO 111930Z 24014G25KT 200V310 9999 FEW021 SCT030 BKN055 13/10 Q1006,LESO,2020-12-11T19:30:00Z,43.35,-1.8,13.0,10.0,240,14,25,6.21,29.704725,,,,,,,,,,,FEW,2100,SCT,3000,BKN,5500,,,VFR,,,,,,,,,,,,METAR,3.0
LESB 111930Z AUTO VRB05KT 9999 -SHRA SCT047/// 16/14 Q1004,LESB,2020-12-11T19:30:00Z,39.6,2.7,16.0,14.0,0,5,,6.21,29.64567,,,TRUE,,,,,,,-SHRA,SCT,4700,,,,,,,VFR,,,,,,,,,,,,METAR,48.0
LESA 111930Z AUTO 28025G35KT 260V320 9999 FEW018 SCT028 12/08 Q1011,LESA,2020-12-11T19:30:00Z,40.95,-5.5,12.0,8.0,280,25,35,6.21,29.852362,,,TRUE,,,,,,,,FEW,1800,SCT,2800,,,,,VFR,,,,,,,,,,,,METAR,788.0
LERT 111930Z 26013KT 9999 BKN033 17/15 Q1020 NOSIG,LERT,2020-12-11T19:30:00Z,36.63,-6.33,17.0,15.0,260,13,,6.21,30.11811,,,,,,TRUE,,,,,BKN,3300,,,,,,,VFR,,,,,,,,,,,,METAR,27.0
LERS 111930Z 19007KT 160V220 9999 FEW025 13/10 Q1002,LERS,2020-12-11T19:30:00Z,41.13,1.17,13.0,10.0,190,7,,6.21,29.586615,,,,,,,,,,,FEW,2500,,,,,,,VFR,,,,,,,,,,,,METAR,68.0
LEPP 111930Z 33009KT 9999 SCT040 10/06 Q1006,LEPP,2020-12-11T19:30:00Z,42.77,-1.65,10.0,6.0,330,9,,6.21,29.704725,,,,,,,,,,,SCT,4000,,,,,,,VFR,,,,,,,,,,,,METAR,448.0
LEMO 111930Z 22009KT 9999 FEW021 16/14 Q1019 NOSIG,LEMO,2020-12-11T19:30:00Z,37.17,-5.62,16.0,14.0,220,9,,6.21,30.088583,,,,,,TRUE,,,,,FEW,2100,,,,,,,VFR,,,,,,,,,,,,METAR,82.0
LEMI 111930Z 18005KT CAVOK 19/11 Q1008,LEMI,2020-12-11T19:30:00Z,37.8,-1.12,19.0,11.0,180,5,,6.21,29.763779,,,,,,,,,,,CAVOK,,,,,,,,VFR,,,,,,,,,,,,METAR,193.0
LEMH 111930Z 34002KT 9999 -RA FEW048 12/11 Q1003,LEMH,2020-12-11T19:30:00Z,39.87,4.22,12.0,11.0,340,2,,6.21,29.616142,,,,,,,,,,-RA,FEW,4800,,,,,,,VFR,,,,,,,,,,,,METAR,82.0
LEMG 111930Z 25003KT 220V300 9999 BKN041 19/12 Q1016 NOSIG,LEMG,2020-12-11T19:30:00Z,36.67,-4.47,19.0,12.0,250,3,,6.21,30.0,,,,,,TRUE,,,,,BKN,4100,,,,,,,VFR,,,,,,,,,,,,METAR,5.0
LEMD 111930Z 28013KT 220V310 9999 FEW050 15/07 Q1009 WS ALL RWY NOSIG,LEMD,2020-12-11T19:30:00Z,40.45,-3.57,15.0,7.0,280,13,,6.21,29.793306,,,,,,TRUE,,,,,FEW,5000,,,,,,,VFR,,,,,,,,,,,,SPECI,589.0
LELO 111930Z 24004KT 9999 BKN045 11/09 Q1006,LELO,2020-12-11T19:30:00Z,42.45,-2.32,11.0,9.0,240,4,,6.21,29.704725,,,,,,,,,,,BKN,4500,,,,,,,VFR,,,,,,,,,,,,METAR,352.0
LELN 111930Z 27014G25KT 230V300 9999 FEW025 08/04 Q1008,LELN,2020-12-11T19:30:00Z,42.58,-5.65,8.0,4.0,270,14,25,6.21,29.763779,,,,,,,,,,,FEW,2500,,,,,,,VFR,,,,,,,,,,,,METAR,911.0
LELL 111930Z AUTO 31003KT CAVOK 08/07 Q1002,LELL,2020-12-11T19:30:00Z,41.52,2.1,8.0,7.0,310,3,,6.21,29.586615,,,TRUE,,,,,,,,CAVOK,,,,,,,,VFR,,,,,,,,,,,,METAR,136.0
LELC 111930Z 18003KT 150V250 CAVOK 18/12 Q1008 NOSIG,LELC,2020-12-11T19:30:00Z,37.77,-0.8,18.0,12.0,180,3,,6.21,29.763779,,,,,,TRUE,,,,,CAVOK,,,,,,,,VFR,,,,,,,,,,,,METAR,3.0
LEJR 111930Z 26009KT 240V300 9999 SCT030 17/15 Q1020,LEJR,2020-12-11T19:30:00Z,36.75,-6.07,17.0,15.0,260,9,,6.21,30.11811,,,,,,,,,,,SCT,3000,,,,,,,VFR,,,,,,,,,,,,METAR,25.0
LEIB 111930Z 27023G35KT 230V300 CAVOK 20/13 Q1004 NOSIG,LEIB,2020-12-11T19:30:00Z,38.87,1.38,20.0,13.0,270,23,35,6.21,29.64567,,,,,,TRUE,,,,,CAVOK,,,,,,,,VFR,,,,,,,,,,,,METAR,4.0
LEHC 111930Z AUTO 27010KT 230V300 9999 BKN060 09/06 Q1004,LEHC,2020-12-11T19:30:00Z,42.08,-0.32,9.0,6.0,270,10,,6.21,29.64567,,,TRUE,,,,,,,,BKN,6000,,,,,,,VFR,,,,,,,,,,,,METAR,540.0
LEGR 111930Z 26009KT 240V300 9000 FEW010 SCT017 BKN028 14/13 Q1017,LEGR,2020-12-11T19:30:00Z,37.18,-3.78,14.0,13.0,260,9,,5.59,30.029528,,,,,,,,,,,FEW,1000,SCT,1700,BKN,2800,,,MVFR,,,,,,,,,,,,METAR,560.0
LEGE 111930Z 03004KT 340V050 9999 4500 NSC 06/05 Q1002,LEGE,2020-12-11T19:30:00Z,41.9,2.77,6.0,5.0,30,4,,6.21,29.586615,,,,,,,,,,,CLR,,,,,,,,VFR,,,,,,,,,,,,SPECI,140.0
LEDA 111930Z AUTO VRB02KT 0600 FG BKN002 09/09 Q1003,LEDA,2020-12-11T19:30:00Z,41.73,0.53,9.0,9.0,0,2,,0.37,29.616142,,,TRUE,,,,,,,FG,BKN,200,,,,,,,LIFR,,,,,,,,,,,,METAR,352.0
LECO 111930Z 27008KT 220V300 9999 FEW020 SCT040 12/10 Q1012 NOSIG,LECO,2020-12-11T19:30:00Z,43.3,-8.37,12.0,10.0,270,8,,6.21,29.88189,,,,,,TRUE,,,,,FEW,2000,SCT,4000,,,,,VFR,,,,,,,,,,,,METAR,80.0
LECH 111930Z AUTO 31011G23KT 270V350 9000 NCD 19/08 Q1003,LECH,2020-12-11T19:30:00Z,40.92,-1.28,19.0,8.0,310,11,23,5.59,29.616142,,,TRUE,,,,,,,,CLR,,,,,,,,VFR,,,,,,,,,,,,METAR,885.0
LEBZ 111930Z 25012KT 9999 FEW006 BKN016 OVC022 16/15 Q1016,LEBZ,2020-12-11T19:30:00Z,38.87,-6.82,16.0,15.0,250,12,,6.21,30.0,,,,,,,,,,,FEW,600,BKN,1600,OVC,2200,,,MVFR,,,,,,,,,,,,METAR,183.0
LEBT 111930Z AUTO 31007KT 250V350 CAVOK 18/13 Q1004,LEBT,2020-12-11T19:30:00Z,39.58,-0.45,18.0,13.0,310,7,,6.21,29.64567,,,TRUE,,,,,,,,CAVOK,,,,,,,,VFR,,,,,,,,,,,,METAR,50.0
LEBR 111930Z AUTO 28005KT 250V330 9999 -RA OVC050 10/10 Q1006,LEBR,2020-12-11T19:30:00Z,42.2,-1.43,10.0,10.0,280,5,,6.21,29.704725,,,TRUE,,,,,,,-RA,OVC,5000,,,,,,,VFR,,,,,,,,,,,,METAR,347.0
LEBL 111930Z 33006KT CAVOK 10/09 Q1002 NOSIG,LEBL,2020-12-11T19:30:00Z,41.28,2.07,10.0,9.0,330,6,,6.21,29.586615,,,,,,TRUE,,,,,CAVOK,,,,,,,,VFR,,,,,,,,,,,,METAR,2.0
LEBG 111930Z AUTO 24012KT 220V280 CAVOK 08/04 Q1007,LEBG,2020-12-11T19:30:00Z,42.37,-3.62,8.0,4.0,240,12,,6.21,29.734253,,,TRUE,,,,,,,,CAVOK,,,,,,,,VFR,,,,,,,,,,,,METAR,892.0
LEBB 111930Z 27010KT 230V310 9999 SCT035 SCT065 13/09 Q1007 NOSIG,LEBB,2020-12-11T19:30:00Z,43.28,-2.92,13.0,9.0,270,10,,6.21,29.734253,,,,,,TRUE,,,,,SCT,3500,SCT,6500,,,,,VFR,,,,,,,,,,,,METAR,38.0
LEBA 111930Z 25011KT 220V280 9999 BKN020 BKN030 17/14 Q1017,LEBA,2020-12-11T19:30:00Z,37.85,-4.83,17.0,14.0,250,11,,6.21,30.029528,,,,,,,,,,,BKN,2000,BKN,3000,,,,,MVFR,,,,,,,,,,,,METAR,88.0
LEAS 111930Z 27019G32KT 240V300 9999 SCT045 SCT070 13/08 Q1008 NOSIG,LEAS,2020-12-11T19:30:00Z,43.57,-6.03,13.0,8.0,270,19,32,6.21,29.763779,,,,,,TRUE,,,,,SCT,4500,SCT,7000,,,,,VFR,,,,,,,,,,,,METAR,120.0
LEAM 111930Z 24015KT 200V280 CAVOK 18/13 Q1009,LEAM,2020-12-11T19:30:00Z,36.85,-2.37,18.0,13.0,240,15,,6.21,29.793306,,,,,,,,,,,CAVOK,,,,,,,,VFR,,,,,,,,,,,,METAR,16.0
LEAL 111930Z 28009KT 250V310 9999 FEW050 21/11 Q1007 NOSIG,LEAL,2020-12-11T19:30:00Z,38.27,-0.55,21.0,11.0,280,9,,6.21,29.734253,,,,,,TRUE,,,,,FEW,5000,,,,,,,VFR,,,,,,,,,,,,METAR,26.0
LEAG 111930Z AUTO VRB06KT 9999 SCT023 BKN028 OVC044 17/13 Q1020,LEAG,2020-12-11T19:30:00Z,36.12,-5.45,17.0,13.0,0,6,,6.21,30.11811,,,TRUE,,,,,,,,SCT,2300,BKN,2800,OVC,4400,,,MVFR,,,,,,,,,,,,METAR,4.0
LEAB 111930Z 27018KT 9999 SCT038 BKN045 14/11 Q1011 NOSIG,LEAB,2020-12-11T19:30:00Z,38.95,-1.85,14.0,11.0,270,18,,6.21,29.852362,,,,,,TRUE,,,,,SCT,3800,BKN,4500,,,,,VFR,,,,,,,,,,,,METAR,704.0
LDZD 111930Z 04001KT 9999 FEW035 BKN065 08/06 Q1003,LDZD,2020-12-11T19:30:00Z,44.1,15.33,8.0,6.0,40,1,,6.21,29.616142,,,,,,,,,,,FEW,3500,BKN,6500,,,,,VFR,,,,,,,,,,,,METAR,82.0
LDZA 111930Z 14004KT 110V190 9999 BKN006 OVC017 04/03 Q1004 NOSIG,LDZA,2020-12-11T19:30:00Z,45.72,16.07,4.0,3.0,140,4,,6.21,29.64567,,,,,,TRUE,,,,,BKN,600,OVC,1700,,,,,IFR,,,,,,,,,,,,METAR,103.0
LDSP 111930Z 01006KT 9999 FEW020 SCT060 09/06 Q1003 NOSIG,LDSP,2020-12-11T19:30:00Z,43.53,16.3,9.0,6.0,10,6,,6.21,29.616142,,,,,,TRUE,,,,,FEW,2000,SCT,6000,,,,,VFR,,,,,,,,,,,,METAR,16.0
LDRI 111930Z 06003KT 9999 BKN043 06/04 Q1002,LDRI,2020-12-11T19:30:00Z,45.22,14.57,6.0,4.0,60,3,,6.21,29.586615,,,,,,,,,,,BKN,4300,,,,,,,VFR,,,,,,,,,,,,METAR,80.0
LDPL 111930Z 06002KT 9999 SCT037 04/04 Q1002,LDPL,2020-12-11T19:30:00Z,44.88,13.92,4.0,4.0,60,2,,6.21,29.586615,,,,,,,,,,,SCT,3700,,,,,,,VFR,,,,,,,,,,,,METAR,63.0
LDOS 111930Z 15003KT 7000 -DZ OVC006 04/03 Q1006,LDOS,2020-12-11T19:30:00Z,45.47,18.82,4.0,3.0,150,3,,4.35,29.704725,,,,,,,,,,-DZ,OVC,600,,,,,,,IFR,,,,,,,,,,,,METAR,82.0
LDDU 111930Z 03008KT 330V090 9999 -RA SCT036 09/06 Q1002 NOSIG,LDDU,2020-12-11T19:30:00Z,42.57,18.27,9.0,6.0,30,8,,6.21,29.586615,,,,,,TRUE,,,,-RA,SCT,3600,,,,,,,VFR,,,,,,,,,,,,METAR,156.0
LCPH 111930Z VRB02KT 9999 FEW035 SCT045 16/12 Q1014,LCPH,2020-12-11T19:30:00Z,34.72,32.47,16.0,12.0,0,2,,6.21,29.940945,,,,,,,,,,,FEW,3500,SCT,4500,,,,,VFR,,,,,,,,,,,,METAR,8.0
LCLK 111930Z VRB02KT 9999 FEW025 15/12 Q1015 NOSIG,LCLK,2020-12-11T19:30:00Z,34.87,33.62,15.0,12.0,0,2,,6.21,29.970472,,,,,,TRUE,,,,,FEW,2500,,,,,,,VFR,,,,,,,,,,,,METAR,2.0
LBWN 111930Z 35004KT 6000 NSC 04/04 Q1008 TEMPO 2000 BR,LBWN,2020-12-11T19:30:00Z,43.22,27.82,4.0,4.0,350,4,,3.73,29.763779,,,,,,,,,,,CLR,,,,,,,,MVFR,,,,,,,,,,,,SPECI,74.0
LBSF 111930Z VRB01KT 3500 BR NSC 03/02 Q1006 TEMPO 3000 BR,LBSF,2020-12-11T19:30:00Z,42.65,23.37,3.0,2.0,0,1,,2.17,29.704725,,,,,,,,,,BR,CLR,,,,,,,,IFR,,,,,,,,,,,,SPECI,592.0
LBPD 111930Z AUTO 27003KT 240V310 9999 NCD 04/03 Q1006 NOSIG,LBPD,2020-12-11T19:30:00Z,42.05,24.85,4.0,3.0,270,3,,6.21,29.704725,,,TRUE,,,TRUE,,,,,CLR,,,,,,,,VFR,,,,,,,,,,,,METAR,182.0
LBGO 111930Z AUTO 26002KT 0300 0250W R/////// FG VV001 02/02 Q1007,LBGO,2020-12-11T19:30:00Z,43.15,25.72,2.0,2.0,260,2,,0.19,29.734253,,,TRUE,,,,,,,FG,OVX,0,,,,,,,LIFR,,,,,,,,,,,100,METAR,84.0
LBBG 111930Z 07004KT 9999 FEW029 BKN036 07/07 Q1008 TEMPO 5000 BR,LBBG,2020-12-11T19:30:00Z,42.57,27.52,7.0,7.0,70,4,,6.21,29.763779,,,,,,,,,,,FEW,2900,BKN,3600,,,,,VFR,,,,,,,,,,,,SPECI,41.0
KWBF 111930Z AUTO 13017KT 10SM CLR 23/17 A2999 RMK A01,KWBF,2020-12-11T19:30:00Z,26.93,-90.5,23.0,17.0,130,17,,10.0,29.991142,,,TRUE,TRUE,,,,,,,CLR,,,,,,,,VFR,,,,,,,,,,,,SPECI,40.0
KUTS 111930Z AUTO 20007KT 1 3/4SM RA BR FEW027 BKN036 OVC044 19/18 A2986 RMK AO2 P0003 T01940178,KUTS,2020-12-11T19:30:00Z,30.75,-95.58,19.4,17.8,200,7,,1.75,29.861221,,,TRUE,TRUE,,,,,,RA BR,FEW,2700,BKN,3600,OVC,4400,,,IFR,,,,,,0.03,,,,,,SPECI,103.0
KS59 111930Z AUTO 00000KT 7SM M02/M03 A3001 ,KS59,2020-12-11T19:30:00Z,48.28,-115.48,-2.0,-3.0,0,0,,7.0,30.008858,,,TRUE,,,,,,,,,,,,,,,,,,,,,,,,,,,,METAR,793.0
KQFX 111930Z AUTO 09003KT 2000 BR SCT200 BKN240 00/M02 A3008 RMK A02 TSNO,KQFX,2020-12-11T19:30:00Z,,,0.0,-2.0,90,3,,1.24,30.079725,,,TRUE,TRUE,,,TRUE,,,BR,SCT,20000,BKN,24000,,,,,IFR,,,,,,,,,,,,METAR,
KQFW 111930Z AUTO 00000KT 2000 // BKN210 M01/M01 A3008 RMK A02 TSNO,KQFW,2020-12-11T19:30:00Z,,,-1.0,-1.0,0,0,,1.24,30.079725,,,TRUE,TRUE,,,TRUE,,,,BKN,21000,,,,,,,IFR,,,,,,,,,,,,METAR,
KQFV 111930Z AUTO 32001KT 4000 // SCT230 M03/M05 A3009 RMK A02 TSNO,KQFV,2020-12-11T19:30:00Z,,,-3.0,-5.0,320,1,,2.49,30.088583,,,TRUE,TRUE,,,TRUE,,,,SCT,23000,,,,,,,IFR,,,,,,,,,,,,METAR,
KQFU 111930Z AUTO 12001KT 4000 HZ BKN230 M01/M04 A3015 RMK A02 TSNO,KQFU,2020-12-11T19:30:00Z,,,-1.0,-4.0,120,1,,2.49,30.15059,,,TRUE,TRUE,,,TRUE,,,HZ,BKN,23000,,,,,,,IFR,,,,,,,,,,,,METAR,
KQFT 111930Z AUTO 34003KT / // SCT220 03/M08 A3010 RMK A02 TSNO,KQFT,2020-12-11T19:30:00Z,,,3.0,-8.0,340,3,,,30.100393,,,TRUE,TRUE,,,TRUE,,,,SCT,22000,,,,,,,,,,,,,,,,,,,METAR,
KQFB 111930Z AUTO 35002KT 6000 BKN140 02/M00 A3008 RMK A02 TSNO,KQFB,2020-12-11T19:30:00Z,,,2.0,0.0,350,2,,3.73,30.079725,,,TRUE,TRUE,,,TRUE,,,,BKN,14000,,,,,,,MVFR,,,,,,,,,,,,METAR,
KQEY 111930Z AUTO 27004KT 4800 HZ OVC023 05/01 A2979 RMK A02 TSNO,KQEY,2020-12-11T19:30:00Z,,,5.0,1.0,270,4,,2.98,29.790354,,,TRUE,TRUE,,,TRUE,,,HZ,OVC,2300,,,,,,,IFR,,,,,,,,,,,,METAR,
KQEX 111930Z AUTO 05003KT 6000 HZ SCT038 BKN180 BKN210 05/M00 A2997 RMK A02 TSNO,KQEX,2020-12-11T19:30:00Z,,,5.0,0.0,50,3,,3.73,29.970472,,,TRUE,TRUE,,,TRUE,,,HZ,SCT,3800,BKN,18000,BKN,21000,,,MVFR,,,,,,,,,,,,METAR,
KQEV 111930Z AUTO 30003G10KT 9999 BKN180 05/M04 A3008 RMK A02 TSNO,KQEV,2020-12-11T19:30:00Z,,,5.0,-4.0,300,3,10,6.21,30.079725,,,TRUE,TRUE,,,TRUE,,,,BKN,18000,,,,,,,VFR,,,,,,,,,,,,METAR,
KQER 111930Z AUTO 11001KT 2000 BR FEW012 SCT240 M05/M06 A3004 RMK A02 TSNO,KQER,2020-12-11T19:30:00Z,,,-5.0,-6.0,110,1,,1.24,30.041338,,,TRUE,TRUE,,,TRUE,,,BR,FEW,1200,SCT,24000,,,,,IFR,,,,,,,,,,,,METAR,
KQEP 111930Z AUTO 29001KT 9999 BKN200 01/M07 A3013 RMK A02 TSNO,KQEP,2020-12-11T19:30:00Z,,,1.0,-7.0,290,1,,6.21,30.129921,,,TRUE,TRUE,,,TRUE,,,,BKN,20000,,,,,,,VFR,,,,,,,,,,,,METAR,
KQEN 111930Z AUTO 25007G14KT 6000 HZ FEW020 BKN1100 M01/M05 A2991 RMK A02 TSNO,KQEN,2020-12-11T19:30:00Z,,,-1.0,-5.0,250,7,14,3.73,29.911417,,,TRUE,TRUE,,,TRUE,,,HZ,FEW,2000,,,,,,,MVFR,,,,,,,,,,,,METAR,
KQEJ 111930Z AUTO 00000KT 2000 BR CLR M04/M05 A3004 RMK A02 TSNO,KQEJ,2020-12-11T19:30:00Z,,,-4.0,-5.0,0,0,,1.24,30.041338,,,TRUE,TRUE,,,TRUE,,,BR,CLR,,,,,,,,IFR,,,,,,,,,,,,METAR,
KQEI 111930Z AUTO 14002KT 2800 // OVC033 M01/M03 A3003 RMK A02 TSNO,KQEI,2020-12-11T19:30:00Z,,,-1.0,-3.0,140,2,,1.74,30.029528,,,TRUE,TRUE,,,TRUE,,,,OVC,3300,,,,,,,IFR,,,,,,,,,,,,METAR,
KPO1 111930Z AUTO 00000KT 2 1/2SM M04/M06 A3013 ,KPO1,2020-12-11T19:30:00Z,48.13,-105.17,-4.0,-6.0,0,0,,2.5,30.129921,,,TRUE,,,,,,,,,,,,,,,,,,,,,,,,,,,,METAR,621.0
KOLF 111930Z AUTO 10005KT 1 1/4SM BR OVC002 M04/M06 A3013 RMK AO2 T10391056,KOLF,2020-12-11T19:30:00Z,48.1,-105.58,-3.9,-5.6,100,5,,1.25,30.129921,,,TRUE,TRUE,,,,,,BR,OVC,200,,,,,,,LIFR,,,,,,,,,,,,SPECI,605.0
KO32 111930Z AUTO 31004KT 5SM HZ CLR 13/02 A3019 RMK AO2,KO32,2020-12-11T19:30:00Z,36.67,-119.45,13.0,2.0,310,4,,5.0,30.188976,,,TRUE,TRUE,,,,,,HZ,CLR,,,,,,,,MVFR,,,,,,,,,,,,SPECI,117.0
KNFW 111930Z 27013G33KT 10SM -RA SCT020 BKN032 BKN100 21/15 A2981 RMK AO2 PK WND 22033/1921 RAE1854B29 P0000 T02110150 $,KNFW,2020-12-11T19:30:00Z,32.78,-97.43,21.1,15.0,270,13,33,10.0,29.811024,,,,TRUE,TRUE,,,,,-RA,SCT,2000,BKN,3200,BKN,10000,,,VFR,,,,,,0.005,,,,,,METAR,188.0
KMTK 111930Z AUTO 15012KT 10SM FEW045 BKN060 22/15 A3004 RMK A01,KMTK,2020-12-11T19:30:00Z,,,22.0,15.0,150,12,,10.0,30.041338,,,TRUE,TRUE,,,,,,,FEW,4500,BKN,6000,,,,,VFR,,,,,,,,,,,,METAR,
KM91 111930Z AUTO 19009G17KT 10SM CLR 17/09 A2997 RMK A01,KM91,2020-12-11T19:30:00Z,36.53,-86.92,17.0,9.0,190,9,17,10.0,29.970472,,,TRUE,TRUE,,,,,,,CLR,,,,,,,,VFR,,,,,,,,,,,,SPECI,214.0
KFNL 111930Z 06004KT 1 1/4SM -SN BR SCT007 BKN021 OVC026 M02/M04 A2993 RMK AO2 P0000 FZRANO,KFNL,2020-12-11T19:30:00Z,40.45,-105.02,-2.0,-4.0,60,4,,1.25,29.929134,,,,TRUE,,,,TRUE,,-SN BR,SCT,700,BKN,2100,OVC,2600,,,IFR,,,,,,0.005,,,,,,SPECI,1529.0
KDSF 111930Z AUTO 07012KT 10SM CLR 23/12 A3003 RMK A01,KDSF,2020-12-11T19:30:00Z,28.35,-88.27,23.0,12.0,70,12,,10.0,30.029528,,,TRUE,TRUE,,,,,,,CLR,,,,,,,,VFR,,,,,,,,,,,,SPECI,40.0
KDKX 111930Z AUTO 00000KT 10SM CLR 17/05 A3006 RMK A01,KDKX,2020-12-11T19:30:00Z,35.97,-83.87,17.0,5.0,0,0,,10.0,30.059055,,,TRUE,TRUE,,,,,,,CLR,,,,,,,,VFR,,,,,,,,,,,,SPECI,253.0
KDAL 111930Z VRB05KT 10SM BKN011 BKN016 BKN080 BKN130 BKN250 19/16 A2981,KDAL,2020-12-11T19:30:00Z,32.85,-96.85,19.0,16.0,0,5,,10.0,29.811024,,,,,,,,,,,BKN,1100,BKN,1600,BKN,8000,BKN,13000,MVFR,,,,,,,,,,,,METAR,148.0
KCXW 111930Z AUTO 16006KT 2 1/2SM BR BKN025 OVC033 14/13 A2983 RMK A01,KCXW,2020-12-11T19:30:00Z,35.02,-92.55,14.0,13.0,160,6,,2.5,29.828741,,,TRUE,TRUE,,,,,,BR,BKN,2500,OVC,3300,,,,,IFR,,,,,,,,,,,,SPECI,84.0
KCMA 111930Z 29006KT 10SM BKN029 17/07 A3013 RMK AO2 T01670072,KCMA,2020-12-11T19:30:00Z,34.22,-119.1,16.7,7.2,290,6,,10.0,30.129921,,,,TRUE,,,,,,,BKN,2900,,,,,,,MVFR,,,,,,,,,,,,METAR,20.0
KBDU 111930Z AUTO 07004KT 1 3/4SM -SN OVC010 M03/M05 A2991 RMK AO2,KBDU,2020-12-11T19:30:00Z,40.03,-105.23,-3.0,-5.0,70,4,,1.75,29.911417,,,TRUE,TRUE,,,,,,-SN,OVC,1000,,,,,,,IFR,,,,,,,,,,,,SPECI,1614.0
KABH 111930Z AUTO 01009KT 2 3/4SM -SN FEW013 OVC027 M03/M06 A2985 RMK AO2 SLP159,KABH,2020-12-11T19:30:00Z,38.75,-104.3,-3.0,-6.0,10,9,,2.75,29.84941,1015.9,,TRUE,TRUE,,,,,,-SN,FEW,1300,OVC,2700,,,,,IFR,,,,,,,,,,,,SPECI,1838.0
K7S0 111930Z AUTO VRB03KT 3SM BR M01/M03 A2998 RMK A01 Ronan ,K7S0,2020-12-11T19:30:00Z,47.57,-114.1,-1.0,-3.0,0,3,,3.0,29.97933,,,TRUE,TRUE,,,,,,BR,,,,,,,,,,,,,,,,,,,,,METAR,941.0
K79S 111930Z AUTO 00000KT 10SM M02/M02 A3005 ,K79S,2020-12-11T19:30:00Z,47.85,-110.63,-2.0,-2.0,0,0,,10.0,30.050198,,,TRUE,,,,,,,,,,,,,,,,,,,,,,,,,,,,METAR,874.0
K6I2 111930Z AUTO 21012G19KT 10SM CLR 18/06 A3000 RMK AO2,K6I2,2020-12-11T19:30:00Z,37.63,-85.25,18.0,6.0,210,12,19,10.0,30.0,,,TRUE,TRUE,,,,,,,CLR,,,,,,,,VFR,,,,,,,,,,,,SPECI,258.0
K54A 111930Z AUTO 07007KT 050V120 10SM CLR 21/10 A3009 RMK AO2,K54A,2020-12-11T19:30:00Z,26.85,-82.25,21.0,10.0,70,7,,10.0,30.088583,,,TRUE,TRUE,,,,,,,CLR,,,,,,,,VFR,,,,,,,,,,,,METAR,2.0
K3U3 111930Z AUTO 07003KT 6SM M04/M08 A2992 ,K3U3,2020-12-11T19:30:00Z,46.15,-112.87,-4.0,-8.0,70,3,,6.0,29.920275,,,TRUE,,,,,,,,,,,,,,,,,,,,,,,,,,,,METAR,1534.0
K38S 111930Z AUTO 00000KT 5SM M06/M08 A2997 ,K38S,2020-12-11T19:30:00Z,46.38,-112.77,-6.0,-8.0,0,0,,5.0,29.970472,,,TRUE,,,,,,,,,,,,,,,,,,,,,,,,,,,,METAR,1430.0
HSSS 111930Z 36005KT CAVOK 25/06 Q1014 NOSIG,HSSS,2020-12-11T19:30:00Z,15.58,32.55,25.0,6.0,360,5,,6.21,29.940945,,,,,,TRUE,,,,,CAVOK,,,,,,,,VFR,,,,,,,,,,,,METAR,387.0
HECA 111930Z 19006KT 4000 DU SCT025 18/01 Q1016 NOSIG,HECA,2020-12-11T19:30:00Z,30.12,31.4,18.0,1.0,190,6,,2.49,30.0,,,,,,TRUE,,,,DU,SCT,2500,,,,,,,IFR,,,,,,,,,,,,METAR,68.0
GQNO 111930Z 04007KT CAVOK 26/M08 Q1014 NOSIG,GQNO,2020-12-11T19:30:00Z,18.3,-15.97,26.0,-8.0,40,7,,6.21,29.940945,,,,,,TRUE,,,,,CAVOK,,,,,,,,VFR,,,,,,,,,,,,METAR,1.0
GOBD 111930Z 35011KT CAVOK 26/09 Q1013 NOSIG,GOBD,2020-12-11T19:30:00Z,14.67,-17.07,26.0,9.0,350,11,,6.21,29.911417,,,,,,TRUE,,,,,CAVOK,,,,,,,,VFR,,,,,,,,,,,,METAR,90.0
GMTT 111930Z 24012KT 6000 SCT010 SCT016 18/16 Q1021 NOSIG,GMTT,2020-12-11T19:30:00Z,35.72,-5.9,18.0,16.0,240,12,,3.73,30.147638,,,,,,TRUE,,,,,SCT,1000,SCT,1600,,,,,MVFR,,,,,,,,,,,,METAR,19.0
GMMN 111930Z 33006KT 3000 DZ BR BKN001 16/16 Q1024 NOSIG,GMMN,2020-12-11T19:30:00Z,33.37,-7.58,16.0,16.0,330,6,,1.86,30.236221,,,,,,TRUE,,,,DZ BR,BKN,100,,,,,,,LIFR,,,,,,,,,,,,METAR,196.0
GMME 111930Z 00000KT 5000 BKN005 SCT013 17/16 Q1023 NOSIG,GMME,2020-12-11T19:30:00Z,34.05,-6.77,17.0,16.0,0,0,,3.11,30.206694,,,,,,TRUE,,,,,BKN,500,SCT,1300,,,,,IFR,,,,,,,,,,,,METAR,84.0
GMFO 111930Z 23021KT 9999 FEW020 17/13 Q1018 NOSIG,GMFO,2020-12-11T19:30:00Z,34.78,-1.92,17.0,13.0,230,21,,6.21,30.059055,,,,,,TRUE,,,,,FEW,2000,,,,,,,VFR,,,,,,,,,,,,METAR,452.0
GMFF 111930Z 26015KT 9999 SCT008 BKN030 16/15 Q1024 NOSIG,GMFF,2020-12-11T19:30:00Z,33.92,-4.97,16.0,15.0,260,15,,6.21,30.236221,,,,,,TRUE,,,,,SCT,800,BKN,3000,,,,,MVFR,,,,,,,,,,,,METAR,575.0
GMAD 111930Z 16003KT CAVOK 15/12 Q1020 NOSIG,GMAD,2020-12-11T19:30:00Z,30.32,-9.42,15.0,12.0,160,3,,6.21,30.11811,,,,,,TRUE,,,,,CAVOK,,,,,,,,VFR,,,,,,,,,,,,METAR,66.0
GLRB 111930Z 00000KT 9999 BKN013 FEW023CB 27/25 Q1011 NOSIG RMK CB/SE,GLRB,2020-12-11T19:30:00Z,6.25,-10.35,27.0,25.0,0,0,,6.21,29.852362,,,,,,TRUE,,,,,BKN,1300,FEW,2300,,,,,MVFR,,,,,,,,,,,,METAR,12.0
GEML 111930Z AUTO 26018G28KT 230V300 9999 BKN018 18/15 Q1017,GEML,2020-12-11T19:30:00Z,35.27,-2.95,18.0,15.0,260,18,28,6.21,30.029528,,,TRUE,,,,,,,,BKN,1800,,,,,,,MVFR,,,,,,,,,,,,METAR,48.0
GCXO 111930Z 11005KT 9999 SCT005 BKN013 15/15 Q1025 TEMPO 3000 DZ BCFG BKN005,GCXO,2020-12-11T19:30:00Z,28.48,-16.35,15.0,15.0,110,5,,6.21,30.265747,,,,,,,,,,,SCT,500,BKN,1300,,,,,MVFR,,,,,,,,,,,,SPECI,623.0
GCTS 111930Z 06011KT 9999 SCT030 20/16 Q1023 NOSIG,GCTS,2020-12-11T19:30:00Z,28.05,-16.57,20.0,16.0,60,11,,6.21,30.206694,,,,,,TRUE,,,,,SCT,3000,,,,,,,VFR,,,,,,,,,,,,METAR,59.0
GCRR 111930Z 02014KT 9999 -DZ FEW015 SCT025 19/17 Q1023,GCRR,2020-12-11T19:30:00Z,28.95,-13.58,19.0,17.0,20,14,,6.21,30.206694,,,,,,,,,,-DZ,FEW,1500,SCT,2500,,,,,VFR,,,,,,,,,,,,METAR,9.0
GCLP 111930Z 36013KT 9999 -DZ FEW018 BKN025 19/17 Q1023 NOSIG,GCLP,2020-12-11T19:30:00Z,27.92,-15.38,19.0,17.0,360,13,,6.21,30.206694,,,,,,TRUE,,,,-DZ,FEW,1800,BKN,2500,,,,,MVFR,,,,,,,,,,,,METAR,16.0
GCLA 111930Z 04008KT 010V100 9999 FEW014 BKN026 19/17 Q1025,GCLA,2020-12-11T19:30:00Z,28.62,-17.75,19.0,17.0,40,8,,6.21,30.265747,,,,,,,,,,,FEW,1400,BKN,2600,,,,,MVFR,,,,,,,,,,,,METAR,20.0
GCHI 111930Z AUTO 05011KT 9999 FEW016 SCT022 BKN028 20/17 Q1024,GCHI,2020-12-11T19:30:00Z,27.82,-17.88,20.0,17.0,50,11,,6.21,30.236221,,,TRUE,,,,,,,,FEW,1600,SCT,2200,BKN,2800,,,MVFR,,,,,,,,,,,,METAR,21.0
GCGM 111930Z AUTO 23004KT 170V250 9999 FEW022 BKN028 19/15 Q1024 RMK R09/VRB02KT ARP/24003KT 180V280,GCGM,2020-12-11T19:30:00Z,28.03,-17.22,19.0,15.0,230,4,,6.21,30.236221,,,TRUE,,,,,,,,FEW,2200,BKN,2800,,,,,MVFR,,,,,,,,,,,,METAR,217.0
GCFV 111930Z 03016KT 9999 FEW014 BKN020 20/17 Q1023,GCFV,2020-12-11T19:30:00Z,28.43,-13.87,20.0,17.0,30,16,,6.21,30.206694,,,,,,,,,,,FEW,1400,BKN,2000,,,,,MVFR,,,,,,,,,,,,METAR,11.0
GABS 111930Z 06007KT CAVOK 29/06 Q1014 NOSIG,GABS,2020-12-11T19:30:00Z,12.53,-7.95,29.0,6.0,60,7,,6.21,29.940945,,,,,,TRUE,,,,,CAVOK,,,,,,,,VFR,,,,,,,,,,,,METAR,375.0
FOOL 111930Z VRB02KT 9999 SCT010 26/23 Q1012 NOSIG,FOOL,2020-12-11T19:30:00Z,0.45,9.42,26.0,23.0,0,2,,6.21,29.88189,,,,,,TRUE,,,,,SCT,1000,,,,,,,VFR,,,,,,,,,,,,METAR,9.0
FMMI 111930Z 09006KT 050V150 9999 FEW010 BKN020 17/17 Q1022 NOSIG,FMMI,2020-12-11T19:30:00Z,-18.8,47.47,17.0,17.0,90,6,,6.21,30.177166,,,,,,TRUE,,,,,FEW,1000,BKN,2000,,,,,MVFR,,,,,,,,,,,,METAR,1269.0
FMEP 111930Z AUTO 11016KT 9999 SCT047 SCT066 24/18 Q1016,FMEP,2020-12-11T19:30:00Z,-21.32,55.42,24.0,18.0,110,16,,6.21,30.0,,,TRUE,,,,,,,,SCT,4700,SCT,6600,,,,,VFR,,,,,,,,,,,,METAR,21.0
FMEE 111930Z AUTO 14015KT 9999 SCT038 OVC054 23/19 Q1017 TEMPO 4000 SHRA,FMEE,2020-12-11T19:30:00Z,-20.88,55.52,23.0,19.0,140,15,,6.21,30.029528,,,TRUE,,,,,,,,SCT,3800,OVC,5400,,,,,VFR,,,,,,,,,,,,METAR,20.0
FMCZ 111930Z AUTO 15005KT 9999 FEW020 BKN160 26/23 Q1013 TEMPO 1500 TSRA BECMG FEW018CB SCT020TCU,FMCZ,2020-12-11T19:30:00Z,-12.8,45.27,26.0,23.0,150,5,,6.21,29.911417,,,TRUE,,,,,,,,FEW,2000,BKN,16000,,,,,VFR,,,,,,,,,,,,METAR,7.0
FAOR 111930Z 34006KT CAVOK 24/14 Q1020 NOSIG,FAOR,2020-12-11T19:30:00Z,-26.13,28.23,24.0,14.0,340,6,,6.21,30.11811,,,,,,TRUE,,,,,CAVOK,,,,,,,,VFR,,,,,,,,,,,,METAR,1684.0
EPZG 111930Z 08006KT 2200 BR OVC033 01/00 Q1003,EPZG,2020-12-11T19:30:00Z,52.13,15.77,1.0,0.0,80,6,,1.37,29.616142,,,,,,,,,,BR,OVC,3300,,,,,,,IFR,,,,,,,,,,,,METAR,59.0
EPWR 111930Z 16005KT 6000 BKN031 01/M00 Q1003,EPWR,2020-12-11T19:30:00Z,51.1,16.88,1.0,0.0,160,5,,3.73,29.616142,,,,,,,,,,,BKN,3100,,,,,,,MVFR,,,,,,,,,,,,METAR,118.0
EPWA 111930Z 10007KT 4000 BR OVC002 02/01 Q1007 R88/2///95 BECMG 2000 DZ BR,EPWA,2020-12-11T19:30:00Z,52.17,20.97,2.0,1.0,100,7,,2.49,29.734253,,,,,,,,,,BR,OVC,200,,,,,,,LIFR,,,,,,,,,,,,SPECI,107.0
EPSY 111930Z 12004KT 090V170 0300 R01/1000N FG BKN002 OVC003 01/00 Q1008 R01/290095,EPSY,2020-12-11T19:30:00Z,53.47,20.93,1.0,0.0,120,4,,0.19,29.763779,,,,,,,,,,FG,BKN,200,OVC,300,,,,,LIFR,,,,,,,,,,,,METAR,136.0
EPSC 111930Z 12010KT 4800 BR SCT004 OVC005 00/M01 Q1003,EPSC,2020-12-11T19:30:00Z,53.58,14.9,0.0,-1.0,120,10,,2.98,29.616142,,,,,,,,,,BR,SCT,400,OVC,500,,,,,IFR,,,,,,,,,,,,METAR,47.0
EPRZ 111930Z 09007KT 1800 BR OVC002 01/01 Q1006,EPRZ,2020-12-11T19:30:00Z,50.1,22.02,1.0,1.0,90,7,,1.12,29.704725,,,,,,,,,,BR,OVC,200,,,,,,,LIFR,,,,,,,,,,,,METAR,206.0
EPPO 111930Z 12010KT 8000 BKN030 02/00 Q1004,EPPO,2020-12-11T19:30:00Z,52.42,16.83,2.0,0.0,120,10,,4.97,29.64567,,,,,,,,,,,BKN,3000,,,,,,,MVFR,,,,,,,,,,,,METAR,87.0
EPMO 111930Z 10007KT 2300 BR OVC003 01/01 Q1007 R08/290195,EPMO,2020-12-11T19:30:00Z,52.45,20.65,1.0,1.0,100,7,,1.43,29.734253,,,,,,,,,,BR,OVC,300,,,,,,,LIFR,,,,,,,,,,,,SPECI,102.0
EPLL 111930Z 09004KT 1100 R25/2000N BR OVC002 01/00 Q1005,EPLL,2020-12-11T19:30:00Z,51.72,19.4,1.0,0.0,90,4,,0.68,29.675198,,,,,,,,,,BR,OVC,200,,,,,,,LIFR,,,,,,,,,,,,METAR,176.0
EPLB 111930Z 10010KT 1200 R25/1600 BR OVC002 03/03 Q1008,EPLB,2020-12-11T19:30:00Z,51.23,22.72,3.0,3.0,100,10,,0.75,29.763779,,,,,,,,,,BR,OVC,200,,,,,,,LIFR,,,,,,,,,,,,SPECI,206.0
EPKT 111930Z 09005KT 4900 BR BKN003 M01/M01 Q1004,EPKT,2020-12-11T19:30:00Z,50.47,19.08,-1.0,-1.0,90,5,,3.04,29.64567,,,,,,,,,,BR,BKN,300,,,,,,,LIFR,,,,,,,,,,,,METAR,296.0
EPKK 111930Z 06008KT 0400 R25/0800N FG VV001 00/M00 Q1005 R25/29//95,EPKK,2020-12-11T19:30:00Z,50.07,19.8,0.0,0.0,60,8,,0.25,29.675198,,,,,,,,,,FG,OVX,0,,,,,,,LIFR,,,,,,,,,,,100,SPECI,237.0
EPGD 111930Z 12010KT 1300 0700E R29/1800U BCFG BR OVC002 00/M00 Q1007 R11/290095,EPGD,2020-12-11T19:30:00Z,54.37,18.47,0.0,0.0,120,10,,0.81,29.734253,,,,,,,,,,BCFG BR,OVC,200,,,,,,,LIFR,,,,,,,,,,,,SPECI,136.0
EPBY 111930Z 11010KT 080V140 5000 BR OVC003 01/00 Q1006,EPBY,2020-12-11T19:30:00Z,53.1,18.0,1.0,0.0,110,10,,3.11,29.704725,,,,,,,,,,BR,OVC,300,,,,,,,LIFR,,,,,,,,,,,,METAR,66.0
EIWF 111930Z 32010KT 270V360 9999 SCT022 08/06 Q0990 R03/1/////,EIWF,2020-12-11T19:30:00Z,52.18,-7.08,8.0,6.0,320,10,,6.21,29.232283,,,,,,,,,,,SCT,2200,,,,,,,VFR,,,,,,,,,,,,METAR,26.0
EINN 111930Z 27005KT 240V320 9999 FEW012 FEW018CB 07/04 Q0992 NOSIG,EINN,2020-12-11T19:30:00Z,52.7,-8.92,7.0,4.0,270,5,,6.21,29.291338,,,,,,TRUE,,,,,FEW,1200,FEW,1800,,,,,VFR,,,,,,,,,,,,METAR,20.0
EIKY 111930Z 29006KT 250V340 9999 SCT021 BKN049 07/04 Q0993,EIKY,2020-12-11T19:30:00Z,52.18,-9.53,7.0,4.0,290,6,,6.21,29.320866,,,,,,,,,,,SCT,2100,BKN,4900,,,,,VFR,,,,,,,,,,,,METAR,23.0
EIDW 111930Z 29016KT 9999 FEW007 SCT013 BKN025 07/07 Q0988 NOSIG,EIDW,2020-12-11T19:30:00Z,53.42,-6.28,7.0,7.0,290,16,,6.21,29.17323,,,,,,TRUE,,,,,FEW,700,SCT,1300,BKN,2500,,,MVFR,,,,,,,,,,,,METAR,75.0
EIDL 111930Z 30013KT 9999 -RA SCT019 BKN042 09/06 Q0988,EIDL,2020-12-11T19:30:00Z,55.05,-8.33,9.0,6.0,300,13,,6.21,29.17323,,,,,,,,,,-RA,SCT,1900,BKN,4200,,,,,VFR,,,,,,,,,,,,METAR,2.0
EICK 111930Z 29014KT 9999 FEW012 BKN018 06/04 Q0992 NOSIG,EICK,2020-12-11T19:30:00Z,51.85,-8.47,6.0,4.0,290,14,,6.21,29.291338,,,,,,TRUE,,,,,FEW,1200,BKN,1800,,,,,MVFR,,,,,,,,,,,,METAR,158.0
EHVK 111930Z AUTO 12007KT 090V150 9999 -DZ OVC014 04/03 Q0990 GRN,EHVK,2020-12-11T19:30:00Z,51.65,5.7,4.0,3.0,120,7,,6.21,29.232283,,,TRUE,,,,,,,-DZ,OVC,1400,,,,,,,MVFR,,,,,,,,,,,,SPECI,20.0
DTTJ 111930Z 20010KT 9999 FEW026 16/09 Q1008 NOSIG,DTTJ,2020-12-11T19:30:00Z,33.87,10.77,16.0,9.0,200,10,,6.21,29.763779,,,,,,TRUE,,,,,FEW,2600,,,,,,,VFR,,,,,,,,,,,,METAR,3.0
DTTA 111930Z 17004KT 8000 -RA SCT020 BKN030 13/10 Q1005,DTTA,2020-12-11T19:30:00Z,36.85,10.22,13.0,10.0,170,4,,4.97,29.675198,,,,,,,,,,-RA,SCT,2000,BKN,3000,,,,,MVFR,,,,,,,,,,,,METAR,4.0
DTNH 111930Z 23003KT 8000 SCT023 SCT033 13/10 Q1005 NOSIG,DTNH,2020-12-11T19:30:00Z,36.07,10.43,13.0,10.0,230,3,,4.97,29.675198,,,,,,TRUE,,,,,SCT,2300,SCT,3300,,,,,MVFR,,,,,,,,,,,,METAR,1.0
DTMB 111930Z 20004KT 8000 SCT030 SCT046 14/10 Q1005,DTMB,2020-12-11T19:30:00Z,35.77,10.75,14.0,10.0,200,4,,4.97,29.675198,,,,,,,,,,,SCT,3000,SCT,4600,,,,,MVFR,,,,,,,,,,,,METAR,1.0
DIAP 111930Z 23008KT 9999 TS FEW014 FEW020CB 28/25 Q1011 NOSIG,DIAP,2020-12-11T19:30:00Z,5.25,-3.92,28.0,25.0,230,8,,6.21,29.852362,,,,,,TRUE,,,,TS,FEW,1400,FEW,2000,,,,,VFR,,,,,,,,,,,,METAR,4.0
DAUH 111930Z 22010KT 9999 SCT040 SCT100 21/08 Q1012,DAUH,2020-12-11T19:30:00Z,31.67,6.15,21.0,8.0,220,10,,6.21,29.88189,,,,,,,,,,,SCT,4000,SCT,10000,,,,,VFR,,,,,,,,,,,,METAR,141.0
DAOO 111930Z 23019KT 9999 FEW023 BKN026 18/15 Q1014,DAOO,2020-12-11T19:30:00Z,35.62,-0.62,18.0,15.0,230,19,,6.21,29.940945,,,,,,,,,,,FEW,2300,BKN,2600,,,,,MVFR,,,,,,,,,,,,METAR,87.0
DAON 111930Z 24020KT 9999 SCT026 SCT100 18/12 Q1015,DAON,2020-12-11T19:30:00Z,35.02,-1.47,18.0,12.0,240,20,,6.21,29.970472,,,,,,,,,,,SCT,2600,SCT,10000,,,,,VFR,,,,,,,,,,,,METAR,245.0
DAAT 111930Z 36004KT 330V030 CAVOK 13/// Q1021,DAAT,2020-12-11T19:30:00Z,22.82,5.47,,,360,4,,6.21,30.147638,,,,,,,,,,,CAVOK,,,,,,,,VFR,,,,,,,,,,,,SPECI,1372.0
DAAG 111930Z 08006KT 9999 FEW020TCU SCT060 BKN080 17/16 Q1008,DAAG,2020-12-11T19:30:00Z,36.68,3.22,17.0,16.0,80,6,,6.21,29.763779,,,,,,,,,,,FEW,2000,SCT,6000,BKN,8000,,,VFR,,,,,,,,,,,,METAR,18.0
CYRJ 111930Z 24006KT 20SM BKN028 OVC052 M00/M03 A2993 RMK SC5NS3 SLP149,CYRJ,2020-12-11T19:30:00Z,48.52,-72.27,0.0,-3.0,240,6,,20.0,29.929134,1014.9,,,,,,,,,,BKN,2800,OVC,5200,,,,,MVFR,,,,,,,,,,,,SPECI,173.0
CYCA 111930Z AUTO 31003KT 9SM BKN020 OVC100 M02/M05 A2984 RMK SLP110,CYCA,2020-12-11T19:30:00Z,53.68,-57.03,-2.0,-5.0,310,3,,9.0,29.840551,1011.0,,TRUE,,,,,,,,BKN,2000,OVC,10000,,,,,MVFR,,,,,,,,,,,,SPECI,12.0
CWPF 111930Z AUTO 18004KT 07/03 RMK AO1 SLP178 T00670032 51010,CWPF,2020-12-11T19:30:00Z,48.43,-123.43,6.7,3.2,180,4,,,,1017.8,,TRUE,TRUE,,,,,,,,,,,,,,,,1.0,,,,,,,,,,,METAR,5.0
BKPR 111930Z 36005KT CAVOK 02/M00 Q1004 NOSIG RMK 17010095,BKPR,2020-12-11T19:30:00Z,42.58,21.03,2.0,0.0,360,5,,6.21,29.64567,,,,,,TRUE,,,,,CAVOK,,,,,,,,VFR,,,,,,,,,,,,SPECI,545.0
BIKF 111930Z 03014KT 9999 FEW048 BKN110 05/02 Q0983,BIKF,2020-12-11T19:30:00Z,63.98,-22.6,5.0,2.0,30,14,,6.21,29.02559,,,,,,,,,,,FEW,4800,BKN,11000,,,,,VFR,,,,,,,,,,,,METAR,49.0
PANN 111929Z AUTO 00000KT 10SM SCT009 A3024 RMK AO2 TSNO,PANN,2020-12-11T19:29:00Z,64.55,-149.08,,,0,0,,10.0,30.239174,,,TRUE,TRUE,,,TRUE,,,,SCT,900,,,,,,,VFR,,,,,,,,,,,,SPECI,110.0
KILE 111929Z AUTO 16005KT 9SM SCT004 18/17 A2984 RMK AO2,KILE,2020-12-11T19:29:00Z,31.08,-97.68,18.0,17.0,160,5,,9.0,29.840551,,,TRUE,TRUE,,,,,,,SCT,400,,,,,,,VFR,,,,,,,,,,,,SPECI,256.0
KDEN 111929Z 06007KT 2SM -SN FEW008 BKN011 OVC030 M04/M07 A2990 RMK AO2 P0001 T10441072,KDEN,2020-12-11T19:29:00Z,39.85,-104.65,-4.4,-7.2,60,7,,2.0,29.899607,,,,TRUE,,,,,,-SN,FEW,800,BKN,1100,OVC,3000,,,IFR,,,,,,0.01,,,,,,SPECI,1656.0
KACT 111929Z 17009KT 6SM BR FEW003 BKN110 18/17 A2983 RMK AO2 RAE09 P0001 T01780167,KACT,2020-12-11T19:29:00Z,31.62,-97.23,17.8,16.7,170,9,,6.0,29.828741,,,,TRUE,,,,,,BR,FEW,300,BKN,11000,,,,,VFR,,,,,,0.01,,,,,,SPECI,150.0
EGUL 111929Z AUTO 00000KT 9000 -DZ BKN006 BKN010 OVC021 08/ A2913 RMK AO2 DZB29 SLP868 $,EGUL,2020-12-11T19:29:00Z,52.42,0.57,8.0,,0,0,,5.59,29.128937,986.8,,TRUE,TRUE,TRUE,,,,,-DZ,BKN,600,BKN,1000,OVC,2100,,,IFR,,,,,,,,,,,,SPECI,8.0
EGDR 111929Z 30014G24KT 9999 SCT013 09/08 Q0991 TEMPO 3000 +SHRA SCT006 BKN016CB RMK GRN YLO1,EGDR,2020-12-11T19:29:00Z,50.08,-5.25,9.0,8.0,300,14,24,6.21,29.26181,,,,,,,,,,,SCT,1300,,,,,,,VFR,,,,,,,,,,,,SPECI,74.0
CYQR 111929Z 33005KT 8SM BKN006 OVC024 M06/M07 A3014 RMK SC5SC3 SLP248,CYQR,2020-12-11T19:29:00Z,50.43,-104.67,-6.0,-7.0,330,5,,8.0,30.138779,1024.8,,,,,,,,,,BKN,600,OVC,2400,,,,,IFR,,,,,,,,,,,,SPECI,576.0
PAPB 111928Z AUTO 09019KT 9SM FEW013 BKN060 OVC075 03/01 A2935 RMK AO2 T00280011 TSNO $,PAPB,2020-12-11T19:28:00Z,56.58,-169.67,2.8,1.1,90,19,,9.0,29.350393,,,TRUE,TRUE,TRUE,,TRUE,,,,FEW,1300,BKN,6000,OVC,7500,,,VFR,,,,,,,,,,,,SPECI,33.0
PADU 111928Z 08010KT 10SM -RA FEW008 BKN012 OVC020 03/01 A2923 RMK AO2 P0001,PADU,2020-12-11T19:28:00Z,53.9,-166.53,3.0,1.0,80,10,,10.0,29.22933,,,,TRUE,,,,,,-RA,FEW,800,BKN,1200,OVC,2000,,,MVFR,,,,,,0.01,,,,,,SPECI,4.0
PABL 111928Z AUTO 14005KT 10SM SCT003 M31/M33 A3038 RMK AO2 FZRANO,PABL,2020-12-11T19:28:00Z,65.98,-161.15,-31.0,-33.0,140,5,,10.0,30.380905,,,TRUE,TRUE,,,,TRUE,,,SCT,300,,,,,,,VFR,,,,,,,,,,,,SPECI,7.0
LICR 111928Z VRB02KT 9999 RA BKN040 13/08 Q1003,LICR,2020-12-11T19:28:00Z,38.07,15.65,13.0,8.0,0,2,,6.21,29.616142,,,,,,,,,,RA,BKN,4000,,,,,,,VFR,,,,,,,,,,,,SPECI,16.0
KQN3 111928Z AUTO 00000KT 2800 HZ CLR 31/04 A2991 RMK AO2 VIS 2800V3600 SLP119 WND DATA ESTMD,KQN3,2020-12-11T19:28:00Z,,,31.0,4.0,0,0,,1.74,29.911417,1011.9,,TRUE,TRUE,,,,,,HZ,CLR,,,,,,,,IFR,,,,,,,,,,,,SPECI,
KKLS 111928Z AUTO 15004KT 10SM -RA OVC015 06/04 A3009 RMK AO2 P0002,KKLS,2020-12-11T19:28:00Z,46.12,-122.9,6.0,4.0,150,4,,10.0,30.088583,,,TRUE,TRUE,,,,,,-RA,OVC,1500,,,,,,,MVFR,,,,,,0.02,,,,,,SPECI,4.0
KGNB 111928Z AUTO 00000KT 10SM OVC043 M03/M06 A2979 RMK AO2 T10311063,KGNB,2020-12-11T19:28:00Z,40.08,-105.92,-3.1,-6.3,0,0,,10.0,29.790354,,,TRUE,TRUE,,,,,,,OVC,4300,,,,,,,VFR,,,,,,,,,,,,SPECI,2500.0
KCEZ 111928Z AUTO 28008KT 10SM SCT019 BKN095 M01/M03 A2995 RMK AO2 T10061028,KCEZ,2020-12-11T19:28:00Z,37.3,-108.63,-0.6,-2.8,280,8,,10.0,29.949802,,,TRUE,TRUE,,,,,,,SCT,1900,BKN,9500,,,,,VFR,,,,,,,,,,,,SPECI,1801.0
K21D 111928Z AUTO 04008KT 10SM CLR 02/M03 A3009 RMK AO2,K21D,2020-12-11T19:28:00Z,45.0,-92.85,2.0,-3.0,40,8,,10.0,30.088583,,,TRUE,TRUE,,,,,,,CLR,,,,,,,,VFR,,,,,,,,,,,,METAR,281.0
CYYD 111928Z 00000KT 5SM BR SCT002 OVC035 M02/M02 A3007 RMK SC4SC4 VIS 2 S SLP208,CYYD,2020-12-11T19:28:00Z,54.82,-127.18,-2.0,-2.0,0,0,,5.0,30.070866,1020.8,,,,,,,,,BR,SCT,200,OVC,3500,,,,,MVFR,,,,,,,,,,,,SPECI,527.0
CYWA 111928Z AUTO 34004KT 9SM OVC021 02/00 A2999,CYWA,2020-12-11T19:28:00Z,45.95,-77.32,2.0,0.0,340,4,,9.0,29.991142,,,TRUE,,,,,,,,OVC,2100,,,,,,,MVFR,,,,,,,,,,,,SPECI,121.0
CYET 111928Z AUTO VRB02KT 4SM -SN OVC003 M10/M11 A3001 RMK SLP234,CYET,2020-12-11T19:28:00Z,53.57,-116.47,-10.0,-11.0,0,2,,4.0,30.008858,1023.4,,TRUE,,,,,,,-SN,OVC,300,,,,,,,LIFR,,,,,,,,,,,,SPECI,925.0
CYBR 111928Z 26008KT 1 1/2SM BR OVC003 M06/M06 A3015 RMK FG4ST4 SLP240,CYBR,2020-12-11T19:28:00Z,49.92,-99.95,-6.0,-6.0,260,8,,1.5,30.15059,1024.0,,,,,,,,,BR,OVC,300,,,,,,,LIFR,,,,,,,,,,,,SPECI,405.0
KRNT 111927Z 19003KT 10SM FEW017 BKN032 OVC039 07/03 A3009 RMK AO2 T00670028,KRNT,2020-12-11T19:27:00Z,47.5,-122.22,6.7,2.8,190,3,,10.0,30.088583,,,,TRUE,,,,,,,FEW,1700,BKN,3200,OVC,3900,,,VFR,,,,,,,,,,,,SPECI,7.0
KMMV 111927Z AUTO 17004KT 7SM -RA SCT012 BKN017 OVC033 07/05 A3007 RMK AO2 P0001 T00670050,KMMV,2020-12-11T19:27:00Z,45.2,-123.13,6.7,5.0,170,4,,7.0,30.070866,,,TRUE,TRUE,,,,,,-RA,SCT,1200,BKN,1700,OVC,3300,,,MVFR,,,,,,0.01,,,,,,SPECI,48.0
CYXJ 111927Z 14008KT 1 1/2SM BR VV002 M10/M12 A2997 RMK FG8 SLP203,CYXJ,2020-12-11T19:27:00Z,56.25,-120.73,-10.0,-12.0,140,8,,1.5,29.970472,1020.3,,,,,,,,,BR,OVX,0,,,,,,,LIFR,,,,,,,,,,,200,SPECI,700.0
CYFS 111927Z 35004KT 300V020 3/8SM SN VV007 M14/M16 A3015 RMK SN8 SLP230,CYFS,2020-12-11T19:27:00Z,61.75,-121.22,-14.0,-16.0,350,4,,0.38,30.15059,1023.0,,,,,,,,,SN,OVX,0,,,,,,,LIFR,,,,,,,,,,,700,SPECI,174.0
RKNF 111926Z 26020G032KT 3200 BR BKN180 M06/M09 A2977 RMK CIG180,RKNF,2020-12-11T19:26:00Z,37.75,128.67,-6.0,-9.0,260,20,32,1.99,29.769686,,,,,,,,,,BR,BKN,18000,,,,,,,IFR,,,,,,,,,,,,SPECI,1230.0
KTXK 111926Z 23006KTKT 7SMSM -RA FEW018 BKN070 OVC100 16/14 A2985,KTXK,2020-12-11T19:26:00Z,33.45,-93.98,16.0,14.0,,,,,29.84941,,,,,,,,,,-RA,FEW,1800,BKN,7000,OVC,10000,,,,,,,,,,,,,,,SPECI,118.0
KTBN 111926Z AUTO 17007KT 10SM -RA FEW022 BKN055 BKN065 12/12 A2977 RMK AO2 RAE1856RAB04E20DZB20E24RAB26 SLP083,KTBN,2020-12-11T19:26:00Z,37.73,-92.13,12.0,12.0,170,7,,10.0,29.769686,1008.3,,TRUE,TRUE,,,,,,-RA,FEW,2200,BKN,5500,BKN,6500,,,VFR,,,,,,,,,,,,SPECI,349.0
KROW 111926Z 25015G26KT 10SM FEW080 18/M05 A2984 RMK AO2 PK WND 23026/1918 WSHFT 1906 T01831050,KROW,2020-12-11T19:26:00Z,33.3,-104.5,18.3,-5.0,250,15,26,10.0,29.840551,,,,TRUE,,,,,,,FEW,8000,,,,,,,VFR,,,,,,,,,,,,SPECI,1105.0
KNTD 111926Z 22007KT 10SM BKN027 BKN250 16/08 A3014 RMK AO2 T01560078 $,KNTD,2020-12-11T19:26:00Z,34.12,-119.12,15.6,7.8,220,7,,10.0,30.138779,,,,TRUE,TRUE,,,,,,BKN,2700,BKN,25000,,,,,MVFR,,,,,,,,,,,,SPECI,1.0
KFFO 111926Z 20011KT 10SM BKN200 16/03 A2994 RMK SLP143,KFFO,2020-12-11T19:26:00Z,39.83,-84.03,16.0,3.0,200,11,,10.0,29.940945,1014.3,,,,,,,,,,BKN,20000,,,,,,,VFR,,,,,,,,,,,,SPECI,250.0
KCLL 111926Z 00000KT 5SM -RA BR SCT019 BKN024 OVC065 18/18 A2985 RMK AO2 P0006 T01830178,KCLL,2020-12-11T19:26:00Z,30.58,-96.37,18.3,17.8,0,0,,5.0,29.84941,,,,TRUE,,,,,,-RA BR,SCT,1900,BKN,2400,OVC,6500,,,MVFR,,,,,,0.06,,,,,,SPECI,96.0
ETEB 111926Z AUTO 14009KT 9999 BKN008 00/00 A2943 RMK AO2 SLP003 $,ETEB,2020-12-11T19:26:00Z,49.32,10.63,0.0,0.0,140,9,,6.21,29.430119,1000.3,,TRUE,TRUE,TRUE,,,,,,BKN,800,,,,,,,IFR,,,,,,,,,,,,SPECI,466.0
EGVA 111926Z AUTO 27005KT 9999 OVC007 07/07 A2915 RMK AO2 SLP876 $,EGVA,2020-12-11T19:26:00Z,51.67,-1.78,7.0,7.0,270,5,,6.21,29.149607,987.6,,TRUE,TRUE,TRUE,,,,,,OVC,700,,,,,,,IFR,,,,,,,,,,,,SPECI,84.0
CYXH 111926Z 04004KT 8SM OVC010 M05/M06 A3014 RMK SC8 SLP249,CYXH,2020-12-11T19:26:00Z,50.02,-110.72,-5.0,-6.0,40,4,,8.0,30.138779,1024.9,,,,,,,,,,OVC,1000,,,,,,,MVFR,,,,,,,,,,,,SPECI,717.0
CYQL 111926Z 00000KT 3SM BR OVC005 M08/M08 A3009 RMK SC8 SLP253,CYQL,2020-12-11T19:26:00Z,49.63,-112.8,-8.0,-8.0,0,0,,3.0,30.088583,1025.3,,,,,,,,,BR,OVC,500,,,,,,,IFR,,,,,,,,,,,,SPECI,923.0
CYPH 111926Z AUTO 32023G28KT 1 1/4SM -SN BLSN OVC019 M14/M17 A2994 RMK SLP144,CYPH,2020-12-11T19:26:00Z,58.47,-78.08,-14.0,-17.0,320,23,28,1.25,29.940945,1014.4,,TRUE,,,,,,,-SN BLSN,OVC,1900,,,,,,,IFR,,,,,,,,,,,,SPECI,24.0
SASA 111925Z 09020KT 0500 +TSRA SCT005 FEW035CB BKN400 31/14 Q1008,SASA,2020-12-11T19:25:00Z,-24.85,-65.48,31.0,14.0,90,20,,0.31,29.763779,,,,,,,,,,+TSRA,SCT,500,FEW,3500,BKN,40000,,,LIFR,,,,,,,,,,,,SPECI,1235.0
OPLA 111925Z 17002KT 4000 TSRA FEW030CB SCT040 OVC100 13/12 Q1013 RMK QFE986 RMK A29.94,OPLA,2020-12-11T19:25:00Z,31.52,74.4,13.0,12.0,170,2,,2.49,29.911417,,,,,,,,,,TSRA,FEW,3000,SCT,4000,OVC,10000,,,IFR,,,,,,,,,,,,SPECI,217.0
MMMX 111925Z 00000KT 5SM SKC 24/06 A3021 NOSIG RMK HZY,MMMX,2020-12-11T19:25:00Z,19.43,-99.08,24.0,6.0,0,0,,5.0,30.209646,,,,,,TRUE,,,,,SKC,,,,,,,,MVFR,,,,,,,,,,,,SPECI,2224.0
KS85 111925Z AUTO 00000KT 7SM M04/M04 A3012 RMK A01 Culbertson ,KS85,2020-12-11T19:25:00Z,48.15,-104.5,-4.0,-4.0,0,0,,7.0,30.121063,,,TRUE,TRUE,,,,,,,,,,,,,,,,,,,,,,,,,,,METAR,596.0
KPWD 111925Z AUTO 00000KT 10SM OVC014 M04/M05 A3011 RMK A01 Plentywood ,KPWD,2020-12-11T19:25:00Z,48.78,-104.52,-4.0,-5.0,0,0,,10.0,30.109253,,,TRUE,TRUE,,,,,,,OVC,1400,,,,,,,MVFR,,,,,,,,,,,,METAR,690.0
KPTV 111925Z AUTO VRB05KT 9SM FEW002 13/01 A3018 RMK AO2,KPTV,2020-12-11T19:25:00Z,36.02,-119.07,13.0,1.0,0,5,,9.0,30.180119,,,TRUE,TRUE,,,,,,,FEW,200,,,,,,,VFR,,,,,,,,,,,,SPECI,132.0
KMRC 111925Z AUTO 20016KT 10SM SCT037 18/10 A3000 RMK A01,KMRC,2020-12-11T19:25:00Z,35.55,-87.18,18.0,10.0,200,16,,10.0,30.0,,,TRUE,TRUE,,,,,,,SCT,3700,,,,,,,VFR,,,,,,,,,,,,SPECI,205.0
KLWS 111925Z 00000KT 3/4SM -SN BR BKN003 BKN011 OVC019 01/M01 A3006 RMK AO2 P0001 T00111006,KLWS,2020-12-11T19:25:00Z,46.37,-117.02,1.1,-0.6,0,0,,0.75,30.059055,,,,TRUE,,,,,,-SN BR,BKN,300,BKN,1100,OVC,1900,,,LIFR,,,,,,0.01,,,,,,SPECI,435.0
KGTF 111925Z 04003KT 10SM OVC006 M04/M06 A3000 RMK AO2 CIG 004V009 T10391056 $,KGTF,2020-12-11T19:25:00Z,47.47,-111.38,-3.9,-5.6,40,3,,10.0,30.0,,,,TRUE,TRUE,,,,,,OVC,600,,,,,,,IFR,,,,,,,,,,,,SPECI,1117.0
KCII 111925Z AUTO 02005KT 4SM BR M06/M07 A3001 RMK A01 Choteau ,KCII,2020-12-11T19:25:00Z,47.83,-112.17,-6.0,-7.0,20,5,,4.0,30.008858,,,TRUE,TRUE,,,,,,BR,,,,,,,,,,,,,,,,,,,,,METAR,1202.0
K7S6 111925Z AUTO 00000KT 10SM M05/M07 A2991 RMK A01 White Sulphur Spgs ,K7S6,2020-12-11T19:25:00Z,46.5,-110.92,-5.0,-7.0,0,0,,10.0,29.911417,,,TRUE,TRUE,,,,,,,,,,,,,,,,,,,,,,,,,,,METAR,1543.0
K6S8 111925Z AUTO 09004KT 10SM M03/M05 A2998 RMK A01 LAUREL,K6S8,2020-12-11T19:25:00Z,45.7,-108.77,-3.0,-5.0,90,4,,10.0,29.97933,,,TRUE,TRUE,,,,,,,,,,,,,,,,,,,,,,,,,,,SPECI,1072.0
K4U6 111925Z AUTO 05006KT M1/4SM FZFG M07/M07 A3007 RMK A01 Circle ,K4U6,2020-12-11T19:25:00Z,47.42,-105.57,-7.0,-7.0,50,6,,0.25,30.070866,,,TRUE,TRUE,,,,,,FZFG,,,,,,,,,,,,,,,,,,,,,METAR,739.0
EHWO 111925Z AUTO 12004KT 5000 -DZ FEW002 BKN003 BKN004 06/05 Q0988 REDZ YLO,EHWO,2020-12-11T19:25:00Z,51.45,4.33,6.0,5.0,120,4,,3.11,29.17323,,,TRUE,,,,,,,-DZ,FEW,200,BKN,300,BKN,400,,,LIFR,,,,,,,,,,,,SPECI,15.0
EHSC 111925Z AUTO 15016KT 5000 BR ///////// 06/06 Q0988 W09/H7,EHSC,2020-12-11T19:25:00Z,51.93,3.67,6.0,6.0,150,16,,3.11,29.17323,,,TRUE,,,,,,,BR,,,,,,,,,,,,,,,,,,,,,METAR,19.0
EHSA 111925Z AUTO 13016KT 5000 BR ///////// 07/07 Q0987 W09/H10,EHSA,2020-12-11T19:25:00Z,52.0,3.28,7.0,7.0,130,16,,3.11,29.143702,,,TRUE,,,,,,,BR,,,,,,,,,,,,,,,,,,,,,METAR,18.0
EHRD 111925Z AUTO 13008KT 100V160 4200 DZ FEW003 BKN004 OVC006 05/05 Q0989 TEMPO 2500 BKN005,EHRD,2020-12-11T19:25:00Z,51.95,4.45,5.0,5.0,130,8,,2.61,29.202755,,,TRUE,,,,,,,DZ,FEW,300,BKN,400,OVC,600,,,LIFR,,,,,,,,,,,,METAR,-4.0
EHQE 111925Z AUTO 11020KT 9999 SCT005 OVC006 06/04 Q0989,EHQE,2020-12-11T19:25:00Z,52.92,4.15,6.0,4.0,110,20,,6.21,29.202755,,,TRUE,,,,,,,,SCT,500,OVC,600,,,,,IFR,,,,,,,,,,,,METAR,41.0
EHPG 111925Z AUTO 13017KT 080V160 9999 BKN003 OVC004 07/06 Q0987,EHPG,2020-12-11T19:25:00Z,52.37,3.35,7.0,6.0,130,17,,6.21,29.143702,,,TRUE,,,,,,,,BKN,300,OVC,400,,,,,LIFR,,,,,,,,,,,,METAR,24.0
EHMG 111925Z AUTO 14021KT 7000 -RA FEW005 SCT006 BKN007 05/03 Q0992 RERA REDZ,EHMG,2020-12-11T19:25:00Z,53.62,4.97,5.0,3.0,140,21,,4.35,29.291338,,,TRUE,,,,,,,-RA,FEW,500,SCT,600,BKN,700,,,IFR,,,,,,,,,,,,METAR,30.0
EHMA 111925Z AUTO 11019KT 9999 -DZ FEW014 FEW015CB BKN016 OVC022 05/02 Q0992,EHMA,2020-12-11T19:25:00Z,53.5,5.95,5.0,2.0,110,19,,6.21,29.291338,,,TRUE,,,,,,,-DZ,FEW,1400,FEW,1500,BKN,1600,OVC,2200,MVFR,,,,,,,,,,,,METAR,27.0
EHLE 111925Z AUTO 12009KT 8000 DZ FEW010 FEW015CB BKN018 OVC049 04/03 Q0990 TEMPO 6000 -DZRA,EHLE,2020-12-11T19:25:00Z,52.45,5.52,4.0,3.0,120,9,,4.97,29.232283,,,TRUE,,,,,,,DZ,FEW,1000,FEW,1500,BKN,1800,OVC,4900,MVFR,,,,,,,,,,,,SPECI,-3.0
EHKV 111925Z AUTO 15017KT 9999 SCT005 OVC006 07/06 Q0989,EHKV,2020-12-11T19:25:00Z,53.27,3.63,7.0,6.0,150,17,,6.21,29.202755,,,TRUE,,,,,,,,SCT,500,OVC,600,,,,,IFR,,,,,,,,,,,,METAR,28.0
EHKD 111925Z AUTO 12011KT 7000 DZ FEW007 BKN008 BKN009 04/03 Q0990 GRN NOSIG,EHKD,2020-12-11T19:25:00Z,52.92,4.77,4.0,3.0,120,11,,4.35,29.232283,,,TRUE,,,TRUE,,,,DZ,FEW,700,BKN,800,BKN,900,,,IFR,,,,,,,,,,,,METAR,1.0
EHJR 111925Z AUTO ///17KT //// // ///////// 07/06 Q0989 RE// W///H16,EHJR,2020-12-11T19:25:00Z,53.22,3.22,7.0,6.0,,,,,29.202755,,,TRUE,,,,,,,,,,,,,,,,,,,,,,,,,,,,METAR,31.0
EHJA 111925Z AUTO 12018KT 090V150 9999 FEW004/// SCT006/// BKN007/// 07/06 Q0989,EHJA,2020-12-11T19:25:00Z,53.82,2.95,7.0,6.0,120,18,,6.21,29.202755,,,TRUE,,,,,,,,FEW,400,SCT,600,BKN,700,,,IFR,,,,,,,,,,,,METAR,34.0
EHHW 111925Z AUTO 16020KT 100V200 9999 BKN010/// OVC013/// 05/02 Q0992,EHHW,2020-12-11T19:25:00Z,54.03,6.03,5.0,2.0,160,20,,6.21,29.291338,,,TRUE,,,,,,,,BKN,1000,OVC,1300,,,,,MVFR,,,,,,,,,,,,METAR,10.0
EHGG 111925Z AUTO 11008KT 080V150 9999 -DZ OVC021 04/01 Q0992 NOSIG,EHGG,2020-12-11T19:25:00Z,53.12,6.57,4.0,1.0,110,8,,6.21,29.291338,,,TRUE,,,TRUE,,,,-DZ,OVC,2100,,,,,,,MVFR,,,,,,,,,,,,METAR,2.0
EHFS 111925Z AUTO 12008KT 3300 BR OVC002/// 07/07 Q0988,EHFS,2020-12-11T19:25:00Z,51.45,3.6,7.0,7.0,120,8,,2.05,29.17323,,,TRUE,,,,,,,BR,OVC,200,,,,,,,LIFR,,,,,,,,,,,,METAR,1.0
EHFD 111925Z AUTO /////KT 9999 // BKN012/// OVC015/// 06/03 Q0992 RE//,EHFD,2020-12-11T19:25:00Z,54.85,4.7,6.0,3.0,,,,6.21,29.291338,,,TRUE,,,,,,,,BKN,1200,OVC,1500,,,,,MVFR,,,,,,,,,,,,METAR,24.0
EHDV 111925Z AUTO 13021KT //// // FEW007/// SCT009/// BKN010/// 07/05 Q0989 RE//,EHDV,2020-12-11T19:25:00Z,54.32,2.93,7.0,5.0,130,21,,,29.202755,,,TRUE,,,,,,,,FEW,700,SCT,900,BKN,1000,,,,,,,,,,,,,,,METAR,36.0
EHDL 111925Z AUTO 13011KT 080V200 9000 DZ FEW009 OVC017 04/03 Q0991 WHT,EHDL,2020-12-11T19:25:00Z,52.07,5.88,4.0,3.0,130,11,,5.59,29.26181,,,TRUE,,,,,,,DZ,FEW,900,OVC,1700,,,,,MVFR,,,,,,,,,,,,METAR,49.0
EHBK 111925Z AUTO 14006KT 9999 -RA OVC016 05/04 Q0990 TEMPO 7000,EHBK,2020-12-11T19:25:00Z,50.92,5.77,5.0,4.0,140,6,,6.21,29.232283,,,TRUE,,,,,,,-RA,OVC,1600,,,,,,,MVFR,,,,,,,,,,,,METAR,112.0
EHAM 111925Z 12010KT 9999 FEW007 SCT009 BKN012 05/03 Q0989 BECMG 6000 TEMPO BKN007,EHAM,2020-12-11T19:25:00Z,52.32,4.78,5.0,3.0,120,10,,6.21,29.202755,,,,,,,,,,,FEW,700,SCT,900,BKN,1200,,,MVFR,,,,,,,,,,,,METAR,-2.0
EHAK 111925Z AUTO 13027KT 100V160 9999 -DZ FEW013/// OVC016/// 07/04 Q0992,EHAK,2020-12-11T19:25:00Z,55.38,3.82,7.0,4.0,130,27,,6.21,29.291338,,,TRUE,,,,,,,-DZ,FEW,1300,OVC,1600,,,,,MVFR,,,,,,,,,,,,METAR,33.0
EBLB 111925Z AUTO 22004KT 5000 BR OVC002/// 02/02 Q0990 AMB,EBLB,2020-12-11T19:25:00Z,50.47,6.17,2.0,2.0,220,4,,3.11,29.232283,,,TRUE,,,,,,,BR,OVC,200,,,,,,,LIFR,,,,,,,,,,,,METAR,563.0
EBFS 111925Z AUTO 17007KT 8000 SCT001/// BKN003/// BKN031/// 06/05 Q0989 RED,EBFS,2020-12-11T19:25:00Z,50.23,4.65,6.0,5.0,170,7,,4.97,29.202755,,,TRUE,,,,,,,,SCT,100,BKN,300,BKN,3100,,,LIFR,,,,,,,,,,,,METAR,276.0
EBFN 111925Z AUTO 20006KT 9999 BKN018/// 08/07 Q0987 WHT,EBFN,2020-12-11T19:25:00Z,51.08,2.65,8.0,7.0,200,6,,6.21,29.143702,,,TRUE,,,,,,,,BKN,1800,,,,,,,MVFR,,,,,,,,,,,,METAR,9.0
EBDT 111925Z AUTO 15006KT 9999 BKN016/// OVC021/// 05/04 Q0989 WHT,EBDT,2020-12-11T19:25:00Z,51.02,5.07,5.0,4.0,150,6,,6.21,29.202755,,,TRUE,,,,,,,,BKN,1600,OVC,2100,,,,,MVFR,,,,,,,,,,,,METAR,25.0
EBCV 111925Z AUTO 17007KT 9999 FEW007/// BKN035/// BKN058/// 08/07 Q0988 BLU,EBCV,2020-12-11T19:25:00Z,50.57,3.82,8.0,7.0,170,7,,6.21,29.17323,,,TRUE,,,,,,,,FEW,700,BKN,3500,BKN,5800,,,VFR,,,,,,,,,,,,METAR,56.0
EBBL 111925Z AUTO 12003KT 6000 BR OVC003/// 04/03 Q0990 YLO,EBBL,2020-12-11T19:25:00Z,51.17,5.47,4.0,3.0,120,3,,3.73,29.232283,,,TRUE,,,,,,,BR,OVC,300,,,,,,,LIFR,,,,,,,,,,,,METAR,50.0
EBBE 111925Z AUTO 17009KT 9999 FEW017/// SCT026/// OVC045/// 06/05 Q0989 BLU,EBBE,2020-12-11T19:25:00Z,50.75,4.77,6.0,5.0,170,9,,6.21,29.202755,,,TRUE,,,,,,,,FEW,1700,SCT,2600,OVC,4500,,,VFR,,,,,,,,,,,,METAR,127.0
CYYW 111925Z AUTO 35004KT 300V010 9SM SCT018 M09/M13 A3021 RMK SLP262,CYYW,2020-12-11T19:25:00Z,50.3,-88.9,-9.0,-13.0,350,4,,9.0,30.209646,1026.2,,TRUE,,,,,,,,SCT,1800,,,,,,,VFR,,,,,,,,,,,,SPECI,320.0
KRVS 111924Z VRB06KT 10SM OVC033 09/04 A2981 RMK AO2 T00890044,KRVS,2020-12-11T19:24:00Z,36.05,-95.98,8.9,4.4,0,6,,10.0,29.811024,,,,TRUE,,,,,,,OVC,3300,,,,,,,VFR,,,,,,,,,,,,METAR,191.0
KGEY 111924Z AUTO 00000KT 1 1/4SM -SN BR OVC025 M02/M04 A2992 RMK AO2 P0001 T10221039,KGEY,2020-12-11T19:24:00Z,44.52,-108.08,-2.2,-3.9,0,0,,1.25,29.920275,,,TRUE,TRUE,,,,,,-SN BR,OVC,2500,,,,,,,IFR,,,,,,0.01,,,,,,SPECI,1191.0
KCQT 111924Z AUTO 00000KT 10SM OVC030 15/07 A3012 RMK AO2 T01500067,KCQT,2020-12-11T19:24:00Z,34.02,-118.28,15.0,6.7,0,0,,10.0,30.121063,,,TRUE,TRUE,,,,,,,OVC,3000,,,,,,,MVFR,,,,,,,,,,,,SPECI,51.0
ETAR 111924Z 00000KT 9999 OVC008 03/03 A2934 RMK RAB1819E1826 SLPNO FZRANO $,ETAR,2020-12-11T19:24:00Z,49.43,7.58,3.0,3.0,0,0,,6.21,29.338583,,,,,TRUE,,,TRUE,,,OVC,800,,,,,,,IFR,,,,,,,,,,,,SPECI,231.0
EKYT 111924Z AUTO 10015KT 9999 BKN015/// BKN019/// 04/02 Q1003,EKYT,2020-12-11T19:24:00Z,57.1,9.87,4.0,2.0,100,15,,6.21,29.616142,,,TRUE,,,,,,,,BKN,1500,BKN,1900,,,,,MVFR,,,,,,,,,,,,SPECI,2.0
YDBY 111923Z AUTO 30015KT 9999 -SHRA SCT012 BKN049 BKN075 26/25 Q1005 RESHRA,YDBY,2020-12-11T19:23:00Z,-17.37,123.67,26.0,25.0,300,15,,6.21,29.675198,,,TRUE,,,,,,,-SHRA,SCT,1200,BKN,4900,BKN,7500,,,VFR,,,,,,,,,,,,SPECI,7.0
KTPL 111923Z AUTO 15007KT 7SM -RA OVC004 18/18 A2984 RMK AO2 RAB01 PRESFR P0001,KTPL,2020-12-11T19:23:00Z,31.15,-97.4,18.0,18.0,150,7,,7.0,29.840551,,,TRUE,TRUE,,,,,,-RA,OVC,400,,,,,,,LIFR,,,,,,0.01,,,,,,METAR,206.0
KRKS 111923Z AUTO 26014KT 10SM FEW021 SCT028 M04/M09 A2986 RMK AO2 T10441089,KRKS,2020-12-11T19:23:00Z,41.6,-109.07,-4.4,-8.9,260,14,,10.0,29.861221,,,TRUE,TRUE,,,,,,,FEW,2100,SCT,2800,,,,,VFR,,,,,,,,,,,,METAR,2062.0
KPUW 111923Z AUTO 14005KT 1SM R05/P6000FT -SN BR FEW009 BKN014 OVC022 00/M02 A3002 RMK AO2 P0001 T00001017,KPUW,2020-12-11T19:23:00Z,46.75,-117.12,0.0,-1.7,140,5,,1.0,30.02067,,,TRUE,TRUE,,,,,,-SN BR,FEW,900,BKN,1400,OVC,2200,,,IFR,,,,,,0.01,,,,,,METAR,774.0
KIRK 111923Z AUTO 05005KT 1 3/4SM -RA BR OVC003 05/04 A2978 RMK AO2 P0002 T00500044,KIRK,2020-12-11T19:23:00Z,40.1,-92.55,5.0,4.4,50,5,,1.75,29.778543,,,TRUE,TRUE,,,,,,-RA BR,OVC,300,,,,,,,LIFR,,,,,,0.02,,,,,,SPECI,292.0
KGRK 111923Z AUTO 16005KT 9SM BKN004 OVC200 18/17 A2983 RMK AO2 SLP096,KGRK,2020-12-11T19:23:00Z,31.07,-97.83,18.0,17.0,160,5,,9.0,29.828741,1009.6,,TRUE,TRUE,,,,,,,BKN,400,OVC,20000,,,,,LIFR,,,,,,,,,,,,SPECI,311.0
KENV 111923Z AUTO 31012G20KT 10SM CLR 04/M11 A3004 RMK AO2 PK WND 29028/1910,KENV,2020-12-11T19:23:00Z,40.72,-114.02,4.0,-11.0,310,12,20,10.0,30.041338,,,TRUE,TRUE,,,,,,,CLR,,,,,,,,VFR,,,,,,,,,,,,METAR,1291.0
KALS 111923Z AUTO VRB04KT 10SM SCT019 BKN047 01/M04 A2977 RMK AO2 T00061039,KALS,2020-12-11T19:23:00Z,37.43,-105.87,0.6,-3.9,0,4,,10.0,29.769686,,,TRUE,TRUE,,,,,,,SCT,1900,BKN,4700,,,,,VFR,,,,,,,,,,,,SPECI,2299.0
CYWJ 111923Z 30003KT 3SM -SN OVC068 M19/M22 A3038 RMK AS8 SLP317,CYWJ,2020-12-11T19:23:00Z,65.22,-123.43,-19.0,-22.0,300,3,,3.0,30.380905,1031.7,,,,,,,,,-SN,OVC,6800,,,,,,,MVFR,,,,,,,,,,,,SPECI,208.0
CYQX 111923Z 34013KT 8SM VCFG SCT003 BKN006 00/00 A2980 RMK SF3SF4 VIS SW-W 4 BR SLP099,CYQX,2020-12-11T19:23:00Z,48.95,-54.58,0.0,0.0,340,13,,8.0,29.799213,1009.9,,,,,,,,,VCFG,SCT,300,BKN,600,,,,,IFR,,,,,,,,,,,,SPECI,144.0
CYHI 111923Z 34014G24KT 15SM IC DRSN FEW010 FEW040 FEW120 FEW170 M28/M31 A3045 RMK ST2SC1AC1AC1 SC TR AC TR AC TR VIS NE 3 SLP319,CYHI,2020-12-11T19:23:00Z,70.77,-117.78,-28.0,-31.0,340,14,24,15.0,30.448818,1031.9,,,,,,,,,IC DRSN,FEW,1000,FEW,4000,FEW,12000,FEW,17000,VFR,,,,,,,,,,,,SPECI,33.0
PAZK 111922Z AUTO 03003KT 1/2SM FZFG OVC003 M21/M23 A2992 RMK AO2 FZRANO,PAZK,2020-12-11T19:22:00Z,61.93,-147.17,-21.0,-23.0,30,3,,0.5,29.920275,,,TRUE,TRUE,,,,TRUE,,FZFG,OVC,300,,,,,,,LIFR,,,,,,,,,,,,METAR,1002.0
KULM 111922Z AUTO 05012G15KT 10SM CLR 02/M03 A3005 RMK AO2,KULM,2020-12-11T19:22:00Z,44.32,-94.5,2.0,-3.0,50,12,15,10.0,30.050198,,,TRUE,TRUE,,,,,,,CLR,,,,,,,,VFR,,,,,,,,,,,,SPECI,305.0
KSMP 111922Z AUTO VRB03KT 10SM FEW009 SCT013 SCT018 M02/M03 A2995 RMK AO2 T10171033,KSMP,2020-12-11T19:22:00Z,47.28,-121.33,-1.7,-3.3,0,3,,10.0,29.949802,,,TRUE,TRUE,,,,,,,FEW,900,SCT,1300,SCT,1800,,,VFR,,,,,,,,,,,,SPECI,1206.0
KSHN 111922Z AUTO 00000KT 10SM FEW007 OVC028 05/03 A3005 RMK AO2 RAE1857 P0000 T00500033,KSHN,2020-12-11T19:22:00Z,47.23,-123.13,5.0,3.3,0,0,,10.0,30.050198,,,TRUE,TRUE,,,,,,,FEW,700,OVC,2800,,,,,MVFR,,,,,,0.005,,,,,,METAR,84.0
KFLD 111922Z AUTO 04015G20KT 10SM BKN023 BKN080 OVC095 03/M02 A3003 RMK AO2 T00331022,KFLD,2020-12-11T19:22:00Z,43.77,-88.48,3.3,-2.2,40,15,20,10.0,30.029528,,,TRUE,TRUE,,,,,,,BKN,2300,BKN,8000,OVC,9500,,,MVFR,,,,,,,,,,,,METAR,242.0
KBPK 111922Z AUTO 20005KT 7SM -RA BKN007 OVC011 13/12 A2979 RMK AO2 P0000 T01280122,KBPK,2020-12-11T19:22:00Z,36.37,-92.47,12.8,12.2,200,5,,7.0,29.790354,,,TRUE,TRUE,,,,,,-RA,BKN,700,OVC,1100,,,,,IFR,,,,,,0.005,,,,,,METAR,279.0
KAFW 111922Z 24008KT 10SM SCT013 SCT050 18/15 A2981 RMK AO2 T01830150,KAFW,2020-12-11T19:22:00Z,32.97,-97.32,18.3,15.0,240,8,,10.0,29.811024,,,,TRUE,,,,,,,SCT,1300,SCT,5000,,,,,VFR,,,,,,,,,,,,METAR,208.0
CYQQ 111922Z 29004KT 15SM FEW008 BKN015 OVC040 05/04 A3008 RMK SF1SC4SC3 CIG VRB 11-19 SLP187,CYQQ,2020-12-11T19:22:00Z,49.72,-124.9,5.0,4.0,290,4,,15.0,30.079725,1018.7,,,,,,,,,,FEW,800,BKN,1500,OVC,4000,,,MVFR,,,,,,,,,,,,SPECI,24.0
CYNA 111922Z AUTO 28007KT 9SM BKN014 M00/M02 A2994 RMK SLP144,CYNA,2020-12-11T19:22:00Z,50.18,-61.78,0.0,-2.0,280,7,,9.0,29.940945,1014.4,,TRUE,,,,,,,,BKN,1400,,,,,,,MVFR,,,,,,,,,,,,SPECI,9.0
LCRA 111921Z 16008KT CAVOK 19/13 Q1014 NOSIG,LCRA,2020-12-11T19:21:00Z,34.58,32.98,19.0,13.0,160,8,,6.21,29.940945,,,,,,TRUE,,,,,CAVOK,,,,,,,,VFR,,,,,,,,,,,,METAR,23.0
KVCT 111921Z 12003KT 10SM BKN024 BKN033 OVC070 22/19 A2984 RMK AO2 T02220194,KVCT,2020-12-11T19:21:00Z,28.87,-96.93,22.2,19.4,120,3,,10.0,29.840551,,,,TRUE,,,,,,,BKN,2400,BKN,3300,OVC,7000,,,MVFR,,,,,,,,,,,,SPECI,33.0
KTOR 111921Z AUTO 00000KT 8SM SCT018 BKN033 BKN042 M02/M06 A2997 RMK AO2 T10221061,KTOR,2020-12-11T19:21:00Z,42.07,-104.15,-2.2,-6.1,0,0,,8.0,29.970472,,,TRUE,TRUE,,,,,,,SCT,1800,BKN,3300,BKN,4200,,,VFR,,,,,,,,,,,,METAR,1285.0
KSAR 111921Z AUTO 19008KT 10SM CLR 18/11 A2984 RMK AO2,KSAR,2020-12-11T19:21:00Z,38.15,-89.7,18.0,11.0,190,8,,10.0,29.840551,,,TRUE,TRUE,,,,,,,CLR,,,,,,,,VFR,,,,,,,,,,,,SPECI,162.0
KRWF 111921Z AUTO 05008KT 10SM SCT015 03/M02 A3007 RMK AO2 T00281022,KRWF,2020-12-11T19:21:00Z,44.55,-95.08,2.8,-2.2,50,8,,10.0,30.070866,,,TRUE,TRUE,,,,,,,SCT,1500,,,,,,,VFR,,,,,,,,,,,,METAR,312.0
KMIB 111921Z 28003KT 7/8SM BR OVC001 M07/M07 A3013 RMK SLP242 $,KMIB,2020-12-11T19:21:00Z,48.42,-101.35,-7.0,-7.0,280,3,,0.88,30.129921,1024.2,,,,TRUE,,,,,BR,OVC,100,,,,,,,LIFR,,,,,,,,,,,,SPECI,505.0
KLAA 111921Z AUTO 35012KT 1 3/4SM -SN FEW010 OVC029 00/M03 A2988 RMK AO2 P0000 T00001028,KLAA,2020-12-11T19:21:00Z,38.07,-102.68,0.0,-2.8,350,12,,1.75,29.878937,,,TRUE,TRUE,,,,,,-SN,FEW,1000,OVC,2900,,,,,IFR,,,,,,0.005,,,,,,METAR,1129.0
KHEI 111921Z AUTO 01003KT 3SM BR OVC002 M03/M04 A3007 RMK AO2 I1001 T10331044,KHEI,2020-12-11T19:21:00Z,46.02,-102.65,-3.3,-4.4,10,3,,3.0,30.070866,,,TRUE,TRUE,,,,,,BR,OVC,200,,,,,,,LIFR,,,,,,,,,,,,METAR,824.0
KGKY 111921Z 17008KT 10SM SCT007 SCT012 20/17 A2981 RMK AO2 T02000167,KGKY,2020-12-11T19:21:00Z,32.67,-97.1,20.0,16.7,170,8,,10.0,29.811024,,,,TRUE,,,,,,,SCT,700,SCT,1200,,,,,VFR,,,,,,,,,,,,METAR,189.0
EGYP 111921Z 36014KT 9999 -RA BKN012 BKN250 10/07 Q0988 TEMPO BKN015,EGYP,2020-12-11T19:21:00Z,-51.82,-58.45,10.0,7.0,360,14,,6.21,29.17323,,,,,,,,,,-RA,BKN,1200,BKN,25000,,,,,MVFR,,,,,,,,,,,,METAR,70.0
CYZV 111921Z 22003KT 10SM -SN OVC021 M02/M08 A2998 RMK SC8 SLP158,CYZV,2020-12-11T19:21:00Z,50.22,-66.27,-2.0,-8.0,220,3,,10.0,29.97933,1015.8,,,,,,,,,-SN,OVC,2100,,,,,,,MVFR,,,,,,,,,,,,SPECI,43.0
CYCY 111921Z 17006KT 160V240 1 1/4SM IC BR VV004 M12/M12 A2948 RMK FG8 SLP987,CYCY,2020-12-11T19:21:00Z,70.48,-68.52,-12.0,-12.0,170,6,,1.25,29.480314,998.7,,,,,,,,,IC BR,OVX,0,,,,,,,LIFR,,,,,,,,,,,400,SPECI,73.0
CYBU 111921Z AUTO 34006KT 9SM SCT010 OVC028 M08/M09 A3021 RMK SLP262,CYBU,2020-12-11T19:21:00Z,53.32,-104.0,-8.0,-9.0,340,6,,9.0,30.209646,1026.2,,TRUE,,,,,,,,SCT,1000,OVC,2800,,,,,MVFR,,,,,,,,,,,,SPECI,369.0
PKWA 111920Z AUTO 06016KT 10SM SCT020 SCT027 28/25 A2980 RMK AO2 T02750252,PKWA,2020-12-11T19:20:00Z,8.72,167.72,27.5,25.2,60,16,,10.0,29.799213,,,TRUE,TRUE,,,,,,,SCT,2000,SCT,2700,,,,,VFR,,,,,,,,,,,,SPECI,6.0
PAAK 111920Z AUTO 15008KT 10SM -RA BKN020 BKN024 BKN030 03/02 A2920 RMK AO2 RAB10 P0000,PAAK,2020-12-11T19:20:00Z,52.22,-174.2,3.0,2.0,150,8,,10.0,29.199802,,,TRUE,TRUE,,,,,,-RA,BKN,2000,BKN,2400,BKN,3000,,,MVFR,,,,,,0.005,,,,,,METAR,11.0
LXGB 111920Z 26018KT 9999 FEW020 BKN032 17/13 Q1019 NOSIG RMK BLU BLU,LXGB,2020-12-11T19:20:00Z,36.15,-5.33,17.0,13.0,260,18,,6.21,30.088583,,,,,,TRUE,,,,,FEW,2000,BKN,3200,,,,,VFR,,,,,,,,,,,,METAR,5.0
LTFM 111920Z 22009KT CAVOK 12/07 Q1010 NOSIG RMK RWY17L 21010KT RWY34L 21008KT RWY16R 21009KT RWY36 22006KT RWY18 17004KT 150V230,LTFM,2020-12-11T19:20:00Z,41.27,28.75,12.0,7.0,220,9,,6.21,29.822834,,,,,,TRUE,,,,,CAVOK,,,,,,,,VFR,,,-1.0,,,,,,,,,METAR,99.0
LTFJ 111920Z VRB02KT 9999 SCT040 11/05 Q1010 NOSIG RMK RWY24 00000KT,LTFJ,2020-12-11T19:20:00Z,40.9,29.3,11.0,5.0,0,2,,6.21,29.822834,,,,,,TRUE,,,,,SCT,4000,,,,,,,VFR,,,,,,,,,,,,METAR,83.0
LTFE 111920Z VRB02KT 9999 -SHRA SCT030 BKN100 14/12 Q1011 NOSIG RMK RWY10 04004KT 010V070,LTFE,2020-12-11T19:20:00Z,37.25,27.67,14.0,12.0,0,2,,6.21,29.852362,,,,,,TRUE,,,,-SHRA,SCT,3000,BKN,10000,,,,,VFR,,,,,,,,,,,,SPECI,6.0
LTFC 111920Z 36005KT 9999 SCT035 BKN100 08/05 Q1013 RMK RWY23 03003KT 300V070,LTFC,2020-12-11T19:20:00Z,37.87,30.38,8.0,5.0,360,5,,6.21,29.911417,,,,,,,,,,,SCT,3500,BKN,10000,,,,,VFR,,,,,,,,,,,,METAR,862.0
LTCS 111920Z 05006KT 9999 SCT040 BKN090 07/03 Q1022 RMK RWY22 08006KT 4SC040 7AC090,LTCS,2020-12-11T19:20:00Z,37.45,38.9,7.0,3.0,50,6,,6.21,30.177166,,,,,,,,,,,SCT,4000,BKN,9000,,,,,VFR,,,,,,,,,,,,METAR,825.0
LTCJ 111920Z 00000KT 3400 BR SCT010 BKN180 05/05 Q1022 RMK RWY20 VRB02KT 3ST010 6CI180,LTCJ,2020-12-11T19:20:00Z,37.93,41.12,5.0,5.0,0,0,,2.11,30.177166,,,,,,,,,,BR,SCT,1000,BKN,18000,,,,,IFR,,,,,,,,,,,,SPECI,559.0
LTCG 111920Z 26010KT 210V280 CAVOK 18/M02 Q1015 NOSIG RMK RWY29 21007KT 160V300,LTCG,2020-12-11T19:20:00Z,41.0,39.77,18.0,-2.0,260,10,,6.21,29.970472,,,,,,TRUE,,,,,CAVOK,,,,,,,,VFR,,,-0.7,,,,,,,,,SPECI,28.0
LTCE 111920Z 06001KT 7000 SCT060 M10/M11 Q1021 BECMG TL2000 4000 BR,LTCE,2020-12-11T19:20:00Z,39.95,41.17,-10.0,-11.0,60,1,,4.35,30.147638,,,,,,,,,,,SCT,6000,,,,,,,MVFR,,,,,,,,,,,,SPECI,1758.0
LTBU 111920Z 13004KT CAVOK 08/07 Q1009 RMK RWY22 12003KT 090V150,LTBU,2020-12-11T19:20:00Z,41.13,27.92,8.0,7.0,130,4,,6.21,29.793306,,,,,,,,,,,CAVOK,,,,,,,,VFR,,,,,,,,,,,,METAR,165.0
LTBS 111920Z 36009KT 9999 SCT025 BKN080 14/12 Q1013 BECMG TL2100 17017KT,LTBS,2020-12-11T19:20:00Z,36.7,28.78,14.0,12.0,360,9,,6.21,29.911417,,,,,,,,,,,SCT,2500,BKN,8000,,,,,VFR,,,,,,,,,,,,SPECI,2.0
LTBR 111920Z 10002KT 9999 SCT035 06/00 Q1010 NOSIG RMK RWY07 01002KT,LTBR,2020-12-11T19:20:00Z,40.25,29.57,6.0,0.0,100,2,,6.21,29.822834,,,,,,TRUE,,,,,SCT,3500,,,,,,,VFR,,,,,,,,,,,,METAR,233.0
LTBJ 111920Z 19006KT 9999 SCT030 BKN100 12/10 Q1009 RESHRA NOSIG RMK RWY16 18008KT,LTBJ,2020-12-11T19:20:00Z,38.28,27.15,12.0,10.0,190,6,,6.21,29.793306,,,,,,TRUE,,,,,SCT,3000,BKN,10000,,,,,VFR,,,,,,,,,,,,SPECI,123.0
LTBA 111920Z 20007KT CAVOK 13/09 Q1010 NOSIG RMK RWY23 21009KT,LTBA,2020-12-11T19:20:00Z,40.97,28.82,13.0,9.0,200,7,,6.21,29.822834,,,,,,TRUE,,,,,CAVOK,,,,,,,,VFR,,,-0.9,,,,,,,,,SPECI,33.0
LTAZ 111920Z 13009KT 9999 BKN030 BKN080 06/04 Q1016 RMK RWY29 13006KT,LTAZ,2020-12-11T19:20:00Z,38.77,34.52,6.0,4.0,130,9,,6.21,30.0,,,,,,,,,,,BKN,3000,BKN,8000,,,,,MVFR,,,,,,,,,,,,METAR,944.0
LTAU 111920Z VRB01KT 9999 SCT035 BKN100 03/02 Q1016 NOSIG RMK RWY07 VRB01KT,LTAU,2020-12-11T19:20:00Z,38.77,35.48,3.0,2.0,0,1,,6.21,30.0,,,,,,TRUE,,,,,SCT,3500,BKN,10000,,,,,VFR,,,,,,,,,,,,SPECI,1053.0
LTAT 111920Z VRB01KT 9999 FEW020 BKN033 BKN100 03/02 Q1022 RERA NOSIG RMK RWY03 00000KT,LTAT,2020-12-11T19:20:00Z,38.43,38.08,3.0,2.0,0,1,,6.21,30.177166,,,,,,TRUE,,,,,FEW,2000,BKN,3300,BKN,10000,,,VFR,,,,,,,,,,,,SPECI,850.0
LTAP 111920Z 31005KT 9999 SCT040 BKN100 04/02 Q1014 NOSIG RMK RWY23 35004KT,LTAP,2020-12-11T19:20:00Z,40.83,35.52,4.0,2.0,310,5,,6.21,29.940945,,,,,,TRUE,,,,,SCT,4000,BKN,10000,,,,,VFR,,,,,,,,,,,,SPECI,536.0
LTAJ 111920Z 35002KT 9999 SCT035 BKN090 07/04 Q1020 NOSIG RMK RWY10 01005KT 3CU035 7AC090,LTAJ,2020-12-11T19:20:00Z,36.95,37.48,7.0,4.0,350,2,,6.21,30.11811,,,,,,TRUE,,,,,SCT,3500,BKN,9000,,,,,VFR,,,,,,,,,,,,SPECI,684.0
LTAI 111920Z 08006KT 9999 -SHRA FEW020CB BKN025 14/13 Q1014 NOSIG RMK RWY18C 08005KT RWY36R 04004KT 010V070 RWY18L 06005KT,LTAI,2020-12-11T19:20:00Z,36.9,30.8,14.0,13.0,80,6,,6.21,29.940945,,,,,,TRUE,,,,-SHRA,FEW,2000,BKN,2500,,,,,MVFR,,,,,,,,,,,,SPECI,50.0
LTAG 111920Z 02010KT 9999 BKN030 BKN090 13/11 Q1017 TEMPO 5000 SHRA BR,LTAG,2020-12-11T19:20:00Z,37.0,35.42,13.0,11.0,20,10,,6.21,30.029528,,,,,,,,,,,BKN,3000,BKN,9000,,,,,MVFR,,,,,,,,,,,,SPECI,62.0
LTAF 111920Z 02009KT 9999 -SHRA SCT030 BKN090 14/09 Q1017 R05/2///52 NOSIG,LTAF,2020-12-11T19:20:00Z,36.98,35.28,14.0,9.0,20,9,,6.21,30.029528,,,,,,TRUE,,,,-SHRA,SCT,3000,BKN,9000,,,,,VFR,,,,,,,,,,,,SPECI,19.0
LTAC 111920Z 33003KT 9999 FEW040 BKN100 02/01 Q1014 NOSIG RMK RWY21L 00000KT RWY03L 31001KT RWY21R VRB02KT,LTAC,2020-12-11T19:20:00Z,40.12,32.98,2.0,1.0,330,3,,6.21,29.940945,,,,,,TRUE,,,,,FEW,4000,BKN,10000,,,,,VFR,,,,,,,,,,,,SPECI,952.0
LSZS 111920Z AUTO 23002KT 9999 FEW024 OVC033 M07/M08 Q0998 RESN,LSZS,2020-12-11T19:20:00Z,46.53,9.88,-7.0,-8.0,230,2,,6.21,29.468504,,,TRUE,,,,,,,,FEW,2400,OVC,3300,,,,,VFR,,,,,,,,,,,,METAR,1708.0
LSZR 111920Z AUTO 32005KT 9999 BKN050 01/00 Q0997,LSZR,2020-12-11T19:20:00Z,47.48,9.57,1.0,0.0,320,5,,6.21,29.438976,,,TRUE,,,,,,,,BKN,5000,,,,,,,VFR,,,,,,,,,,,,METAR,396.0
LSZL 111920Z AUTO VRB01KT 9999NDV OVC073 03/02 Q1003 RMK,LSZL,2020-12-11T19:20:00Z,46.17,8.88,3.0,2.0,0,1,,,29.616142,,,TRUE,,,,,,,,OVC,7300,,,,,,,,,,,,,,,,,,,METAR,198.0
LSZH 111920Z VRB02KT 8000 FEW032 SCT050 00/M01 Q0997 NOSIG,LSZH,2020-12-11T19:20:00Z,47.48,8.53,0.0,-1.0,0,2,,4.97,29.438976,,,,,,TRUE,,,,,FEW,3200,SCT,5000,,,,,MVFR,,,,,,,,,,,,METAR,424.0
LSZG 111920Z AUTO 00000KT 2300 BR OVC009 00/00 Q0997,LSZG,2020-12-11T19:20:00Z,47.17,7.42,0.0,0.0,0,0,,1.43,29.438976,,,TRUE,,,,,,,BR,OVC,900,,,,,,,IFR,,,,,,,,,,,,METAR,428.0
LSZC 111920Z AUTO 23003KT 9999 NSC M00/M02 Q0997,LSZC,2020-12-11T19:20:00Z,46.97,8.38,0.0,-2.0,230,3,,6.21,29.438976,,,TRUE,,,,,,,,CLR,,,,,,,,VFR,,,,,,,,,,,,METAR,445.0
LSZB 111920Z AUTO VRB03KT 9000 SCT090 M01/M01 Q0997,LSZB,2020-12-11T19:20:00Z,46.92,7.5,-1.0,-1.0,0,3,,5.59,29.438976,,,TRUE,,,,,,,,SCT,9000,,,,,,,VFR,,,,,,,,,,,,METAR,510.0
LSZA 111920Z AUTO VRB01KT 9999 OVC050 04/03 Q1003,LSZA,2020-12-11T19:20:00Z,46.0,8.92,4.0,3.0,0,1,,6.21,29.616142,,,TRUE,,,,,,,,OVC,5000,,,,,,,VFR,,,,,,,,,,,,METAR,276.0
LSMP 111920Z AUTO VRB02KT 6000NDV -SHRA FEW018 01/00 Q0997 RMK,LSMP,2020-12-11T19:20:00Z,46.83,6.92,1.0,0.0,0,2,,,29.438976,,,TRUE,,,,,,,-SHRA,FEW,1800,,,,,,,,,,,,,,,,,,,METAR,490.0
LSMM 111920Z AUTO 09004KT 9999NDV FEW092 M02/M02 Q0997 RMK,LSMM,2020-12-11T19:20:00Z,46.75,8.12,-2.0,-2.0,90,4,,,29.438976,,,TRUE,,,,,,,,FEW,9200,,,,,,,,,,,,,,,,,,,METAR,570.0
LSME 111920Z AUTO 26001KT 8000NDV NCD 00/M01 Q0997 RMK,LSME,2020-12-11T19:20:00Z,47.1,8.3,0.0,-1.0,260,1,,,29.438976,,,TRUE,,,,,,,,CLR,,,,,,,,,,,,,,,,,,,,METAR,427.0
LSMD 111920Z AUTO 00000KT 9000NDV FEW040 SCT049 OVC060 01/M01 Q0997 RMK,LSMD,2020-12-11T19:20:00Z,47.4,8.65,1.0,-1.0,0,0,,,29.438976,,,TRUE,,,,,,,,FEW,4000,SCT,4900,OVC,6000,,,,,,,,,,,,,,,METAR,436.0
LSMA 111920Z AUTO 21005KT 9000NDV FEW220 M00/M01 Q0997 RMK,LSMA,2020-12-11T19:20:00Z,46.95,8.28,0.0,-1.0,210,5,,,29.438976,,,TRUE,,,,,,,,FEW,22000,,,,,,,,,,,,,,,,,,,METAR,441.0
LSGS 111920Z AUTO 09003KT 9999 BKN085 01/M01 Q1000,LSGS,2020-12-11T19:20:00Z,46.22,7.32,1.0,-1.0,90,3,,6.21,29.52756,,,TRUE,,,,,,,,BKN,8500,,,,,,,VFR,,,,,,,,,,,,METAR,482.0
LSGG 111920Z VRB01KT 9999 -SHRA FEW010 BKN037 03/03 Q0997 NOSIG,LSGG,2020-12-11T19:20:00Z,46.25,6.12,3.0,3.0,0,1,,6.21,29.438976,,,,,,TRUE,,,,-SHRA,FEW,1000,BKN,3700,,,,,VFR,,,,,,,,,,,,METAR,411.0
LSGC 111920Z AUTO 24008KT 9999 SCT009 BKN011 BKN013 02/01 Q0994,LSGC,2020-12-11T19:20:00Z,47.08,6.8,2.0,1.0,240,8,,6.21,29.350393,,,TRUE,,,,,,,,SCT,900,BKN,1100,BKN,1300,,,MVFR,,,,,,,,,,,,METAR,1018.0
LOWW 111920Z 14015KT 9000 FEW003 BKN004 02/01 Q1002 NOSIG,LOWW,2020-12-11T19:20:00Z,48.12,16.57,2.0,1.0,140,15,,5.59,29.586615,,,,,,TRUE,,,,,FEW,300,BKN,400,,,,,LIFR,,,,,,,,,,,,METAR,179.0
LOWS 111920Z VRB01KT 9999 FEW007 BKN009 M00/M01 Q0998 NOSIG,LOWS,2020-12-11T19:20:00Z,47.78,13.02,0.0,-1.0,0,1,,6.21,29.468504,,,,,,TRUE,,,,,FEW,700,BKN,900,,,,,IFR,,,,,,,,,,,,METAR,427.0
LOWL 111920Z AUTO 22002KT 9999 FEW016 BKN017 01/00 Q0999 R08/190195 NOSIG,LOWL,2020-12-11T19:20:00Z,48.22,14.18,1.0,0.0,220,2,,6.21,29.498032,,,TRUE,,,TRUE,,,,,FEW,1600,BKN,1700,,,,,MVFR,,,,,,,,,,,,METAR,290.0
LOWK 111920Z AUTO VRB01KT 9999 FEW001 BKN016 01/01 Q1002,LOWK,2020-12-11T19:20:00Z,46.65,14.32,1.0,1.0,0,1,,6.21,29.586615,,,TRUE,,,,,,,,FEW,100,BKN,1600,,,,,MVFR,,,,,,,,,,,,METAR,450.0
LOWI 111920Z 28008KT 9999 FEW065 M01/M02 Q0999 NOSIG,LOWI,2020-12-11T19:20:00Z,47.27,11.33,-1.0,-2.0,280,8,,6.21,29.498032,,,,,,TRUE,,,,,FEW,6500,,,,,,,VFR,,,,,,,,,,,,METAR,570.0
LOWG 111920Z AUTO 07003KT 4500 BR FEW002 BKN003 01/01 Q1002 R17/29//95 NOSIG,LOWG,2020-12-11T19:20:00Z,47.0,15.43,1.0,1.0,70,3,,2.8,29.586615,,,TRUE,,,TRUE,,,,BR,FEW,200,BKN,300,,,,,LIFR,,,,,,,,,,,,METAR,337.0
LLBG 111920Z VRB03KT CAVOK 14/09 Q1015 NOSIG,LLBG,2020-12-11T19:20:00Z,32.0,34.88,14.0,9.0,0,3,,6.21,29.970472,,,,,,TRUE,,,,,CAVOK,,,,,,,,VFR,,,,,,,,,,,,METAR,35.0
LIRZ 111920Z AUTO VRB01KT //// R01/1400D // VV002 04/04 Q1003,LIRZ,2020-12-11T19:20:00Z,43.1,12.5,4.0,4.0,0,1,,,29.616142,,,TRUE,,,,,,,,OVX,0,,,,,,,LIFR,,,,,,,,,,,200,METAR,206.0
LIRQ 111920Z 11003KT 9999 SCT070 07/06 Q1003,LIRQ,2020-12-11T19:20:00Z,43.8,11.2,7.0,6.0,110,3,,6.21,29.616142,,,,,,,,,,,SCT,7000,,,,,,,VFR,,,,,,,,,,,,METAR,33.0
LIRN 111920Z 34005KT CAVOK 08/05 Q1002 NOSIG,LIRN,2020-12-11T19:20:00Z,40.88,14.3,8.0,5.0,340,5,,6.21,29.586615,,,,,,TRUE,,,,,CAVOK,,,,,,,,VFR,,,,,,,,,,,,METAR,76.0
LIRF 111920Z 34004KT CAVOK 07/06 Q1002 NOSIG,LIRF,2020-12-11T19:20:00Z,41.78,12.23,7.0,6.0,340,4,,6.21,29.586615,,,,,,TRUE,,,,,CAVOK,,,,,,,,VFR,,,,,,,,,,,,METAR,2.0
LIRA 111920Z VRB01KT 9999 FEW040 08/06 Q1002,LIRA,2020-12-11T19:20:00Z,41.8,12.58,8.0,6.0,0,1,,6.21,29.586615,,,,,,,,,,,FEW,4000,,,,,,,VFR,,,,,,,,,,,,METAR,101.0
LIPZ 111920Z VRB01KT CAVOK 04/03 Q1003 NOSIG,LIPZ,2020-12-11T19:20:00Z,45.5,12.35,4.0,3.0,0,1,,6.21,29.616142,,,,,,TRUE,,,,,CAVOK,,,,,,,,VFR,,,,,,,,,,,,METAR,3.0
LIPY 111920Z AUTO 18003KT 150V210 5000 BR BKN200/// 06/06 Q1003,LIPY,2020-12-11T19:20:00Z,43.62,13.37,6.0,6.0,180,3,,3.11,29.616142,,,TRUE,,,,,,,BR,BKN,20000,,,,,,,MVFR,,,,,,,,,,,,METAR,11.0
LIPX 111920Z 27002KT 2500 -RA BR BKN070 05/04 Q1003,LIPX,2020-12-11T19:20:00Z,45.38,10.87,5.0,4.0,270,2,,1.55,29.616142,,,,,,,,,,-RA BR,BKN,7000,,,,,,,IFR,,,,,,,,,,,,METAR,67.0
LIPR 111920Z AUTO VRB02KT 3100 BR FEW180/// BKN220/// 05/04 Q1003,LIPR,2020-12-11T19:20:00Z,44.02,12.62,5.0,4.0,0,2,,1.93,29.616142,,,TRUE,,,,,,,BR,FEW,18000,BKN,22000,,,,,IFR,,,,,,,,,,,,METAR,10.0
LIPQ 111920Z AUTO 01003KT 9999 BKN190/// 05/04 Q1003,LIPQ,2020-12-11T19:20:00Z,45.82,13.47,5.0,4.0,10,3,,6.21,29.616142,,,TRUE,,,,,,,,BKN,19000,,,,,,,VFR,,,,,,,,,,,,METAR,6.0
LIPO 111920Z AUTO VRB02KT //// // OVC002 05/05 Q1003,LIPO,2020-12-11T19:20:00Z,45.42,10.33,5.0,5.0,0,2,,,29.616142,,,TRUE,,,,,,,,OVC,200,,,,,,,,,,,,,,,,,,,METAR,104.0
LIPH 111920Z AUTO 19001KT 6000 1100W OVC087 04/04 Q1003,LIPH,2020-12-11T19:20:00Z,45.63,12.18,4.0,4.0,190,1,,3.73,29.616142,,,TRUE,,,,,,,,OVC,8700,,,,,,,MVFR,,,,,,,,,,,,SPECI,10.0
LIPE 111920Z 35001KT 2500 BR BKN020 06/06 Q1003,LIPE,2020-12-11T19:20:00Z,44.52,11.3,6.0,6.0,350,1,,1.55,29.616142,,,,,,,,,,BR,BKN,2000,,,,,,,IFR,,,,,,,,,,,,METAR,37.0
LIMZ 111920Z AUTO 18003KT 3500 BR FEW026/// OVC049/// 02/02 Q1003,LIMZ,2020-12-11T19:20:00Z,44.53,7.62,2.0,2.0,180,3,,2.17,29.616142,,,TRUE,,,,,,,BR,FEW,2600,OVC,4900,,,,,IFR,,,,,,,,,,,,METAR,377.0
LIML 111920Z 18003KT 4000 -DZ BR FEW010 BKN030 05/05 Q1003 NOSIG,LIML,2020-12-11T19:20:00Z,45.47,9.27,5.0,5.0,180,3,,2.49,29.616142,,,,,,TRUE,,,,-DZ BR,FEW,1000,BKN,3000,,,,,IFR,,,,,,,,,,,,METAR,109.0
LIMJ 111920Z 04011KT 9999 -RA BKN027 OVC060 07/04 Q1002,LIMJ,2020-12-11T19:20:00Z,44.42,8.83,7.0,4.0,40,11,,6.21,29.586615,,,,,,,,,,-RA,BKN,2700,OVC,6000,,,,,MVFR,,,,,,,,,,,,METAR,3.0
LIMF 111920Z 25002KT 9999 SCT040 BKN060 04/01 Q1003,LIMF,2020-12-11T19:20:00Z,45.22,7.65,4.0,1.0,250,2,,6.21,29.616142,,,,,,,,,,,SCT,4000,BKN,6000,,,,,VFR,,,,,,,,,,,,METAR,295.0
LIME 111920Z VRB02KT 4000 BR SCT030 SCT060 05/05 Q1003 NOSIG,LIME,2020-12-11T19:20:00Z,45.67,9.7,5.0,5.0,0,2,,2.49,29.616142,,,,,,TRUE,,,,BR,SCT,3000,SCT,6000,,,,,IFR,,,,,,,,,,,,METAR,239.0
LIMC 111920Z VRB01KT 3000 R35R/P1500N R17L/1300D R35L/P1500N BR OVC020 05/05 Q1003 NOSIG,LIMC,2020-12-11T19:20:00Z,45.62,8.72,5.0,5.0,0,1,,1.86,29.616142,,,,,,TRUE,,,,BR,OVC,2000,,,,,,,IFR,,,,,,,,,,,,METAR,221.0
LIEO 111920Z 22003KT 170V240 9999 FEW030 09/07 Q1003,LIEO,2020-12-11T19:20:00Z,40.88,9.52,9.0,7.0,220,3,,6.21,29.616142,,,,,,,,,,,FEW,3000,,,,,,,VFR,,,,,,,,,,,,METAR,8.0
LIEE 111920Z 34003KT 9999 FEW035 11/10 Q1004,LIEE,2020-12-11T19:20:00Z,39.25,9.07,11.0,10.0,340,3,,6.21,29.64567,,,,,,,,,,,FEW,3500,,,,,,,VFR,,,,,,,,,,,,METAR,1.0
LIEA 111920Z VRB01KT 9999 -RA SCT023 10/09 Q1003,LIEA,2020-12-11T19:20:00Z,40.62,8.28,10.0,9.0,0,1,,6.21,29.616142,,,,,,,,,,-RA,SCT,2300,,,,,,,VFR,,,,,,,,,,,,METAR,22.0
LICJ 111920Z 29009KT 9999 BKN020 15/10 Q1003,LICJ,2020-12-11T19:20:00Z,38.17,13.08,15.0,10.0,290,9,,6.21,29.616142,,,,,,,,,,,BKN,2000,,,,,,,MVFR,,,,,,,,,,,,METAR,20.0
LICD 111920Z AUTO 24011KT 9999 FEW150/// BKN170/// 17/11 Q1006,LICD,2020-12-11T19:20:00Z,35.5,12.62,17.0,11.0,240,11,,6.21,29.704725,,,TRUE,,,,,,,,FEW,15000,BKN,17000,,,,,VFR,,,,,,,,,,,,METAR,20.0
LICC 111920Z 25010KT CAVOK 12/09 Q1002,LICC,2020-12-11T19:20:00Z,37.47,15.05,12.0,9.0,250,10,,6.21,29.586615,,,,,,,,,,,CAVOK,,,,,,,,VFR,,,,,,,,,,,,METAR,6.0
LICB 111920Z AUTO VRB01KT 9999 FEW170/// SCT200/// 10/07 Q1004,LICB,2020-12-11T19:20:00Z,37.0,14.62,10.0,7.0,0,1,,6.21,29.64567,,,TRUE,,,,,,,,FEW,17000,SCT,20000,,,,,VFR,,,,,,,,,,,,METAR,212.0
LICA 111920Z AUTO 07004KT 9999 -RA OVC024/// 11/11 Q1002 RERA,LICA,2020-12-11T19:20:00Z,38.9,16.25,11.0,11.0,70,4,,6.21,29.586615,,,TRUE,,,,,,,-RA,OVC,2400,,,,,,,MVFR,,,,,,,,,,,,METAR,7.0
LIBR 111920Z 30005KT 9999 FEW040 11/10 Q1001,LIBR,2020-12-11T19:20:00Z,40.65,17.95,11.0,10.0,300,5,,6.21,29.557087,,,,,,,,,,,FEW,4000,,,,,,,VFR,,,,,,,,,,,,METAR,5.0
LIBP 111920Z AUTO 25006KT 9999 BKN220/// 07/05 Q1003,LIBP,2020-12-11T19:20:00Z,42.42,14.18,7.0,5.0,250,6,,6.21,29.616142,,,TRUE,,,,,,,,BKN,22000,,,,,,,VFR,,,,,,,,,,,,METAR,10.0
LIBD 111920Z 27007KT 9999 SCT035 10/07 Q1002,LIBD,2020-12-11T19:20:00Z,41.13,16.77,10.0,7.0,270,7,,6.21,29.586615,,,,,,,,,,,SCT,3500,,,,,,,VFR,,,,,,,,,,,,METAR,42.0
LGTS 111920Z 16005KT 9999 -RA FEW010 BKN030 12/09 Q1005 NOSIG,LGTS,2020-12-11T19:20:00Z,40.52,22.97,12.0,9.0,160,5,,6.21,29.675198,,,,,,TRUE,,,,-RA,FEW,1000,BKN,3000,,,,,MVFR,,,,,,,,,,,,METAR,4.0
LGSO 111920Z AUTO 17012KT 160V220 //// -RA ////// 14/11 Q1008 RE//,LGSO,2020-12-11T19:20:00Z,37.42,24.95,14.0,11.0,170,12,,,29.763779,,,TRUE,,,,,,,-RA,,,,,,,,,,,,,,,,,,,,,METAR,71.0
LGSA 111920Z VRB02KT 9999 SCT025 BKN080 13/12 Q1007,LGSA,2020-12-11T19:20:00Z,35.53,24.13,13.0,12.0,0,2,,6.21,29.734253,,,,,,,,,,,SCT,2500,BKN,8000,,,,,VFR,,,,,,,,,,,,METAR,122.0
LGRP 111920Z VRB03KT 9999 SCT020 15/12 Q1011 NOSIG,LGRP,2020-12-11T19:20:00Z,36.4,28.08,15.0,12.0,0,3,,6.21,29.852362,,,,,,TRUE,,,,,SCT,2000,,,,,,,VFR,,,,,,,,,,,,METAR,3.0
LGPA 111920Z AUTO 15008KT //// -RA ////// 13/12 Q1008 RE//,LGPA,2020-12-11T19:20:00Z,37.02,25.1,13.0,12.0,150,8,,,29.763779,,,TRUE,,,,,,,-RA,,,,,,,,,,,,,,,,,,,,,METAR,42.0
LGMT 111920Z 16008KT 9999 -RA SCT020 15/11 Q1010,LGMT,2020-12-11T19:20:00Z,39.05,26.6,15.0,11.0,160,8,,6.21,29.822834,,,,,,,,,,-RA,SCT,2000,,,,,,,VFR,,,,,,,,,,,,METAR,4.0
LGKZ 111920Z AUTO VRB03KT //// -RA ////// 06/05 Q1005 RE//,LGKZ,2020-12-11T19:20:00Z,40.28,21.83,6.0,5.0,0,3,,,29.675198,,,TRUE,,,,,,,-RA,,,,,,,,,,,,,,,,,,,,,METAR,615.0
LGKV 111920Z 04005KT 9999 FEW020 10/08 Q1006,LGKV,2020-12-11T19:20:00Z,40.92,24.62,10.0,8.0,40,5,,6.21,29.704725,,,,,,,,,,,FEW,2000,,,,,,,VFR,,,,,,,,,,,,METAR,5.0
LGKR 111920Z 12008KT 9000 SCT014 SCT025 BKN070 11/10 Q1002 NOSIG,LGKR,2020-12-11T19:20:00Z,39.62,19.92,11.0,10.0,120,8,,5.59,29.586615,,,,,,TRUE,,,,,SCT,1400,SCT,2500,BKN,7000,,,VFR,,,,,,,,,,,,METAR,2.0
LGKP 111920Z 18019KT 9999 SCT020 18/12 Q1011,LGKP,2020-12-11T19:20:00Z,35.42,27.15,18.0,12.0,180,19,,6.21,29.852362,,,,,,,,,,,SCT,2000,,,,,,,VFR,,,,,,,,,,,,METAR,20.0
LGKO 111920Z 18014KT 9999 RA FEW018TCU SCT020 14/11 Q1010,LGKO,2020-12-11T19:20:00Z,36.8,27.08,14.0,11.0,180,14,,6.21,29.822834,,,,,,,,,,RA,FEW,1800,SCT,2000,,,,,VFR,,,,,,,,,,,,METAR,130.0
LGKL 111920Z AUTO VRB03KT //// -RA ////// 12/// Q1003 RE//,LGKL,2020-12-11T19:20:00Z,37.07,22.02,,,0,3,,,29.616142,,,TRUE,,,,,,,-RA,,,,,,,,,,,,,,,,,,,,,METAR,4.0
LGIR 111920Z 18010KT 9999 SCT025 BKN080 16/11 Q1008 NOSIG,LGIR,2020-12-11T19:20:00Z,35.33,25.17,16.0,11.0,180,10,,6.21,29.763779,,,,,,TRUE,,,,,SCT,2500,BKN,8000,,,,,VFR,,,,,,,,,,,,METAR,37.0
LGIO 111920Z AUTO VRB03KT //// RA ////// 07/06 Q1003 RE//,LGIO,2020-12-11T19:20:00Z,39.7,20.82,7.0,6.0,0,3,,,29.616142,,,TRUE,,,,,,,RA,,,,,,,,,,,,,,,,,,,,,METAR,476.0
LGEL 111920Z VRB03KT 9000 -RA FEW015 BKN025 13/12 Q1004,LGEL,2020-12-11T19:20:00Z,38.07,23.55,13.0,12.0,0,3,,5.59,29.64567,,,,,,,,,,-RA,FEW,1500,BKN,2500,,,,,MVFR,,,,,,,,,,,,METAR,21.0
LGAV 111920Z 16009KT 9999 -RA FEW015 BKN030 13/09 Q1006 NOSIG,LGAV,2020-12-11T19:20:00Z,37.93,23.95,13.0,9.0,160,9,,6.21,29.704725,,,,,,TRUE,,,,-RA,FEW,1500,BKN,3000,,,,,MVFR,,,,,,,,,,,,METAR,83.0
LGAD 111920Z 11010KT 8000 -RA FEW010 BKN020 OVC070 11/11 Q1003,LGAD,2020-12-11T19:20:00Z,37.92,21.28,11.0,11.0,110,10,,4.97,29.616142,,,,,,,,,,-RA,FEW,1000,BKN,2000,OVC,7000,,,MVFR,,,,,,,,,,,,METAR,8.0
LCEN 111920Z 00000KT 9999 FEW025 13/11 Q1015 NOSIG RMK RWY11 00000KT,LCEN,2020-12-11T19:20:00Z,35.15,33.5,13.0,11.0,0,0,,6.21,29.970472,,,,,,TRUE,,,,,FEW,2500,,,,,,,VFR,,,,,,,,,,,,SPECI,91.0
LATI 111920Z 00000KT 8000 OVC060 09/08 Q1002 NOSIG,LATI,2020-12-11T19:20:00Z,41.42,19.72,9.0,8.0,0,0,,4.97,29.586615,,,,,,TRUE,,,,,OVC,6000,,,,,,,MVFR,,,,,,,,,,,,METAR,32.0
KUES 111920Z 04009KT 7SM -RA OVC008 01/00 A3000,KUES,2020-12-11T19:20:00Z,43.05,-88.25,1.0,0.0,40,9,,7.0,30.0,,,,,,,,,,-RA,OVC,800,,,,,,,IFR,,,,,,,,,,,,SPECI,273.0
KSGF 111920Z 16009KT 10SM -RA BKN025 OVC032 12/11 A2974 RMK AO2 P0001 T01170111,KSGF,2020-12-11T19:20:00Z,37.23,-93.38,11.7,11.1,160,9,,10.0,29.740158,,,,TRUE,,,,,,-RA,BKN,2500,OVC,3200,,,,,MVFR,,,,,,0.01,,,,,,METAR,387.0
KSCF 111920Z AUTO 12013KT 10SM CLR 19/15 A2998 RMK A01,KSCF,2020-12-11T19:20:00Z,29.12,-91.87,19.0,15.0,120,13,,10.0,29.97933,,,TRUE,TRUE,,,,,,,CLR,,,,,,,,VFR,,,,,,,,,,,,SPECI,22.0
KSAW 111920Z 02009KT 10SM BKN008 BKN012 OVC018 M01/M03 A3011,KSAW,2020-12-11T19:20:00Z,46.35,-87.4,-1.0,-3.0,20,9,,10.0,30.109253,,,,,,,,,,,BKN,800,BKN,1200,OVC,1800,,,IFR,,,,,,,,,,,,SPECI,359.0
KOMK 111920Z AUTO 00000KT 1 1/4SM -SN BR OVC004 01/00 A3005 RMK AO2 P0001 T00110000,KOMK,2020-12-11T19:20:00Z,48.47,-119.52,1.1,0.0,0,0,,1.25,30.050198,,,TRUE,TRUE,,,,,,-SN BR,OVC,400,,,,,,,LIFR,,,,,,0.01,,,,,,METAR,395.0
KMHV 111920Z AUTO 29020G27KT 10SM CLR 13/M07 A3006 RMK A01,KMHV,2020-12-11T19:20:00Z,35.07,-118.15,13.0,-7.0,290,20,27,10.0,30.059055,,,TRUE,TRUE,,,,,,,CLR,,,,,,,,VFR,,,,,,,,,,,,SPECI,841.0
KLXL 111920Z AUTO 36003KT 10SM OVC011 M01/M05 A3013 RMK AO2,KLXL,2020-12-11T19:20:00Z,45.95,-94.33,-1.0,-5.0,360,3,,10.0,30.129921,,,TRUE,TRUE,,,,,,,OVC,1100,,,,,,,MVFR,,,,,,,,,,,,SPECI,335.0
KLNK 111920Z 02015KT 10SM OVC009 02/M01 A2985 RMK AO2 T00221011,KLNK,2020-12-11T19:20:00Z,40.85,-96.77,2.2,-1.1,20,15,,10.0,29.84941,,,,TRUE,,,,,,,OVC,900,,,,,,,IFR,,,,,,,,,,,,METAR,357.0
KJSL 111920Z AUTO 14009G18KT 10SM FEW025 24/17 A2997 RMK A01,KJSL,2020-12-11T19:20:00Z,26.23,-95.22,24.0,17.0,140,9,18,10.0,29.970472,,,TRUE,TRUE,,,,,,,FEW,2500,,,,,,,VFR,,,,,,,,,,,,METAR,45.0
KITR 111920Z AUTO 35011KT 3/4SM -SN SCT008 OVC015 M02/M05 A2987 RMK AO2 P0000 T10221050,KITR,2020-12-11T19:20:00Z,39.23,-102.28,-2.2,-5.0,350,11,,0.75,29.870079,,,TRUE,TRUE,,,,,,-SN,SCT,800,OVC,1500,,,,,LIFR,,,,,,0.005,,,,,,METAR,1285.0
KGZN 111920Z AUTO 33008KT 300V360 10SM BKN032 BKN040 BKN050 17/11 A2983 RMK AO2,KGZN,2020-12-11T19:20:00Z,32.37,-99.02,17.0,11.0,330,8,,10.0,29.828741,,,TRUE,TRUE,,,,,,,BKN,3200,BKN,4000,BKN,5000,,,VFR,,,,,,,,,,,,SPECI,522.0
KFCS 111920Z AUTO 16006KT 8SM FEW007 OVC023 M03/M04 A2983 RMK AO2 SNE05 SLP160 $,KFCS,2020-12-11T19:20:00Z,38.67,-104.77,-3.0,-4.0,160,6,,8.0,29.828741,1016.0,,TRUE,TRUE,TRUE,,,,,,FEW,700,OVC,2300,,,,,MVFR,,,,,,,,,,,,SPECI,1789.0
KDZB 111920Z AUTO 00000KT 10SM CLR 19/17 A2986 RMK AO2,KDZB,2020-12-11T19:20:00Z,30.53,-98.37,19.0,17.0,0,0,,10.0,29.861221,,,TRUE,TRUE,,,,,,,CLR,,,,,,,,VFR,,,,,,,,,,,,SPECI,329.0
KDHT 111920Z AUTO 35006KT 10SM BKN022 OVC036 04/M02 A2986 RMK AO2 T00391022,KDHT,2020-12-11T19:20:00Z,36.02,-102.55,3.9,-2.2,350,6,,10.0,29.861221,,,TRUE,TRUE,,,,,,,BKN,2200,OVC,3600,,,,,MVFR,,,,,,,,,,,,SPECI,1217.0
EYVI 111920Z 13008KT 6000 OVC004 02/01 Q1013 R19/2///95 NOSIG,EYVI,2020-12-11T19:20:00Z,54.63,25.28,2.0,1.0,130,8,,3.73,29.911417,,,,,,TRUE,,,,,OVC,400,,,,,,,LIFR,,,,,,,,,,,,METAR,180.0
EYSA 111920Z 11008KT 1300 R14L/1800N BR VV002 01/00 Q1013 R14L/29//95 R14R/29//95 AMB NOSIG,EYSA,2020-12-11T19:20:00Z,55.9,23.4,1.0,0.0,110,8,,0.81,29.911417,,,,,,TRUE,,,,BR,OVX,0,,,,,,,LIFR,,,,,,,,,,,200,METAR,135.0
EYPA 111920Z AUTO 12005KT 9999 OVC008/// 01/M00 Q1011,EYPA,2020-12-11T19:20:00Z,55.97,21.08,1.0,0.0,120,5,,6.21,29.852362,,,TRUE,,,,,,,,OVC,800,,,,,,,IFR,,,,,,,,,,,,METAR,15.0
EYKA 111920Z 12009KT 4800 -RA BR OVC004 02/01 Q1012 R08/290195,EYKA,2020-12-11T19:20:00Z,54.97,24.08,2.0,1.0,120,9,,2.98,29.88189,,,,,,,,,,-RA BR,OVC,400,,,,,,,LIFR,,,,,,,,,,,,METAR,68.0
EVVA 111920Z AUTO 13006KT 9000 OVC011 01/M00 Q1012,EVVA,2020-12-11T19:20:00Z,57.35,21.55,1.0,0.0,130,6,,5.59,29.88189,,,TRUE,,,,,,,,OVC,1100,,,,,,,MVFR,,,,,,,,,,,,METAR,1.0
EVRA 111920Z 13007KT 9999 BKN009 OVC017 01/00 Q1014 R18/350195 NOSIG,EVRA,2020-12-11T19:20:00Z,56.92,23.97,1.0,0.0,130,7,,6.21,29.940945,,,,,,TRUE,,,,,BKN,900,OVC,1700,,,,,IFR,,,,,,,,,,,,METAR,7.0
EVLA 111920Z AUTO 11006KT 9999 OVC009/// 01/M01 Q1011,EVLA,2020-12-11T19:20:00Z,56.52,21.1,1.0,-1.0,110,6,,6.21,29.852362,,,TRUE,,,,,,,,OVC,900,,,,,,,IFR,,,,,,,,,,,,METAR,5.0
ETWM 111920Z AUTO VRB03KT //// // ////// 03/00 Q0993 ///,ETWM,2020-12-11T19:20:00Z,52.72,7.33,3.0,0.0,0,3,,,29.320866,,,TRUE,,,,,,,,,,,,,,,,,,,,,,,,,,,,SPECI,18.0
ETSN 111920Z 12004KT 9999 OVC005 01/M01 Q0998 YLO,ETSN,2020-12-11T19:20:00Z,48.72,11.22,1.0,-1.0,120,4,,6.21,29.468504,,,,,,,,,,,OVC,500,,,,,,,IFR,,,,,,,,,,,,METAR,378.0
ETSL 111920Z AUTO 09003KT 7000 // ////// M02/M03 Q0997 ///,ETSL,2020-12-11T19:20:00Z,48.17,10.87,-2.0,-3.0,90,3,,4.35,29.438976,,,TRUE,,,,,,,,,,,,,,,,,,,,,,,,,,,,METAR,562.0
ETSI 111920Z AUTO 15004KT 7000 // ////// 00/M01 Q0998 ///,ETSI,2020-12-11T19:20:00Z,48.72,11.53,0.0,-1.0,150,4,,4.35,29.468504,,,TRUE,,,,,,,,,,,,,,,,,,,,,,,,,,,,METAR,366.0
ETSH 111920Z 10011KT 8000 OVC026 01/M00 Q0999 BLACKBLU,ETSH,2020-12-11T19:20:00Z,51.77,13.17,1.0,0.0,100,11,,4.97,29.498032,,,,,,,,,,,OVC,2600,,,,,,,MVFR,,,,,,,,,,,,SPECI,79.0
ETSB 111920Z AUTO 16005KT 0150 // ////// 01/01 Q0991 ///,ETSB,2020-12-11T19:20:00Z,50.17,7.07,1.0,1.0,160,5,,0.09,29.26181,,,TRUE,,,,,,,,,,,,,,,,,,,,,,,,,,,,SPECI,477.0
ETNW 111920Z AUTO 14010KT 9999 // ////// 04/00 Q0995 ///,ETNW,2020-12-11T19:20:00Z,52.45,9.42,4.0,0.0,140,10,,6.21,29.379921,,,TRUE,,,,,,,,,,,,,,,,,,,,,,,,,,,,METAR,57.0
ETNT 111920Z AUTO 12010KT 6000 // ////// 03/01 Q0994 ///,ETNT,2020-12-11T19:20:00Z,53.53,7.67,3.0,1.0,120,10,,3.73,29.350393,,,TRUE,,,,,,,,,,,,,,,,,,,,,,,,,,,,METAR,5.0
ETNS 111920Z AUTO 11010KT 9999 // ////// 02/M00 Q0997 ///,ETNS,2020-12-11T19:20:00Z,54.47,9.52,2.0,0.0,110,10,,6.21,29.438976,,,TRUE,,,,,,,,,,,,,,,,,,,,,,,,,,,,SPECI,22.0
ETNN 111920Z 11007KT 9999 BKN023 03/02 Q0991 WHT,ETNN,2020-12-11T19:20:00Z,50.82,6.67,3.0,2.0,110,7,,6.21,29.26181,,,,,,,,,,,BKN,2300,,,,,,,MVFR,,,,,,,,,,,,METAR,108.0
ETNH 111920Z 12008KT 6000 BKN007 02/M00 Q0997 GRN,ETNH,2020-12-11T19:20:00Z,54.32,9.55,2.0,0.0,120,8,,3.73,29.438976,,,,,,,,,,,BKN,700,,,,,,,IFR,,,,,,,,,,,,METAR,6.0
ETMN 111920Z 11010KT 8000 BKN011 03/01 Q0995 GRN,ETMN,2020-12-11T19:20:00Z,53.77,8.67,3.0,1.0,110,10,,4.97,29.379921,,,,,,,,,,,BKN,1100,,,,,,,MVFR,,,,,,,,,,,,METAR,23.0
ETML 111920Z AUTO 11027KT //// // ////// 03/02 Q1000 ///,ETML,2020-12-11T19:20:00Z,54.5,11.23,3.0,2.0,110,27,,,29.52756,,,TRUE,,,,,,,,,,,,,,,,,,,,,,,,,,,,METAR,9.0
ETHS 111920Z 12007KT 7000 BKN012 BKN130 02/00 Q0996 GRN,ETHS,2020-12-11T19:20:00Z,52.92,10.18,2.0,0.0,120,7,,4.35,29.409449,,,,,,,,,,,BKN,1200,BKN,13000,,,,,MVFR,,,,,,,,,,,,METAR,71.0
ETHN 111920Z 16012KT 9999 OVC021 01/M01 Q0995 WHT,ETHN,2020-12-11T19:20:00Z,49.38,9.97,1.0,-1.0,160,12,,6.21,29.379921,,,,,,,,,,,OVC,2100,,,,,,,MVFR,,,,,,,,,,,,METAR,466.0
ETHL 111920Z AUTO 09004KT 2700 // ////// M01/M02 Q0996 ///,ETHL,2020-12-11T19:20:00Z,48.22,9.92,-1.0,-2.0,90,4,,1.68,29.409449,,,TRUE,,,,,,,,,,,,,,,,,,,,,,,,,,,,SPECI,536.0
ETHF 111920Z AUTO 14004KT 9000 // ////// 03/00 Q0995 ///,ETHF,2020-12-11T19:20:00Z,51.12,9.28,3.0,0.0,140,4,,5.59,29.379921,,,TRUE,,,,,,,,,,,,,,,,,,,,,,,,,,,,SPECI,171.0
ETHC 111920Z AUTO 09007KT 9999 // ////// 02/M00 Q0996 ///,ETHC,2020-12-11T19:20:00Z,52.6,10.02,2.0,0.0,90,7,,6.21,29.409449,,,TRUE,,,,,,,,,,,,,,,,,,,,,,,,,,,,METAR,35.0
ETHB 111920Z AUTO 15008KT 9999 // ////// 03/M01 Q0994 ///,ETHB,2020-12-11T19:20:00Z,52.27,9.07,3.0,-1.0,150,8,,6.21,29.350393,,,TRUE,,,,,,,,,,,,,,,,,,,,,,,,,,,,METAR,69.0
ETHA 111920Z VRB02KT 9999 SCT090 BKN130 BKN210 M03/M04 Q0996 BLU,ETHA,2020-12-11T19:20:00Z,47.83,10.87,-3.0,-4.0,0,2,,6.21,29.409449,,,,,,,,,,,SCT,9000,BKN,13000,BKN,21000,,,VFR,,,,,,,,,,,,METAR,738.0
ETGG 111920Z AUTO 13012KT 8000 // ////// 03/01 Q0997 ///,ETGG,2020-12-11T19:20:00Z,54.83,9.5,3.0,1.0,130,12,,4.97,29.438976,,,TRUE,,,,,,,,,,,,,,,,,,,,,,,,,,,,METAR,33.0
ESUT 111920Z AUTO 12010KT 090V150 9999 OVC012/// M01/M04 Q1013,ESUT,2020-12-11T19:20:00Z,65.8,15.08,-1.0,-4.0,120,10,,6.21,29.911417,,,TRUE,,,,,,,,OVC,1200,,,,,,,MVFR,,,,,,,,,,,,METAR,457.0
ESUP 111920Z AUTO 16005KT 9999 OVC010/// M02/M03 Q1018 RESN,ESUP,2020-12-11T19:20:00Z,67.25,23.07,-2.0,-3.0,160,5,,6.21,30.059055,,,TRUE,,,,,,,,OVC,1000,,,,,,,MVFR,,,,,,,,,,,,METAR,164.0
ESTL 111920Z AUTO 12011KT 9999 OVC006/// 02/02 Q1004,ESTL,2020-12-11T19:20:00Z,56.07,13.2,2.0,2.0,120,11,,6.21,29.64567,,,TRUE,,,,,,,,OVC,600,,,,,,,IFR,,,,,,,,,,,,METAR,39.0
ESTA 111920Z 11013KT 9999 OVC008 02/01 Q1003,ESTA,2020-12-11T19:20:00Z,56.28,12.83,2.0,1.0,110,13,,6.21,29.616142,,,,,,,,,,,OVC,800,,,,,,,IFR,,,,,,,,,,,,METAR,19.0
ESSV 111920Z AUTO 13011KT 7000 OVC004/// 04/03 Q1009,ESSV,2020-12-11T19:20:00Z,57.67,18.35,4.0,3.0,130,11,,4.35,29.793306,,,TRUE,,,,,,,,OVC,400,,,,,,,LIFR,,,,,,,,,,,,METAR,38.0
ESST 111920Z AUTO 04005KT 360V080 9999 SG OVC016/// 01/M00 Q1010,ESST,2020-12-11T19:20:00Z,60.15,12.98,1.0,0.0,40,5,,6.21,29.822834,,,TRUE,,,,,,,SG,OVC,1600,,,,,,,MVFR,,,,,,,,,,,,METAR,110.0
ESSP 111920Z AUTO 10004KT 6000 -RA BKN005/// OVC010/// 03/03 Q1008,ESSP,2020-12-11T19:20:00Z,58.58,16.25,3.0,3.0,100,4,,3.73,29.763779,,,TRUE,,,,,,,-RA,BKN,500,OVC,1000,,,,,IFR,,,,,,,,,,,,METAR,3.0
ESSL 111920Z AUTO 08005KT 6000 DZ SCT005/// BKN017/// BKN021/// 02/02 Q1008 RERA,ESSL,2020-12-11T19:20:00Z,58.4,15.67,2.0,2.0,80,5,,3.73,29.763779,,,TRUE,,,,,,,DZ,SCT,500,BKN,1700,BKN,2100,,,MVFR,,,,,,,,,,,,METAR,51.0
ESSD 111920Z AUTO VRB03KT 3300 -SN OVC006/// M01/M01 Q1011,ESSD,2020-12-11T19:20:00Z,60.42,15.5,-1.0,-1.0,0,3,,2.05,29.852362,,,TRUE,,,,,,,-SN,OVC,600,,,,,,,IFR,,,,,,,,,,,,METAR,151.0
ESSB 111920Z 11007KT 5000 -RA BKN007 03/03 Q1010 R12/29//63,ESSB,2020-12-11T19:20:00Z,59.35,17.93,3.0,3.0,110,7,,3.11,29.822834,,,,,,,,,,-RA,BKN,700,,,,,,,IFR,,,,,,,,,,,,METAR,14.0
ESSA 111920Z 08006KT 4000 -RA FEW005 SCT007 BKN009 02/02 Q1010 R19L/29//95 R08/29//95 TEMPO OVC004,ESSA,2020-12-11T19:20:00Z,59.65,17.93,2.0,2.0,80,6,,2.49,29.822834,,,,,,,,,,-RA,FEW,500,SCT,700,BKN,900,,,IFR,,,,,,,,,,,,METAR,36.0
ESPE 111920Z AUTO 11004KT 9999 OVC013/// M02/M03 Q1018,ESPE,2020-12-11T19:20:00Z,65.88,20.15,-2.0,-3.0,110,4,,6.21,30.059055,,,TRUE,,,,,,,,OVC,1300,,,,,,,MVFR,,,,,,,,,,,,METAR,182.0
ESPA 111920Z 11004KT 080V140 9999 BKN009 M02/M04 Q1020,ESPA,2020-12-11T19:20:00Z,65.53,22.12,-2.0,-4.0,110,4,,6.21,30.11811,,,,,,,,,,,BKN,900,,,,,,,IFR,,,,,,,,,,,,METAR,12.0
ESOW 111920Z AUTO 05007KT 4200 -RA OVC004/// 02/01 Q1010 RESHUP RERA,ESOW,2020-12-11T19:20:00Z,59.58,16.63,2.0,1.0,50,7,,2.61,29.822834,,,TRUE,,,,,,,-RA RA,OVC,400,,,,,,,LIFR,,,,,,,,,,,,METAR,7.0
ESOK 111920Z AUTO 06009KT 9999 OVC008/// 01/00 Q1008 RERA,ESOK,2020-12-11T19:20:00Z,59.45,13.33,1.0,0.0,60,9,,6.21,29.763779,,,TRUE,,,,,,,,OVC,800,,,,,,,IFR,,,,,,,,,,,,METAR,101.0
ESOH 111920Z AUTO 06005KT 020V110 3700 RASN VV018 M00/M02 Q1009 REDZ REUP,ESOH,2020-12-11T19:20:00Z,60.02,13.58,0.0,-2.0,60,5,,2.3,29.793306,,,TRUE,,,,,,,RA SN,OVX,0,,,,,,,LIFR,,,,,,,,,,,1800,METAR,145.0
ESOE 111920Z 06009KT 5000 -RASN VV004 02/01 Q1009,ESOE,2020-12-11T19:20:00Z,59.22,15.05,2.0,1.0,60,9,,3.11,29.793306,,,,,,,,,,-RA -SN,OVX,0,,,,,,,LIFR,,,,,,,,,,,400,METAR,57.0
ESNZ 111920Z AUTO 11008KT 9999 BKN011/// OVC013/// M02/M04 Q1013,ESNZ,2020-12-11T19:20:00Z,63.18,14.5,-2.0,-4.0,110,8,,6.21,29.911417,,,TRUE,,,,,,,,BKN,1100,OVC,1300,,,,,MVFR,,,,,,,,,,,,METAR,360.0
ESNX 111920Z 11005KT 9000 -SN OVC006 M03/M04 Q1016,ESNX,2020-12-11T19:20:00Z,65.58,19.28,-3.0,-4.0,110,5,,5.59,30.0,,,,,,,,,,-SN,OVC,600,,,,,,,IFR,,,,,,,,,,,,METAR,380.0
ESNV 111920Z AUTO 10005KT 9999 OVC016/// M02/M04 Q1014,ESNV,2020-12-11T19:20:00Z,64.58,16.83,-2.0,-4.0,100,5,,6.21,29.940945,,,TRUE,,,,,,,,OVC,1600,,,,,,,MVFR,,,,,,,,,,,,METAR,348.0
ESNU 111920Z 08004KT 9999 OVC015 M02/M04 Q1018,ESNU,2020-12-11T19:20:00Z,63.78,20.28,-2.0,-4.0,80,4,,6.21,30.059055,,,,,,,,,,,OVC,1500,,,,,,,MVFR,,,,,,,,,,,,METAR,8.0
ESNS 111920Z 11004KT 080V150 9999 BKN015 M02/M04 Q1018,ESNS,2020-12-11T19:20:00Z,64.62,21.07,-2.0,-4.0,110,4,,6.21,30.059055,,,,,,,,,,,BKN,1500,,,,,,,MVFR,,,,,,,,,,,,METAR,41.0
ESNQ 111920Z AUTO 19007KT 9999 OVC008/// M02/M03 Q1014,ESNQ,2020-12-11T19:20:00Z,67.82,20.33,-2.0,-3.0,190,7,,6.21,29.940945,,,TRUE,,,,,,,,OVC,800,,,,,,,IFR,,,,,,,,,,,,METAR,447.0
ESNO 111920Z AUTO 07006KT 030V110 9999 SCT006/// OVC009/// M02/M03 Q1016,ESNO,2020-12-11T19:20:00Z,63.4,18.97,-2.0,-3.0,70,6,,6.21,30.0,,,TRUE,,,,,,,,SCT,600,OVC,900,,,,,IFR,,,,,,,,,,,,METAR,100.0
ESNN 111920Z AUTO 08003KT 050V110 9999 OVC024/// 00/M03 Q1016,ESNN,2020-12-11T19:20:00Z,62.52,17.43,0.0,-3.0,80,3,,6.21,30.0,,,TRUE,,,,,,,,OVC,2400,,,,,,,MVFR,,,,,,,,,,,,METAR,4.0
ESNL 111920Z AUTO 12005KT 2300 SG FEW007/// OVC012/// M02/M03 Q1016 REFZUP,ESNL,2020-12-11T19:20:00Z,64.55,18.72,-2.0,-3.0,120,5,,1.43,30.0,,,TRUE,,,,,,,SG,FEW,700,OVC,1200,,,,,IFR,,,,,,,,,,,,METAR,220.0
ESNK 111920Z AUTO 12006KT 9999 -RASN FEW003/// OVC013/// M01/M02 Q1016 RESHUP RESN,ESNK,2020-12-11T19:20:00Z,63.03,17.77,-1.0,-2.0,120,6,,6.21,30.0,,,TRUE,,,,,,,-RA -SN SN,FEW,300,OVC,1300,,,,,MVFR,,,,,,,,,,,,METAR,4.0
ESNG 111920Z 17004KT 9999 OVC010 M02/M04 Q1016,ESNG,2020-12-11T19:20:00Z,67.13,20.82,-2.0,-4.0,170,4,,6.21,30.0,,,,,,,,,,,OVC,1000,,,,,,,MVFR,,,,,,,,,,,,METAR,300.0
ESND 111920Z AUTO 12010KT 090V150 9999 OVC015/// M03/M05 Q1012,ESND,2020-12-11T19:20:00Z,62.05,14.42,-3.0,-5.0,120,10,,6.21,29.88189,,,TRUE,,,,,,,,OVC,1500,,,,,,,MVFR,,,,,,,,,,,,METAR,352.0
ESMX 111920Z AUTO 11004KT 050V120 3400 BR BKN004/// OVC006/// 01/01 Q1005,ESMX,2020-12-11T19:20:00Z,56.92,14.72,1.0,1.0,110,4,,2.11,29.675198,,,TRUE,,,,,,,BR,BKN,400,OVC,600,,,,,LIFR,,,,,,,,,,,,METAR,176.0
ESMT 111920Z AUTO 11009KT 9999 OVC010/// 02/00 Q1004,ESMT,2020-12-11T19:20:00Z,56.68,12.82,2.0,0.0,110,9,,6.21,29.64567,,,TRUE,,,,,,,,OVC,1000,,,,,,,MVFR,,,,,,,,,,,,METAR,24.0
ESMS 111920Z 10012KT 9999 OVC011 02/M00 Q1003,ESMS,2020-12-11T19:20:00Z,55.53,13.37,2.0,0.0,100,12,,6.21,29.616142,,,,,,,,,,,OVC,1100,,,,,,,MVFR,,,,,,,,,,,,METAR,68.0
ESMQ 111920Z AUTO 02002KT 3500 SCT008/// OVC011/// 03/02 Q1007,ESMQ,2020-12-11T19:20:00Z,56.68,16.3,3.0,2.0,20,2,,2.17,29.734253,,,TRUE,,,,,,,,SCT,800,OVC,1100,,,,,IFR,,,,,,,,,,,,METAR,3.0
ESMK 111920Z AUTO 11008KT 9999 OVC014/// 03/01 Q1004,ESMK,2020-12-11T19:20:00Z,55.92,14.08,3.0,1.0,110,8,,6.21,29.64567,,,TRUE,,,,,,,,OVC,1400,,,,,,,MVFR,,,,,,,,,,,,METAR,20.0
ESKS 111920Z AUTO 09010KT 2000 -SN OVC008/// M03/M04 Q1009,ESKS,2020-12-11T19:20:00Z,61.17,12.83,-3.0,-4.0,90,10,,1.24,29.793306,,,TRUE,,,,,,,-SN,OVC,800,,,,,,,IFR,,,,,,,,,,,,METAR,503.0
ESKN 111920Z 11006KT 9999 SCT009 BKN016 04/03 Q1009 R08/290195,ESKN,2020-12-11T19:20:00Z,58.78,16.92,4.0,3.0,110,6,,6.21,29.793306,,,,,,,,,,,SCT,900,BKN,1600,,,,,MVFR,,,,,,,,,,,,METAR,41.0
ESKM 111920Z AUTO 04004KT 7000 -SN SCT012/// BKN024/// OVC027/// M01/M01 Q1011,ESKM,2020-12-11T19:20:00Z,60.97,14.52,-1.0,-1.0,40,4,,4.35,29.852362,,,TRUE,,,,,,,-SN,SCT,1200,BKN,2400,OVC,2700,,,MVFR,,,,,,,,,,,,METAR,184.0
ESIB 111920Z AUTO 09008KT 9999 FEW011/// SCT014/// OVC022/// 02/02 Q1006,ESIB,2020-12-11T19:20:00Z,58.42,12.7,2.0,2.0,90,8,,6.21,29.704725,,,TRUE,,,,,,,,FEW,1100,SCT,1400,OVC,2200,,,MVFR,,,,,,,,,,,,METAR,51.0
ESIA 111920Z AUTO 12009KT 9999 BKN008/// OVC009/// 03/01 Q1007,ESIA,2020-12-11T19:20:00Z,58.52,14.5,3.0,1.0,120,9,,6.21,29.734253,,,TRUE,,,,,,,,BKN,800,OVC,900,,,,,IFR,,,,,,,,,,,,METAR,94.0
ESGT 111920Z AUTO 09008KT 9999 OVC024/// 03/01 Q1006,ESGT,2020-12-11T19:20:00Z,58.32,12.33,3.0,1.0,90,8,,6.21,29.704725,,,TRUE,,,,,,,,OVC,2400,,,,,,,MVFR,,,,,,,,,,,,METAR,40.0
ESGR 111920Z AUTO 08004KT 9999 -DZ BKN010/// BKN016/// OVC024/// 02/01 Q1006 REDZ REUP,ESGR,2020-12-11T19:20:00Z,58.45,13.97,2.0,1.0,80,4,,6.21,29.704725,,,TRUE,,,,,,,-DZ,BKN,1000,BKN,1600,OVC,2400,,,MVFR,,,,,,,,,,,,METAR,95.0
ESGJ 111920Z AUTO 08004KT 8000 BR OVC020/// 01/01 Q1005,ESGJ,2020-12-11T19:20:00Z,57.77,14.07,1.0,1.0,80,4,,4.97,29.675198,,,TRUE,,,,,,,BR,OVC,2000,,,,,,,MVFR,,,,,,,,,,,,METAR,224.0
ESGG 111920Z 10006KT 9999 BKN009 01/M01 Q1004 R03/29//95,ESGG,2020-12-11T19:20:00Z,57.67,12.3,1.0,-1.0,100,6,,6.21,29.64567,,,,,,,,,,,BKN,900,,,,,,,IFR,,,,,,,,,,,,METAR,152.0
ESDF 111920Z 09006KT 5000 -DZ BKN005 02/01 Q1006,ESDF,2020-12-11T19:20:00Z,56.27,15.27,2.0,1.0,90,6,,3.11,29.704725,,,,,,,,,,-DZ,BKN,500,,,,,,,IFR,,,,,,,,,,,,METAR,52.0
ESCM 111920Z AUTO 06005KT 7000 -DZ BKN007/// OVC012/// 02/02 Q1011,ESCM,2020-12-11T19:20:00Z,59.88,17.6,2.0,2.0,60,5,,4.35,29.852362,,,TRUE,,,,,,,-DZ,BKN,700,OVC,1200,,,,,IFR,,,,,,,,,,,,METAR,21.0
ESCF 111920Z AUTO 08006KT 5000 OVC003/// 02/01 Q1008,ESCF,2020-12-11T19:20:00Z,58.38,15.52,2.0,1.0,80,6,,3.11,29.763779,,,TRUE,,,,,,,,OVC,300,,,,,,,LIFR,,,,,,,,,,,,METAR,86.0
ENZV 111920Z 10016KT CAVOK 06/M02 Q1001 TEMPO 11017G27KT,ENZV,2020-12-11T19:20:00Z,58.88,5.63,6.0,-2.0,100,16,,6.21,29.557087,,,,,,,,,,,CAVOK,,,,,,,,VFR,,-1.7,,,,,,,,,,METAR,7.0
ENWV 111920Z AUTO 10032KT 8000NDV OVC016/// 06/03 Q0993 RESHRASN W///S5,ENWV,2020-12-11T19:20:00Z,56.28,3.4,6.0,3.0,100,32,,,29.320866,,,TRUE,,,,,,,,OVC,1600,,,,,,,,,,,,,,,,,,,METAR,30.0
ENVD 111920Z 30010KT CAVOK M04/M06 Q1018,ENVD,2020-12-11T19:20:00Z,70.07,29.85,-4.0,-6.0,300,10,,6.21,30.059055,,,,,,,,,,,CAVOK,,,,,,,,VFR,,,,,,,,,,,,METAR,39.0
ENVA 111920Z 10012KT CAVOK 03/M04 Q1010 TEMPO 15015G25KT RMK WIND 670FT 13010KT,ENVA,2020-12-11T19:20:00Z,63.47,10.92,3.0,-4.0,100,12,,6.21,29.822834,,,,,,,,,,,CAVOK,,,,,,,,VFR,,,,,,,,,,,,METAR,12.0
ENUN 111920Z AUTO 16016KT 9999NDV OVC025/// 05/02 Q1007 W08/S/,ENUN,2020-12-11T19:20:00Z,,,5.0,2.0,160,16,,,29.734253,,,TRUE,,,,,,,,OVC,2500,,,,,,,,,,,,,,,,,,,METAR,
ENUG 111920Z AUTO VRB06KT 9999NDV OVC011/// 05/02 Q1015 W///S3,ENUG,2020-12-11T19:20:00Z,71.3,22.25,5.0,2.0,0,6,,,29.970472,,,TRUE,,,,,,,,OVC,1100,,,,,,,,,,,,,,,,,,,METAR,30.0
ENTO 111920Z 04008KT 010V080 9000 -RA OVC008 02/02 Q1006,ENTO,2020-12-11T19:20:00Z,59.2,10.27,2.0,2.0,40,8,,5.59,29.704725,,,,,,,,,,-RA,OVC,800,,,,,,,IFR,,,,,,,,,,,,METAR,84.0
ENTC 111920Z 10004KT CAVOK M02/M03 Q1014 NOSIG RMK WIND 2600FT 18011KT,ENTC,2020-12-11T19:20:00Z,69.68,18.92,-2.0,-3.0,100,4,,6.21,29.940945,,,,,,TRUE,,,,,CAVOK,,,,,,,,VFR,,,,,,,,,,,,METAR,9.0
ENST 111920Z VRB04KT CAVOK 04/M05 Q1010 RMK WIND 300FT 12012KT TURB WRNG - SEE IPPC,ENST,2020-12-11T19:20:00Z,65.97,12.47,4.0,-5.0,0,4,,6.21,29.822834,,,,,,,,,,,CAVOK,,,,,,,,VFR,,,,,,,,,,,,METAR,17.0
ENSS 111920Z 23004KT CAVOK M01/M04 Q1017 RMK WIND 500FT 22002KT,ENSS,2020-12-11T19:20:00Z,70.35,31.05,-1.0,-4.0,230,4,,6.21,30.029528,,,,,,,,,,,CAVOK,,,,,,,,VFR,,,,,,,,,,,,METAR,13.0
ENSL 111920Z AUTO 12040KT 9999NDV FEW020/// SCT038/// BKN099/// 07/03 Q0995 W06/S6,ENSL,2020-12-11T19:20:00Z,58.37,1.9,7.0,3.0,120,40,,,29.379921,,,TRUE,,,,,,,,FEW,2000,SCT,3800,BKN,9900,,,,,,,,,,,,,,,METAR,50.0
ENSK 111920Z 05009KT CAVOK 01/M01 Q1012,ENSK,2020-12-11T19:20:00Z,68.57,15.02,1.0,-1.0,50,9,,6.21,29.88189,,,,,,,,,,,CAVOK,,,,,,,,VFR,,,,,,,,,,,,METAR,3.0
ENSH 111920Z 05007KT 020V090 CAVOK 04/M02 Q1012 RMK WIND 150FT VRB02KT,ENSH,2020-12-11T19:20:00Z,68.25,14.67,4.0,-2.0,50,7,,6.21,29.88189,,,,,,,,,,,CAVOK,,,,,,,,VFR,,,,,,,,,,,,SPECI,9.0
ENSF 111920Z AUTO 14027KT 9999NDV FEW036/// BKN064/// 08/00 Q1001 W///S5,ENSF,2020-12-11T19:20:00Z,61.25,1.85,8.0,0.0,140,27,,,29.557087,,,TRUE,,,,,,,,FEW,3600,BKN,6400,,,,,,,,,,,,,,,,,METAR,15.0
ENSE 111920Z AUTO 14024KT 9999NDV FEW038/// 08/M01 Q1002 W///S5,ENSE,2020-12-11T19:20:00Z,61.45,2.15,8.0,-1.0,140,24,,,29.586615,,,TRUE,,,,,,,,FEW,3800,,,,,,,,,,,,,,,,,,,METAR,10.0
ENSD 111920Z VRB02KT CAVOK 00/M03 Q1004 RMK WIND 1138FT 06005KT,ENSD,2020-12-11T19:20:00Z,61.82,6.12,0.0,-3.0,0,2,,6.21,29.64567,,,,,,,,,,,CAVOK,,,,,,,,VFR,,,,,,,,,,,,METAR,61.0
ENSB 111920Z 12010KT 9999 BKN020 M15/M19 Q1020 RMK WIND 1400FT 00000KT,ENSB,2020-12-11T19:20:00Z,78.25,15.47,-15.0,-19.0,120,10,,6.21,30.11811,,,,,,,,,,,BKN,2000,,,,,,,MVFR,,,,,,,,,,,,SPECI,30.0
ENRY 111920Z AUTO 04009KT 9999NDV -DZ FEW012/// SCT017/// BKN042/// 02/00 Q1007,ENRY,2020-12-11T19:20:00Z,59.37,10.77,2.0,0.0,40,9,,,29.734253,,,TRUE,,,,,,,-DZ,FEW,1200,SCT,1700,BKN,4200,,,,,,,,,,,,,,,METAR,45.0
ENRO 111920Z VRB03KT 6000 -SN BKN013 M04/M06 Q1008,ENRO,2020-12-11T19:20:00Z,62.57,11.33,-4.0,-6.0,0,3,,3.73,29.763779,,,,,,,,,,-SN,BKN,1300,,,,,,,MVFR,,,,,,,,,,,,METAR,624.0
ENRA 111920Z 05004KT 9999 FEW035 01/M04 Q1014,ENRA,2020-12-11T19:20:00Z,66.37,14.3,1.0,-4.0,50,4,,6.21,29.940945,,,,,,,,,,,FEW,3500,,,,,,,VFR,,,,,,,,,,,,METAR,66.0
ENQR 111920Z AUTO 14018KT 9999NDV SCT037/// BKN078/// 07/// Q1002 W///S5,ENQR,2020-12-11T19:20:00Z,61.52,2.22,,,140,18,,,29.586615,,,TRUE,,,,,,,,SCT,3700,BKN,7800,,,,,,,,,,,,,,,,,METAR,10.0
ENQC 111920Z AUTO 13018KT 9999NDV NCD 07/M02 Q1002 W///S5,ENQC,2020-12-11T19:20:00Z,60.88,3.62,7.0,-2.0,130,18,,,29.586615,,,TRUE,,,,,,,,CLR,,,,,,,,,,,,,,,,,,,,METAR,20.0
ENQA 111920Z AUTO 14021KT 9999NDV NCD 07/M01 Q1002 W06/S5,ENQA,2020-12-11T19:20:00Z,60.65,3.72,7.0,-1.0,140,21,,,29.586615,,,TRUE,,,,,,,,CLR,,,,,,,,,,,,,,,,,,,,METAR,90.0
ENOV 111920Z VRB01KT CAVOK M05/M06 Q1005 RMK WIND 2175FT 10006KT,ENOV,2020-12-11T19:20:00Z,62.17,6.07,-5.0,-6.0,0,1,,6.21,29.675198,,,,,,,,,,,CAVOK,,,,,,,,VFR,,0.6,,,,,,,,,,SPECI,72.0
ENOL 111920Z 13020KT CAVOK 04/M03 Q1007 TEMPO 14025G35KT,ENOL,2020-12-11T19:20:00Z,63.7,9.6,4.0,-3.0,130,20,,6.21,29.734253,,,,,,,,,,,CAVOK,,,,,,,,VFR,,,,,,,,,,,,METAR,9.0
ENOA 111920Z 13025KT 9999 FEW037 BKN079 07/00 Q1000 W///S5,ENOA,2020-12-11T19:20:00Z,60.5,2.83,7.0,0.0,130,25,,6.21,29.52756,,,,,,,,,,,FEW,3700,BKN,7900,,,,,VFR,,,,,,,,,,,,METAR,5.0
ENNM 111920Z 10020KT CAVOK 02/M03 Q1010,ENNM,2020-12-11T19:20:00Z,64.47,11.57,2.0,-3.0,100,20,,6.21,29.822834,,,,,,,,,,,CAVOK,,,,,,,,VFR,,,,,,,,,,,,METAR,2.0
ENNE 111920Z AUTO 13028KT 9999NDV OVC026/// 05/00 Q1007 W///S5,ENNE,2020-12-11T19:20:00Z,66.03,8.08,5.0,0.0,130,28,,,29.734253,,,TRUE,,,,,,,,OVC,2600,,,,,,,,,,,,,,,,,,,METAR,10.0
ENNA 111920Z VRB02KT CAVOK M02/M04 Q1017 RMK WIND 1800FT 19010KT,ENNA,2020-12-11T19:20:00Z,70.07,24.97,-2.0,-4.0,0,2,,6.21,30.029528,,,,,,,,,,,CAVOK,,,,,,,,VFR,,,,,,,,,,,,METAR,12.0
ENMS 111920Z 19003KT CAVOK M01/M05 Q1013 RMK WIND 412FT VRB06KT,ENMS,2020-12-11T19:20:00Z,65.78,13.22,-1.0,-5.0,190,3,,6.21,29.911417,,,,,,,,,,,CAVOK,,,,,,,,VFR,,,,,,,,,,,,METAR,44.0
ENML 111920Z 04006KT CAVOK 01/M05 Q1005,ENML,2020-12-11T19:20:00Z,62.75,7.27,1.0,-5.0,40,6,,6.21,29.675198,,,,,,,,,,,CAVOK,,,,,,,,VFR,,,,,,,,,,,,METAR,3.0
ENLK 111920Z 00000KT CAVOK 02/M01 Q1012,ENLK,2020-12-11T19:20:00Z,68.15,13.62,2.0,-1.0,0,0,,6.21,29.88189,,,,,,,,,,,CAVOK,,,,,,,,VFR,,,,,,,,,,,,METAR,26.0
ENLE 111920Z 10032KT 9999 BKN020 06/03 Q0993 W09/S5,ENLE,2020-12-11T19:20:00Z,56.53,3.22,6.0,3.0,100,32,,6.21,29.320866,,,,,,,,,,,BKN,2000,,,,,,,MVFR,,,,,,,,,,,,METAR,10.0
ENLA 111920Z AUTO 10032KT 9999NDV -SHRA BKN017/// 06/03 Q0993 W///S5,ENLA,2020-12-11T19:20:00Z,57.1,2.83,6.0,3.0,100,32,,,29.320866,,,TRUE,,,,,,,-SHRA,BKN,1700,,,,,,,,,,,,,,,,,,,METAR,10.0
ENKR 111920Z 27005KT 9999 BKN010 M00/M02 Q1018 RMK WIND 731FT 26013KT,ENKR,2020-12-11T19:20:00Z,69.72,29.88,0.0,-2.0,270,5,,6.21,30.059055,,,,,,,,,,,BKN,1000,,,,,,,MVFR,,,,,,,,,,,,METAR,86.0
ENKB 111920Z 08005KT CAVOK 04/M04 Q1005 RMK WIND 745FT 12013KT,ENKB,2020-12-11T19:20:00Z,63.12,7.82,4.0,-4.0,80,5,,6.21,29.675198,,,,,,,,,,,CAVOK,,,,,,,,VFR,,,,,,,,,,,,METAR,62.0
ENHV 111920Z 20017KT 9999 FEW020 01/M02 Q1016,ENHV,2020-12-11T19:20:00Z,71.02,25.97,1.0,-2.0,200,17,,6.21,30.0,,,,,,,,,,,FEW,2000,,,,,,,VFR,,,,,,,,,,,,METAR,13.0
ENHM 111920Z AUTO 14031KT 9999NDV FEW023/// SCT029/// 07/03 Q0998 W09/S6,ENHM,2020-12-11T19:20:00Z,59.57,2.23,7.0,3.0,140,31,,,29.468504,,,TRUE,,,,,,,,FEW,2300,SCT,2900,,,,,,,,,,,,,,,,,METAR,10.0
ENHF 111920Z 05005KT CAVOK M02/M04 Q1015 RMK WIND 1254FT 18005KT,ENHF,2020-12-11T19:20:00Z,70.67,23.67,-2.0,-4.0,50,5,,6.21,29.970472,,,,,,,,,,,CAVOK,,,,,,,,VFR,,,,,,,,,,,,METAR,79.0
ENHE 111920Z 16020KT 9999 BKN025 06/02 Q1005 W///S5,ENHE,2020-12-11T19:20:00Z,65.33,2.33,6.0,2.0,160,20,,6.21,29.675198,,,,,,,,,,,BKN,2500,,,,,,,MVFR,,,,,,,,,,,,METAR,10.0
ENHD 111920Z AUTO 11018KT 9999 BKN068/// 06/M02 Q1001,ENHD,2020-12-11T19:20:00Z,59.35,5.22,6.0,-2.0,110,18,,6.21,29.557087,,,TRUE,,,,,,,,BKN,6800,,,,,,,VFR,,,,,,,,,,,,METAR,22.0
ENGM 111920Z 03006KT 6000 -SN SCT011 BKN013 00/M01 Q1008 TEMPO 4000 -SN,ENGM,2020-12-11T19:20:00Z,60.2,11.07,0.0,-1.0,30,6,,3.73,29.763779,,,,,,,,,,-SN,SCT,1100,BKN,1300,,,,,MVFR,,,,,,,,,,,,METAR,204.0
ENFL 111920Z 11008KT CAVOK 05/M02 Q1004,ENFL,2020-12-11T19:20:00Z,61.57,5.02,5.0,-2.0,110,8,,6.21,29.64567,,,,,,,,,,,CAVOK,,,,,,,,VFR,,,,,,,,,,,,METAR,1.0
ENFB 111920Z AUTO 13027KT 9999NDV FEW035/// BKN065/// 08/M01 Q1002 W///S5,ENFB,2020-12-11T19:20:00Z,61.2,1.83,8.0,-1.0,130,27,,,29.586615,,,TRUE,,,,,,,,FEW,3500,BKN,6500,,,,,,,,,,,,,,,,,METAR,10.0
ENEV 111920Z 00000KT CAVOK M05/M06 Q1013 RMK WIND 1400FT 14015KT,ENEV,2020-12-11T19:20:00Z,68.48,16.67,-5.0,-6.0,0,0,,6.21,29.911417,,,,,,,,,,,CAVOK,,,,,,,,VFR,,,,,,,,,,,,METAR,26.0
ENDU 111920Z 00000KT 9999 FEW040 M14/M15 Q1014 RMK WIND 1100FT 12008KT WIND 2200FT 14010KT,ENDU,2020-12-11T19:20:00Z,69.05,18.55,-14.0,-15.0,0,0,,6.21,29.940945,,,,,,,,,,,FEW,4000,,,,,,,VFR,,,,,,,,,,,,METAR,65.0
ENCN 111920Z 09008KT 9999 FEW013 BKN021 04/01 Q1003,ENCN,2020-12-11T19:20:00Z,58.2,8.07,4.0,1.0,90,8,,6.21,29.616142,,,,,,,,,,,FEW,1300,BKN,2100,,,,,MVFR,,,,,,,,,,,,METAR,17.0
ENBS 111920Z 23009KT 9999 BKN004 BKN007 M04/M05 Q1016,ENBS,2020-12-11T19:20:00Z,70.62,29.68,-4.0,-5.0,230,9,,6.21,30.0,,,,,,,,,,,BKN,400,BKN,700,,,,,LIFR,,,,,,,,,,,,METAR,144.0
ENBR 111920Z 08007KT CAVOK 04/M04 Q1002 NOSIG RMK WIND 1200FT 09007KT,ENBR,2020-12-11T19:20:00Z,60.28,5.22,4.0,-4.0,80,7,,6.21,29.586615,,,,,,TRUE,,,,,CAVOK,,,,,,,,VFR,,,,,,,,,,,,METAR,49.0
ENBO 111920Z 09017KT CAVOK 04/M03 Q1011 TEMPO 09018G28KT,ENBO,2020-12-11T19:20:00Z,67.27,14.37,4.0,-3.0,90,17,,6.21,29.852362,,,,,,,,,,,CAVOK,,,,,,,,VFR,,,,,,,,,,,,METAR,13.0
ENBN 111920Z 04017KT CAVOK 03/M03 Q1011,ENBN,2020-12-11T19:20:00Z,65.47,12.22,3.0,-3.0,40,17,,6.21,29.852362,,,,,,,,,,,CAVOK,,,,,,,,VFR,,,,,,,,,,,,METAR,3.0
ENBL 111920Z 10006KT 9999 FEW045 03/M05 Q1003,ENBL,2020-12-11T19:20:00Z,61.4,5.77,3.0,-5.0,100,6,,6.21,29.616142,,,,,,,,,,,FEW,4500,,,,,,,VFR,,,,,,,,,,,,METAR,313.0
ENAT 111920Z VRB03KT 9999 BKN030 M03/M04 Q1017 RMK WIND 700FT 18016KT,ENAT,2020-12-11T19:20:00Z,69.97,23.37,-3.0,-4.0,0,3,,6.21,30.029528,,,,,,,,,,,BKN,3000,,,,,,,MVFR,,,,,,,,,,,,METAR,3.0
ENAN 111920Z 18012KT CAVOK 00/M01 Q1013,ENAN,2020-12-11T19:20:00Z,69.3,16.13,0.0,-1.0,180,12,,6.21,29.911417,,,,,,,,,,,CAVOK,,,,,,,,VFR,,,,,,,,,,,,METAR,13.0
ENAL 111920Z 15006KT CAVOK 01/M03 Q1004,ENAL,2020-12-11T19:20:00Z,62.57,6.12,1.0,-3.0,150,6,,6.21,29.64567,,,,,,,,,,,CAVOK,,,,,,,,VFR,,,,,,,,,,,,METAR,21.0
ELLX 111920Z 16008KT 130V200 0700 R24/P2000U -DZ FG VV002 04/04 Q0991 NOSIG,ELLX,2020-12-11T19:20:00Z,49.63,6.2,4.0,4.0,160,8,,0.43,29.26181,,,,,,TRUE,,,,-DZ FG,OVX,0,,,,,,,LIFR,,,,,,,,,,,200,METAR,374.0
EKVG 111920Z AUTO 11021KT 9999 BKN017/// 07/06 Q0991,EKVG,2020-12-11T19:20:00Z,62.07,-7.27,7.0,6.0,110,21,,6.21,29.26181,,,TRUE,,,,,,,,BKN,1700,,,,,,,MVFR,,,,,,,,,,,,METAR,89.0
EKVD 111920Z AUTO 11015KT //// ///////// 03/02 Q0999,EKVD,2020-12-11T19:20:00Z,55.43,9.32,3.0,2.0,110,15,,,29.498032,,,TRUE,,,,,,,,,,,,,,,,,,,,,,,,,,,,METAR,41.0
EKSP 111920Z 11014G25KT 5000 OVC005 03/02 Q0998,EKSP,2020-12-11T19:20:00Z,55.22,9.27,3.0,2.0,110,14,25,3.11,29.468504,,,,,,,,,,,OVC,500,,,,,,,IFR,,,,,,,,,,,,METAR,40.0
EKSB 111920Z AUTO 12016KT 9000NDV OVC009/// 04/02 Q0998,EKSB,2020-12-11T19:20:00Z,54.97,9.8,4.0,2.0,120,16,,,29.468504,,,TRUE,,,,,,,,OVC,900,,,,,,,,,,,,,,,,,,,METAR,23.0
EKRS 111920Z AUTO VRB09KT 9999 OVC008/// 03/02 Q1001,EKRS,2020-12-11T19:20:00Z,55.42,11.8,3.0,2.0,0,9,,6.21,29.557087,,,TRUE,,,,,,,,OVC,800,,,,,,,IFR,,,,,,,,,,,,METAR,34.0
EKRN 111920Z AUTO 10008KT 8000 OVC013/// 03/01 Q1004,EKRN,2020-12-11T19:20:00Z,55.07,14.75,3.0,1.0,100,8,,4.97,29.64567,,,TRUE,,,,,,,,OVC,1300,,,,,,,MVFR,,,,,,,,,,,,METAR,14.0
EKRK 111920Z AUTO 12015KT 9999 OVC010/// 03/01 Q1002,EKRK,2020-12-11T19:20:00Z,55.58,12.13,3.0,1.0,120,15,,6.21,29.586615,,,TRUE,,,,,,,,OVC,1000,,,,,,,MVFR,,,,,,,,,,,,METAR,40.0
EKKA 111920Z AUTO 10012KT 9999 OVC008/// 03/01 Q1000,EKKA,2020-12-11T19:20:00Z,56.3,9.12,3.0,1.0,100,12,,6.21,29.52756,,,TRUE,,,,,,,,OVC,800,,,,,,,IFR,,,,,,,,,,,,METAR,50.0
EKEB 111920Z AUTO 09012KT 060V130 9000 OVC009/// 03/01 Q0998,EKEB,2020-12-11T19:20:00Z,55.52,8.55,3.0,1.0,90,12,,5.59,29.468504,,,TRUE,,,,,,,,OVC,900,,,,,,,IFR,,,,,,,,,,,,METAR,29.0
EKCH 111920Z 10011KT 9999 BKN010 03/01 Q1003 TEMPO BKN008,EKCH,2020-12-11T19:20:00Z,55.62,12.67,3.0,1.0,100,11,,6.21,29.616142,,,,,,,,,,,BKN,1000,,,,,,,MVFR,,,,,,,,,,,,METAR,4.0
EKBI 111920Z AUTO 10014KT 060V130 6000 OVC007/// 02/01 Q0999,EKBI,2020-12-11T19:20:00Z,55.73,9.15,2.0,1.0,100,14,,3.73,29.498032,,,TRUE,,,,,,,,OVC,700,,,,,,,IFR,,,,,,,,,,,,METAR,67.0
EKAH 111920Z AUTO 12011KT 080V150 9999 OVC010/// 03/02 Q1002,EKAH,2020-12-11T19:20:00Z,56.28,10.62,3.0,2.0,120,11,,6.21,29.586615,,,TRUE,,,,,,,,OVC,1000,,,,,,,MVFR,,,,,,,,,,,,METAR,25.0
EGWU 111920Z 33001KT 5000 MIFG BR FEW013 BKN040 07/06 Q0987 TEMPO 3000 SCT008 RMK WHT TEMPO YLO1,EGWU,2020-12-11T19:20:00Z,51.55,-0.42,7.0,6.0,330,1,,3.11,29.143702,,,,,,,,,,MIFG BR,FEW,1300,BKN,4000,,,,,MVFR,,,,,,,,,,,,METAR,33.0
EGTK 111920Z VRB01KT 2000 0200NW R19/0450 PRFG NSC 04/04 Q0987,EGTK,2020-12-11T19:20:00Z,51.83,-1.32,4.0,4.0,0,1,,1.24,29.143702,,,,,,,,,,PRFG,CLR,,,,,,,,IFR,,,,,,,,,,,,METAR,78.0
EGSS 111920Z AUTO 22005KT 0450 R22/P1500 FG SCT002 SCT005 BKN012 07/07 Q0987,EGSS,2020-12-11T19:20:00Z,51.88,0.22,7.0,7.0,220,5,,0.28,29.143702,,,TRUE,,,,,,,FG,SCT,200,SCT,500,BKN,1200,,,LIFR,,,,,,,,,,,,METAR,101.0
EGSH 111920Z AUTO 00000KT 7000 OVC004/// 08/07 Q0987,EGSH,2020-12-11T19:20:00Z,52.68,1.28,8.0,7.0,0,0,,4.35,29.143702,,,TRUE,,,,,,,,OVC,400,,,,,,,LIFR,,,,,,,,,,,,METAR,21.0
EGPU 111920Z AUTO 24003KT 3100 -RA FEW009/// BKN021/// 08/08 Q0986,EGPU,2020-12-11T19:20:00Z,56.5,-6.88,8.0,8.0,240,3,,1.93,29.114174,,,TRUE,,,,,,,-RA,FEW,900,BKN,2100,,,,,IFR,,,,,,,,,,,,METAR,12.0
EGPO 111920Z AUTO 15007KT 9999 -RA SCT017/// OVC040/// 08/07 Q0986,EGPO,2020-12-11T19:20:00Z,58.22,-6.32,8.0,7.0,150,7,,6.21,29.114174,,,TRUE,,,,,,,-RA,SCT,1700,OVC,4000,,,,,VFR,,,,,,,,,,,,METAR,10.0
EGPN 111920Z 00000KT 9000 -DZ BKN010 07/06 Q0987,EGPN,2020-12-11T19:20:00Z,56.45,-3.02,7.0,6.0,0,0,,5.59,29.143702,,,,,,,,,,-DZ,BKN,1000,,,,,,,MVFR,,,,,,,,,,,,METAR,4.0
EGPL 111920Z AUTO 20005KT 6000 -RA OVC004/// 08/08 Q0985 RERA,EGPL,2020-12-11T19:20:00Z,57.47,-7.37,8.0,8.0,200,5,,3.73,29.084646,,,TRUE,,,,,,,-RA,OVC,400,,,,,,,LIFR,,,,,,,,,,,,METAR,3.0
EGPK 111920Z 17001KT 9999 OVC015 07/07 Q0987,EGPK,2020-12-11T19:20:00Z,55.5,-4.58,7.0,7.0,170,1,,6.21,29.143702,,,,,,,,,,,OVC,1500,,,,,,,MVFR,,,,,,,,,,,,METAR,14.0
EGPI 111920Z AUTO 25008KT 4100 BR FEW006/// SCT011/// BKN036/// 09/09 Q0986,EGPI,2020-12-11T19:20:00Z,55.68,-6.25,9.0,9.0,250,8,,2.55,29.114174,,,TRUE,,,,,,,BR,FEW,600,SCT,1100,BKN,3600,,,IFR,,,,,,,,,,,,METAR,17.0
EGPH 111920Z 04003KT 9999 -RA FEW013 06/05 Q0987,EGPH,2020-12-11T19:20:00Z,55.95,-3.35,6.0,5.0,40,3,,6.21,29.143702,,,,,,,,,,-RA,FEW,1300,,,,,,,VFR,,,,,,,,,,,,METAR,29.0
EGPF 111920Z AUTO 07003KT 9000 -RA SCT009 BKN012 OVC016 07/06 Q0987,EGPF,2020-12-11T19:20:00Z,55.87,-4.42,7.0,6.0,70,3,,5.59,29.143702,,,TRUE,,,,,,,-RA,SCT,900,BKN,1200,OVC,1600,,,MVFR,,,,,,,,,,,,METAR,8.0
EGPE 111920Z 07001KT 9999 MIFG FEW020 04/03 Q0987,EGPE,2020-12-11T19:20:00Z,57.53,-4.05,4.0,3.0,70,1,,6.21,29.143702,,,,,,,,,,MIFG,FEW,2000,,,,,,,VFR,,,,,,,,,,,,METAR,7.0
EGPD 111920Z AUTO 13012KT 070V160 2700 RADZ BKN004 OVC011 07/07 Q0989 TEMPO 5000 -RADZ BKN005,EGPD,2020-12-11T19:20:00Z,57.2,-2.22,7.0,7.0,130,12,,1.68,29.202755,,,TRUE,,,,,,,RA DZ,BKN,400,OVC,1100,,,,,LIFR,,,,,,,,,,,,METAR,65.0
EGPB 111920Z 13024KT 9000 -RA SCT019 BKN037 08/04 Q0995 TEMPO SHRA,EGPB,2020-12-11T19:20:00Z,59.87,-1.3,8.0,4.0,130,24,,5.59,29.379921,,,,,,,,,,-RA,SCT,1900,BKN,3700,,,,,VFR,,,,,,,,,,,,SPECI,2.0
EGNX 111920Z 26003KT 9999 5000W MIFG SCT012 BKN038 06/06 Q0986,EGNX,2020-12-11T19:20:00Z,52.82,-1.32,6.0,6.0,260,3,,6.21,29.114174,,,,,,,,,,MIFG,SCT,1200,BKN,3800,,,,,VFR,,,,,,,,,,,,METAR,91.0
EGNV 111920Z 35001KT 3000 -DZ BR OVC017 07/06 Q0987,EGNV,2020-12-11T19:20:00Z,54.52,-1.42,7.0,6.0,350,1,,1.86,29.143702,,,,,,,,,,-DZ BR,OVC,1700,,,,,,,IFR,,,,,,,,,,,,METAR,36.0
EGNT 111920Z 00000KT 3000 -RA HZ BKN010 06/05 Q0987,EGNT,2020-12-11T19:20:00Z,55.03,-1.7,6.0,5.0,0,0,,1.86,29.143702,,,,,,,,,,-RA HZ,BKN,1000,,,,,,,IFR,,,,,,,,,,,,METAR,77.0
EGNS 111920Z 27004KT 9999 FEW018 BKN020 09/08 Q0986 TEMPO 7000 -SHRA BKN014,EGNS,2020-12-11T19:20:00Z,54.08,-4.63,9.0,8.0,270,4,,6.21,29.114174,,,,,,,,,,,FEW,1800,BKN,2000,,,,,MVFR,,,,,,,,,,,,METAR,18.0
EGNR 111920Z VRB01KT 8000 -RA FEW013 SCT020 BKN028 08/08 Q0987,EGNR,2020-12-11T19:20:00Z,53.17,-2.98,8.0,8.0,0,1,,4.97,29.143702,,,,,,,,,,-RA,FEW,1300,SCT,2000,BKN,2800,,,MVFR,,,,,,,,,,,,METAR,11.0
EGNM 111920Z VRB01KT 0250 -DZ FG VV/// 06/06 Q0987,EGNM,2020-12-11T19:20:00Z,53.87,-1.65,6.0,6.0,0,1,,0.16,29.143702,,,,,,,,,,-DZ FG,OVX,0,,,,,,,LIFR,,,,,,,,,,,,METAR,221.0
EGNJ 111920Z AUTO VRB03KT 2300 -DZ FEW003/// OVC009/// 08/08 Q0987 RERA,EGNJ,2020-12-11T19:20:00Z,53.57,-0.35,8.0,8.0,0,3,,1.43,29.143702,,,TRUE,,,,,,,-DZ,FEW,300,OVC,900,,,,,IFR,,,,,,,,,,,,METAR,23.0
EGNH 111920Z 23005KT 9999 FEW007 SCT024 BKN030 08/07 Q0987,EGNH,2020-12-11T19:20:00Z,53.77,-3.03,8.0,7.0,230,5,,6.21,29.143702,,,,,,,,,,,FEW,700,SCT,2400,BKN,3000,,,MVFR,,,,,,,,,,,,METAR,10.0
EGMD 111920Z AUTO 27005KT 0400 FG NCD 07/06 Q0987,EGMD,2020-12-11T19:20:00Z,50.95,0.93,7.0,6.0,270,5,,0.25,29.143702,,,TRUE,,,,,,,FG,CLR,,,,,,,,LIFR,,,,,,,,,,,,METAR,4.0
EGMC 111920Z 24002KT 9999 FEW017 SCT020 BKN025 07/07 Q0987,EGMC,2020-12-11T19:20:00Z,51.57,0.7,7.0,7.0,240,2,,6.21,29.143702,,,,,,,,,,,FEW,1700,SCT,2000,BKN,2500,,,MVFR,,,,,,,,,,,,METAR,15.0
EGLL 111920Z AUTO 27004KT 9999 SCT024 OVC031 08/07 Q0987,EGLL,2020-12-11T19:20:00Z,51.48,-0.45,8.0,7.0,270,4,,6.21,29.143702,,,TRUE,,,,,,,,SCT,2400,OVC,3100,,,,,VFR,,,,,,,,,,,,METAR,26.0
EGLF 111920Z 22002KT 9999 BKN030 OVC040 05/05 Q0987,EGLF,2020-12-11T19:20:00Z,51.28,-0.77,5.0,5.0,220,2,,6.21,29.143702,,,,,,,,,,,BKN,3000,OVC,4000,,,,,MVFR,,,,,,,,,,,,METAR,65.0
EGLC 111920Z AUTO 23005KT 9999 SCT042 09/07 Q0987,EGLC,2020-12-11T19:20:00Z,51.5,0.05,9.0,7.0,230,5,,6.21,29.143702,,,TRUE,,,,,,,,SCT,4200,,,,,,,VFR,,,,,,,,,,,,METAR,10.0
EGKK 111920Z VRB01KT 6000 1200W R26L/0400 BCFG FEW045 06/05 Q0987,EGKK,2020-12-11T19:20:00Z,51.13,-0.18,6.0,5.0,0,1,,3.73,29.143702,,,,,,,,,,BCFG,FEW,4500,,,,,,,MVFR,,,,,,,,,,,,METAR,58.0
EGKB 111920Z 23005KT CAVOK 06/06 Q0987,EGKB,2020-12-11T19:20:00Z,51.32,0.02,6.0,6.0,230,5,,6.21,29.143702,,,,,,,,,,,CAVOK,,,,,,,,VFR,,,,,,,,,,,,METAR,183.0
EGJJ 111920Z 27012KT 9999 VCSH FEW009 SCT014CB 10/09 Q0989,EGJJ,2020-12-11T19:20:00Z,49.22,-2.2,10.0,9.0,270,12,,6.21,29.202755,,,,,,,,,,VCSH,FEW,900,SCT,1400,,,,,VFR,,,,,,,,,,,,METAR,84.0
EGJB 111920Z 28012KT 9999 VCSH FEW008 SCT010 FEW012CB 10/08 Q0989 RESHRA,EGJB,2020-12-11T19:20:00Z,49.42,-2.6,10.0,8.0,280,12,,6.21,29.202755,,,,,,,,,,VCSH,FEW,800,SCT,1000,FEW,1200,,,VFR,,,,,,,,,,,,METAR,102.0
EGHQ 111920Z AUTO 30020KT 9999 BKN016/// 09/08 Q0990 RERA,EGHQ,2020-12-11T19:20:00Z,50.43,-5.0,9.0,8.0,300,20,,6.21,29.232283,,,TRUE,,,,,,,,BKN,1600,,,,,,,MVFR,,,,,,,,,,,,METAR,101.0
EGHH 111920Z 27002KT 9000 MIFG SCT030 05/04 Q0988,EGHH,2020-12-11T19:20:00Z,50.78,-1.83,5.0,4.0,270,2,,5.59,29.17323,,,,,,,,,,MIFG,SCT,3000,,,,,,,VFR,,,,,,,,,,,,METAR,9.0
EGGW 111920Z AUTO 21004KT 8000 FEW010 06/05 Q0987,EGGW,2020-12-11T19:20:00Z,51.87,-0.37,6.0,5.0,210,4,,4.97,29.143702,,,TRUE,,,,,,,,FEW,1000,,,,,,,MVFR,,,,,,,,,,,,METAR,159.0
EGGP 111920Z 27004KT 9999 -SHRA SCT022 BKN040 09/08 Q0987,EGGP,2020-12-11T19:20:00Z,53.33,-2.85,9.0,8.0,270,4,,6.21,29.143702,,,,,,,,,,-SHRA,SCT,2200,BKN,4000,,,,,VFR,,,,,,,,,,,,METAR,23.0
EGGD 111920Z AUTO 25007KT 9999 SCT003 BKN007 BKN012 08/08 Q0987,EGGD,2020-12-11T19:20:00Z,51.37,-2.72,8.0,8.0,250,7,,6.21,29.143702,,,TRUE,,,,,,,,SCT,300,BKN,700,BKN,1200,,,IFR,,,,,,,,,,,,METAR,182.0
EGFF 111920Z AUTO 30007KT 3500 BR FEW002/// BKN041/// //////TCU 08/08 Q0988,EGFF,2020-12-11T19:20:00Z,51.38,-3.35,8.0,8.0,300,7,,2.17,29.17323,,,TRUE,,,,,,,BR,FEW,200,BKN,4100,,,,,IFR,,,,,,,,,,,,METAR,65.0
EGCN 111920Z 34002KT 0300 R20/0550 FG BKN001 OVC007 08/08 Q0988,EGCN,2020-12-11T19:20:00Z,53.48,-1.0,8.0,8.0,340,2,,0.19,29.17323,,,,,,,,,,FG,BKN,100,OVC,700,,,,,LIFR,,,,,,,,,,,,METAR,9.0
EGCK 111920Z AUTO VRB03KT 9999 FEW007/// OVC019/// 08/08 Q0987,EGCK,2020-12-11T19:20:00Z,53.1,-4.33,8.0,8.0,0,3,,6.21,29.143702,,,TRUE,,,,,,,,FEW,700,OVC,1900,,,,,MVFR,,,,,,,,,,,,METAR,6.0
EGCC 111920Z AUTO 20002KT 9999 BKN014 BKN028 08/07 Q0987 NOSIG,EGCC,2020-12-11T19:20:00Z,53.35,-2.27,8.0,7.0,200,2,,6.21,29.143702,,,TRUE,,,TRUE,,,,,BKN,1400,BKN,2800,,,,,MVFR,,,,,,,,,,,,METAR,78.0
EGBB 111920Z 25002KT 0200 R33/P1500 FG SCT003 BKN011 07/07 Q0987,EGBB,2020-12-11T19:20:00Z,52.47,-1.75,7.0,7.0,250,2,,0.12,29.143702,,,,,,,,,,FG,SCT,300,BKN,1100,,,,,LIFR,,,,,,,,,,,,METAR,91.0
EGAE 111920Z 25007KT 9999 -RA FEW009 BKN040 08/08 Q0988,EGAE,2020-12-11T19:20:00Z,55.03,-7.15,8.0,8.0,250,7,,6.21,29.17323,,,,,,,,,,-RA,FEW,900,BKN,4000,,,,,VFR,,,,,,,,,,,,METAR,9.0
EGAC 111920Z AUTO 22003KT 5000 -RA FEW009/// SCT015/// BKN024/// 08/07 Q0987,EGAC,2020-12-11T19:20:00Z,54.62,-5.87,8.0,7.0,220,3,,3.11,29.143702,,,TRUE,,,,,,,-RA,FEW,900,SCT,1500,BKN,2400,,,MVFR,,,,,,,,,,,,METAR,2.0
EGAA 111920Z 20003KT 3500 BR SCT013 BKN020 07/07 Q0987 REDZ,EGAA,2020-12-11T19:20:00Z,54.65,-6.22,7.0,7.0,200,3,,2.17,29.143702,,,,,,,,,,BR,SCT,1300,BKN,2000,,,,,IFR,,,,,,,,,,,,SPECI,65.0
EFVA 111920Z AUTO 09005KT 060V120 9999 OVC013 M04/M07 Q1018,EFVA,2020-12-11T19:20:00Z,63.05,21.77,-4.0,-7.0,90,5,,6.21,30.059055,,,TRUE,,,,,,,,OVC,1300,,,,,,,MVFR,,,,,,,,,,,,METAR,4.0
EFUT 111920Z AUTO 10008KT 7000 OVC003 M04/M05 Q1018,EFUT,2020-12-11T19:20:00Z,60.88,26.93,-4.0,-5.0,100,8,,4.35,30.059055,,,TRUE,,,,,,,,OVC,300,,,,,,,LIFR,,,,,,,,,,,,METAR,104.0
EFTU 111920Z AUTO 09007KT 9999 OVC006 M01/M02 Q1015,EFTU,2020-12-11T19:20:00Z,60.52,22.27,-1.0,-2.0,90,7,,6.21,29.970472,,,TRUE,,,,,,,,OVC,600,,,,,,,IFR,,,,,,,,,,,,METAR,47.0
EFTP 111920Z AUTO 10006KT 060V120 9999 -SN OVC005 M03/M04 Q1017,EFTP,2020-12-11T19:20:00Z,61.42,23.62,-3.0,-4.0,100,6,,6.21,30.029528,,,TRUE,,,,,,,-SN,OVC,500,,,,,,,IFR,,,,,,,,,,,,METAR,111.0
EFSI 111920Z AUTO 10006KT 9999 SCT011 OVC016 M04/M06 Q1017,EFSI,2020-12-11T19:20:00Z,62.7,22.83,-4.0,-6.0,100,6,,6.21,30.029528,,,TRUE,,,,,,,,SCT,1100,OVC,1600,,,,,MVFR,,,,,,,,,,,,METAR,90.0
EFSA 111920Z AUTO 14003KT 9999 -SHSN OVC011 M05/M07 Q1020,EFSA,2020-12-11T19:20:00Z,61.95,28.93,-5.0,-7.0,140,3,,6.21,30.11811,,,TRUE,,,,,,,-SHSN,OVC,1100,,,,,,,MVFR,,,,,,,,,,,,METAR,90.0
EFRO 111920Z AUTO 18005KT 9000 OVC002 M05/M06 Q1019,EFRO,2020-12-11T19:20:00Z,66.57,25.82,-5.0,-6.0,180,5,,5.59,30.088583,,,TRUE,,,,,,,,OVC,200,,,,,,,LIFR,,,,,,,,,,,,METAR,201.0
EFPO 111920Z AUTO 11006KT 9999 OVC008 M02/M03 Q1016,EFPO,2020-12-11T19:20:00Z,61.47,21.8,-2.0,-3.0,110,6,,6.21,30.0,,,TRUE,,,,,,,,OVC,800,,,,,,,IFR,,,,,,,,,,,,METAR,10.0
EFOU 111920Z AUTO 11007KT 9999 OVC009 M06/M07 Q1020,EFOU,2020-12-11T19:20:00Z,64.92,25.37,-6.0,-7.0,110,7,,6.21,30.11811,,,TRUE,,,,,,,,OVC,900,,,,,,,IFR,,,,,,,,,,,,METAR,15.0
EFMA 111920Z AUTO 12008KT 060V150 9999 -SHRA OVC003 03/03 Q1013,EFMA,2020-12-11T19:20:00Z,60.12,19.9,3.0,3.0,120,8,,6.21,29.911417,,,TRUE,,,,,,,-SHRA,OVC,300,,,,,,,LIFR,,,,,,,,,,,,METAR,6.0
EFKU 111920Z AUTO 11007KT 050V160 9999 -SN OVC005 M04/M05 Q1020,EFKU,2020-12-11T19:20:00Z,63.02,27.8,-4.0,-5.0,110,7,,6.21,30.11811,,,TRUE,,,,,,,-SN,OVC,500,,,,,,,IFR,,,,,,,,,,,,METAR,92.0
EFKT 111920Z AUTO 18006KT 9999 OVC004 M04/M04 Q1018,EFKT,2020-12-11T19:20:00Z,67.7,24.85,-4.0,-4.0,180,6,,6.21,30.059055,,,TRUE,,,,,,,,OVC,400,,,,,,,LIFR,,,,,,,,,,,,METAR,190.0
EFKS 111920Z 14004KT 110V180 9999 OVC003 M09/M09 Q1020,EFKS,2020-12-11T19:20:00Z,66.0,29.23,-9.0,-9.0,140,4,,6.21,30.11811,,,,,,,,,,,OVC,300,,,,,,,LIFR,,,,,,,,,,,,METAR,270.0
EFKK 111920Z AUTO 13004KT 100V160 9999 -SHSN SCT012 M05/M08 Q1019,EFKK,2020-12-11T19:20:00Z,63.72,23.13,-5.0,-8.0,130,4,,6.21,30.088583,,,TRUE,,,,,,,-SHSN,SCT,1200,,,,,,,VFR,,,,,,,,,,,,METAR,25.0
EFKI 111920Z AUTO 13003KT 090V160 9999 OVC005 M06/M07 Q1020,EFKI,2020-12-11T19:20:00Z,64.27,27.67,-6.0,-7.0,130,3,,6.21,30.11811,,,TRUE,,,,,,,,OVC,500,,,,,,,IFR,,,,,,,,,,,,METAR,132.0
EFKE 111920Z AUTO 10007KT 9999 OVC012 M05/M07 Q1021,EFKE,2020-12-11T19:20:00Z,65.78,24.57,-5.0,-7.0,100,7,,6.21,30.147638,,,TRUE,,,,,,,,OVC,1200,,,,,,,MVFR,,,,,,,,,,,,METAR,15.0
EFJY 111920Z AUTO 10004KT 9999 OVC006 M06/M07 Q1018,EFJY,2020-12-11T19:20:00Z,62.4,25.68,-6.0,-7.0,100,4,,6.21,30.059055,,,TRUE,,,,,,,,OVC,600,,,,,,,IFR,,,,,,,,,,,,METAR,139.0
EFJO 111920Z AUTO 10005KT 2300 -FZDZSN OVC001 M06/M06 Q1020,EFJO,2020-12-11T19:20:00Z,62.67,29.62,-6.0,-6.0,100,5,,1.43,30.11811,,,TRUE,,,,,,,-FZDZ SN,OVC,100,,,,,,,LIFR,,,,,,,,,,,,METAR,118.0
EFIV 111920Z AUTO 21007KT 9999 OVC031 M02/M03 Q1019,EFIV,2020-12-11T19:20:00Z,68.62,27.42,-2.0,-3.0,210,7,,6.21,30.088583,,,TRUE,,,,,,,,OVC,3100,,,,,,,VFR,,,,,,,,,,,,METAR,145.0
EFHK 111920Z 11005KT 9999 BKN010 M00/M02 Q1017 BECMG BKN008,EFHK,2020-12-11T19:20:00Z,60.32,24.97,0.0,-2.0,110,5,,6.21,30.029528,,,,,,,,,,,BKN,1000,,,,,,,MVFR,,,,,,,,,,,,METAR,56.0
EFHA 111920Z AUTO 10004KT 070V140 9999 -SHSN OVC004 M04/M05 Q1017,EFHA,2020-12-11T19:20:00Z,61.85,24.8,-4.0,-5.0,100,4,,6.21,30.029528,,,TRUE,,,,,,,-SHSN,OVC,400,,,,,,,LIFR,,,,,,,,,,,,METAR,144.0
EFET 111920Z AUTO 19006KT 150V230 5000 -SHSN OVC012 M02/M03 Q1016,EFET,2020-12-11T19:20:00Z,68.37,23.43,-2.0,-3.0,190,6,,3.11,30.0,,,TRUE,,,,,,,-SHSN,OVC,1200,,,,,,,MVFR,,,,,,,,,,,,METAR,300.0
EETU 111920Z AUTO 11005KT 9000 -DZ OVC003/// 00/M00 Q1017,EETU,2020-12-11T19:20:00Z,58.32,26.68,0.0,0.0,110,5,,5.59,30.029528,,,TRUE,,,,,,,-DZ,OVC,300,,,,,,,LIFR,,,,,,,,,,,,METAR,67.0
EETN 111920Z 13006KT 9999 BKN006 OVC030 M01/M02 Q1016 R08/410195 TEMPO -FZDZ,EETN,2020-12-11T19:20:00Z,59.4,24.82,-1.0,-2.0,130,6,,6.21,30.0,,,,,,,,,,,BKN,600,OVC,3000,,,,,IFR,,,,,,,,,,,,METAR,41.0
EEKE 111920Z AUTO 14010KT 9999NDV OVC009 03/02 Q1014,EEKE,2020-12-11T19:20:00Z,58.23,22.52,3.0,2.0,140,10,,,29.940945,,,TRUE,,,,,,,,OVC,900,,,,,,,,,,,,,,,,,,,METAR,4.0
EDXW 111920Z AUTO 13015KT 9999 // OVC011/// 02/01 Q0997,EDXW,2020-12-11T19:20:00Z,54.92,8.33,2.0,1.0,130,15,,6.21,29.438976,,,TRUE,,,,,,,,OVC,1100,,,,,,,MVFR,,,,,,,,,,,,METAR,8.0
EDVE 111920Z 10007KT 9999 FEW019 02/M01 Q0996,EDVE,2020-12-11T19:20:00Z,52.32,10.55,2.0,-1.0,100,7,,6.21,29.409449,,,,,,,,,,,FEW,1900,,,,,,,VFR,,,,,,,,,,,,METAR,83.0
EDTY 111920Z AUTO 14005KT 100V190 9999 // BKN025/// OVC034/// 02/M00 Q0995,EDTY,2020-12-11T19:20:00Z,49.12,9.78,2.0,0.0,140,5,,6.21,29.379921,,,TRUE,,,,,,,,BKN,2500,OVC,3400,,,,,MVFR,,,,,,,,,,,,METAR,398.0
EDSB 111920Z VRB02KT 5000 RA BR OVC033 03/02 Q0995,EDSB,2020-12-11T19:20:00Z,48.78,8.08,3.0,2.0,0,2,,3.11,29.379921,,,,,,,,,,RA BR,OVC,3300,,,,,,,MVFR,,,,,,,,,,,,METAR,122.0
EDNY 111920Z AUTO 36003KT 300V070 9999 // OVC047/// 00/M01 Q0997,EDNY,2020-12-11T19:20:00Z,47.67,9.52,0.0,-1.0,360,3,,6.21,29.438976,,,TRUE,,,,,,,,OVC,4700,,,,,,,VFR,,,,,,,,,,,,METAR,411.0
EDMO 111920Z AUTO 07002KT 6000 // SCT120/// M01/M02 Q0997,EDMO,2020-12-11T19:20:00Z,48.07,11.27,-1.0,-2.0,70,2,,3.73,29.438976,,,TRUE,,,,,,,,SCT,12000,,,,,,,MVFR,,,,,,,,,,,,METAR,587.0
EDMA 111920Z VRB02KT CAVOK M01/M02 Q0998,EDMA,2020-12-11T19:20:00Z,48.42,10.92,-1.0,-2.0,0,2,,6.21,29.468504,,,,,,,,,,,CAVOK,,,,,,,,VFR,,,,,,,,,,,,METAR,462.0
EDLW 111920Z 14007KT 100V160 9999 SCT032 05/01 Q0992,EDLW,2020-12-11T19:20:00Z,51.52,7.62,5.0,1.0,140,7,,6.21,29.291338,,,,,,,,,,,SCT,3200,,,,,,,VFR,,,,,,,,,,,,METAR,122.0
EDLV 111920Z 14009KT 9999 BKN017 04/03 Q0991,EDLV,2020-12-11T19:20:00Z,51.6,6.15,4.0,3.0,140,9,,6.21,29.26181,,,,,,,,,,,BKN,1700,,,,,,,MVFR,,,,,,,,,,,,METAR,27.0
EDLP 111920Z 12009KT 9999 BKN017 03/M01 Q0993,EDLP,2020-12-11T19:20:00Z,51.62,8.62,3.0,-1.0,120,9,,6.21,29.320866,,,,,,,,,,,BKN,1700,,,,,,,MVFR,,,,,,,,,,,,METAR,211.0
EDLN 111920Z 14009KT 120V180 9999 -RA OVC023 04/02 Q0991,EDLN,2020-12-11T19:20:00Z,51.23,6.5,4.0,2.0,140,9,,6.21,29.26181,,,,,,,,,,-RA,OVC,2300,,,,,,,MVFR,,,,,,,,,,,,METAR,38.0
EDJA 111920Z VRB01KT 9999 BKN059 M02/M02 Q0996,EDJA,2020-12-11T19:20:00Z,47.98,10.23,-2.0,-2.0,0,1,,6.21,29.409449,,,,,,,,,,,BKN,5900,,,,,,,VFR,,,,,,,,,,,,METAR,625.0
EDHL 111920Z 11007KT 080V140 9000 OVC009 02/00 Q0999,EDHL,2020-12-11T19:20:00Z,53.8,10.72,2.0,0.0,110,7,,5.59,29.498032,,,,,,,,,,,OVC,900,,,,,,,IFR,,,,,,,,,,,,METAR,13.0
EDHK 111920Z AUTO 12011KT 9999 // OVC009/// 02/00 Q0998,EDHK,2020-12-11T19:20:00Z,54.38,10.15,2.0,0.0,120,11,,6.21,29.468504,,,TRUE,,,,,,,,OVC,900,,,,,,,IFR,,,,,,,,,,,,METAR,24.0
EDHI 111920Z AUTO 11007KT 070V160 7000 // OVC009/// 02/00 Q0997,EDHI,2020-12-11T19:20:00Z,53.53,9.83,2.0,0.0,110,7,,4.35,29.438976,,,TRUE,,,,,,,,OVC,900,,,,,,,IFR,,,,,,,,,,,,METAR,5.0
EDFH 111920Z 15015KT 1500 BR BKN001 01/01 Q0992,EDFH,2020-12-11T19:20:00Z,49.95,7.27,1.0,1.0,150,15,,0.93,29.291338,,,,,,,,,,BR,BKN,100,,,,,,,LIFR,,,,,,,,,,,,METAR,494.0
EDDW 111920Z 12010KT 090V150 9999 SCT037 04/01 Q0995 NOSIG,EDDW,2020-12-11T19:20:00Z,53.03,8.8,4.0,1.0,120,10,,6.21,29.379921,,,,,,TRUE,,,,,SCT,3700,,,,,,,VFR,,,,,,,,,,,,METAR,5.0
EDDV 111920Z 11007KT 9999 BKN049 03/00 Q0996 NOSIG,EDDV,2020-12-11T19:20:00Z,52.47,9.68,3.0,0.0,110,7,,6.21,29.409449,,,,,,TRUE,,,,,BKN,4900,,,,,,,VFR,,,,,,,,,,,,METAR,53.0
EDDS 111920Z 19004KT 150V220 9999 FEW018 OVC028 03/00 Q0995 NOSIG,EDDS,2020-12-11T19:20:00Z,48.68,9.22,3.0,0.0,190,4,,6.21,29.379921,,,,,,TRUE,,,,,FEW,1800,OVC,2800,,,,,MVFR,,,,,,,,,,,,METAR,374.0
EDDR 111920Z 17005KT 140V200 7000 -DZ FEW004 BKN006 04/04 Q0993 TEMPO 4000 BR,EDDR,2020-12-11T19:20:00Z,49.22,7.1,4.0,4.0,170,5,,4.35,29.320866,,,,,,,,,,-DZ,FEW,400,BKN,600,,,,,IFR,,,,,,,,,,,,METAR,317.0
EDDP 111920Z 09007KT 9999 SCT026 00/M00 Q0998 NOSIG,EDDP,2020-12-11T19:20:00Z,51.43,12.23,0.0,0.0,90,7,,6.21,29.468504,,,,,,TRUE,,,,,SCT,2600,,,,,,,VFR,,,,,,,,,,,,METAR,129.0
EDDN 111920Z 12010KT 9999 OVC009 01/M00 Q0998 NOSIG,EDDN,2020-12-11T19:20:00Z,49.5,11.05,1.0,0.0,120,10,,6.21,29.468504,,,,,,TRUE,,,,,OVC,900,,,,,,,IFR,,,,,,,,,,,,METAR,312.0
EDDM 111920Z 11005KT 9999 FEW004 BKN005 OVC006 M00/M01 Q0998 TEMPO OVC004,EDDM,2020-12-11T19:20:00Z,48.35,11.82,0.0,-1.0,110,5,,6.21,29.468504,,,,,,,,,,,FEW,400,BKN,500,OVC,600,,,IFR,,,,,,,,,,,,METAR,445.0
EDDL 111920Z 15016KT 9999 -RA FEW027 BKN034 04/02 Q0991 NOSIG,EDDL,2020-12-11T19:20:00Z,51.3,6.77,4.0,2.0,150,16,,6.21,29.26181,,,,,,TRUE,,,,-RA,FEW,2700,BKN,3400,,,,,VFR,,,,,,,,,,,,METAR,37.0
EDDK 111920Z 13009KT 090V150 9999 -RA SCT015 OVC025 03/02 Q0992 NOSIG,EDDK,2020-12-11T19:20:00Z,50.87,7.15,3.0,2.0,130,9,,6.21,29.291338,,,,,,TRUE,,,,-RA,SCT,1500,OVC,2500,,,,,MVFR,,,,,,,,,,,,METAR,92.0
EDDH 111920Z 11010KT 9999 BKN009 02/00 Q0997 NOSIG,EDDH,2020-12-11T19:20:00Z,53.63,10.0,2.0,0.0,110,10,,6.21,29.438976,,,,,,TRUE,,,,,BKN,900,,,,,,,IFR,,,,,,,,,,,,METAR,8.0
EDDG 111920Z 13007KT 070V180 9999 -RA FEW038 BKN049 04/01 Q0993 NOSIG,EDDG,2020-12-11T19:20:00Z,52.13,7.7,4.0,1.0,130,7,,6.21,29.320866,,,,,,TRUE,,,,-RA,FEW,3800,BKN,4900,,,,,VFR,,,,,,,,,,,,METAR,46.0
EDDF 111920Z 11003KT 080V140 3500 -RADZ FEW008 BKN014 03/02 Q0995 TEMPO 6000 SCT014 BKN020,EDDF,2020-12-11T19:20:00Z,50.05,8.6,3.0,2.0,110,3,,2.17,29.379921,,,,,,,,,,-RA -DZ,FEW,800,BKN,1400,,,,,IFR,,,,,,,,,,,,METAR,113.0
EDDE 111920Z 17007KT CAVOK 01/M01 Q0996 NOSIG,EDDE,2020-12-11T19:20:00Z,50.98,10.97,1.0,-1.0,170,7,,6.21,29.409449,,,,,,TRUE,,,,,CAVOK,,,,,,,,VFR,,,,,,,,,,,,METAR,314.0
EDDC 111920Z 15013KT 110V170 9999 OVC018 03/M00 Q0999 NOSIG,EDDC,2020-12-11T19:20:00Z,51.13,13.75,3.0,0.0,150,13,,6.21,29.498032,,,,,,TRUE,,,,,OVC,1800,,,,,,,MVFR,,,,,,,,,,,,METAR,227.0
EDDB 111920Z 10010KT 5000 BR BKN005 00/M01 Q1001 TEMPO 4500 BR BKN004,EDDB,2020-12-11T19:20:00Z,52.38,13.53,0.0,-1.0,100,10,,3.11,29.557087,,,,,,,,,,BR,BKN,500,,,,,,,IFR,,,,,,,,,,,,METAR,48.0
EDAC 111920Z AUTO 11003KT 070V140 8000 // FEW150/// BKN180/// M01/M01 Q0997,EDAC,2020-12-11T19:20:00Z,50.98,12.5,-1.0,-1.0,110,3,,4.97,29.438976,,,TRUE,,,,,,,,FEW,15000,BKN,18000,,,,,MVFR,,,,,,,,,,,,METAR,193.0
EBOS 111920Z 18005KT 4500 BR FEW004 BKN012 08/07 Q0988 NOSIG,EBOS,2020-12-11T19:20:00Z,51.2,2.87,8.0,7.0,180,5,,2.8,29.17323,,,,,,TRUE,,,,BR,FEW,400,BKN,1200,,,,,IFR,,,,,,,,,,,,METAR,5.0
EBLG 111920Z 17010KT 9999 SCT010 BKN023 05/04 Q0990 TEMPO 4000 -RADZ SCT006 BKN009,EBLG,2020-12-11T19:20:00Z,50.63,5.45,5.0,4.0,170,10,,6.21,29.232283,,,,,,,,,,,SCT,1000,BKN,2300,,,,,MVFR,,,,,,,,,,,,METAR,187.0
EBCI 111920Z 18008KT 7000 -DZ FEW004 BKN006 BKN008 07/06 Q0989 TEMPO 3000 -DZRA BR BKN004,EBCI,2020-12-11T19:20:00Z,50.47,4.45,7.0,6.0,180,8,,4.35,29.202755,,,,,,,,,,-DZ,FEW,400,BKN,600,BKN,800,,,IFR,,,,,,,,,,,,METAR,176.0
EBBR 111920Z 18009KT 9999 -SHRA SCT021 BKN042 06/05 Q0989 NOSIG,EBBR,2020-12-11T19:20:00Z,50.9,4.52,6.0,5.0,180,9,,6.21,29.202755,,,,,,TRUE,,,,-SHRA,SCT,2100,BKN,4200,,,,,VFR,,,,,,,,,,,,METAR,49.0
EBAW 111920Z 13004KT 4000 -DZ BR BKN004 06/05 Q0989 NOSIG,EBAW,2020-12-11T19:20:00Z,51.2,4.47,6.0,5.0,130,4,,2.49,29.202755,,,,,,TRUE,,,,-DZ BR,BKN,400,,,,,,,LIFR,,,,,,,,,,,,METAR,7.0
CWZQ 111920Z AUTO 27013KT 01/M01 RMK AO1 T00081013,CWZQ,2020-12-11T19:20:00Z,46.53,-61.05,0.8,-1.3,270,13,,,,,,TRUE,TRUE,,,,,,,,,,,,,,,,,,,,,,,,,,,METAR,13.0
KTTF 111919Z AUTO 05004KT 10SM CLR 11/03 A2992 RMK AO2 T01070033,KTTF,2020-12-11T19:19:00Z,41.93,-83.42,10.7,3.3,50,4,,10.0,29.920275,,,TRUE,TRUE,,,,,,,CLR,,,,,,,,VFR,,,,,,,,,,,,SPECI,186.0
KSSF 111919Z 00000KT 10SM FEW019 22/17 A2982 RMK AO2 T02170167,KSSF,2020-12-11T19:19:00Z,29.33,-98.47,21.7,16.7,0,0,,10.0,29.819881,,,,TRUE,,,,,,,FEW,1900,,,,,,,VFR,,,,,,,,,,,,METAR,175.0
KIML 111919Z AUTO 35014KT 10SM BKN016 OVC070 01/M03 A2991 RMK AO2 T00061028,KIML,2020-12-11T19:19:00Z,40.52,-101.62,0.6,-2.8,350,14,,10.0,29.911417,,,TRUE,TRUE,,,,,,,BKN,1600,OVC,7000,,,,,MVFR,,,,,,,,,,,,METAR,997.0
KICR 111919Z AUTO 01010KT 10SM OVC010 M01/M05 A3005 RMK AO2 T10111050,KICR,2020-12-11T19:19:00Z,43.38,-99.85,-1.1,-5.0,10,10,,10.0,30.050198,,,TRUE,TRUE,,,,,,,OVC,1000,,,,,,,MVFR,,,,,,,,,,,,METAR,618.0
KGXY 111919Z AUTO 06005KT 2SM -SN FEW007 BKN019 OVC027 M03/M06 A2995 RMK AO2 UPE01SNB01 P0000 FZRANO,KGXY,2020-12-11T19:19:00Z,40.43,-104.62,-3.0,-6.0,60,5,,2.0,29.949802,,,TRUE,TRUE,,,,TRUE,,-SN,FEW,700,BKN,1900,OVC,2700,,,IFR,,,,,,0.005,,,,,,METAR,1420.0
K33V 111919Z AUTO 34013KT 10SM SCT022 BKN029 BKN045 M03/M07 A2979 RMK AO1,K33V,2020-12-11T19:19:00Z,40.75,-106.28,-3.0,-7.0,340,13,,10.0,29.790354,,,TRUE,TRUE,,,,,,,SCT,2200,BKN,2900,BKN,4500,,,MVFR,,,,,,,,,,,,SPECI,2486.0
CYED 111919Z AUTO 17006KT 5/8SM OVC002 M09/M10 A3014,CYED,2020-12-11T19:19:00Z,53.67,-113.47,-9.0,-10.0,170,6,,0.63,30.138779,,,TRUE,,,,,,,,OVC,200,,,,,,,LIFR,,,,,,,,,,,,SPECI,688.0
KLIC 111918Z AUTO 35012KT 2SM -SN FEW010 BKN030 OVC038 M04/M07 A2986 RMK AO2 P0001 T10441072,KLIC,2020-12-11T19:18:00Z,39.27,-103.67,-4.4,-7.2,350,12,,2.0,29.861221,,,TRUE,TRUE,,,,,,-SN,FEW,1000,BKN,3000,OVC,3800,,,IFR,,,,,,0.01,,,,,,METAR,1635.0
KJES 111918Z AUTO 00000KT 10SM CLR 22/07 A3014 RMK AO2,KJES,2020-12-11T19:18:00Z,31.55,-81.88,22.0,7.0,0,0,,10.0,30.138779,,,TRUE,TRUE,,,,,,,CLR,,,,,,,,VFR,,,,,,,,,,,,SPECI,26.0
KHZR 111918Z AUTO 19012G18KT 10SM BKN060 23/12 A3000 RMK AO2,KHZR,2020-12-11T19:18:00Z,30.72,-91.48,23.0,12.0,190,12,18,10.0,30.0,,,TRUE,TRUE,,,,,,,BKN,6000,,,,,,,VFR,,,,,,,,,,,,METAR,11.0
KGLR 111918Z AUTO 02006KT 10SM OVC014 03/M01 A3002 RMK AO2 T00331011,KGLR,2020-12-11T19:18:00Z,45.02,-84.68,3.3,-1.1,20,6,,10.0,30.02067,,,TRUE,TRUE,,,,,,,OVC,1400,,,,,,,MVFR,,,,,,,,,,,,METAR,403.0
KBGD 111918Z AUTO 36007KT 10SM BKN026 OVC050 07/M02 A2987 RMK AO2 T00671022,KBGD,2020-12-11T19:18:00Z,35.7,-101.4,6.7,-2.2,360,7,,10.0,29.870079,,,TRUE,TRUE,,,,,,,BKN,2600,OVC,5000,,,,,MVFR,,,,,,,,,,,,METAR,928.0
CYQD 111918Z AUTO 01004KT 350V060 9SM -SN BKN018 M12/M14 A3023 RMK SLP265,CYQD,2020-12-11T19:18:00Z,53.97,-101.08,-12.0,-14.0,10,4,,9.0,30.230314,1026.5,,TRUE,,,,,,,-SN,BKN,1800,,,,,,,MVFR,,,,,,,,,,,,SPECI,268.0
LIPC 111917Z 17002KT 1800 BR NSC 05/03 Q1003 RMK SCT SCT150 VIS MIN 1800 WIND THR11 19002KT WIND THR29 /////KT YLO,LIPC,2020-12-11T19:17:00Z,44.22,12.3,5.0,3.0,170,2,,1.12,29.616142,,,,,,,,,,BR,CLR,,,,,,,,IFR,,,,,,,,,,,,SPECI,10.0
KTRL 111917Z AUTO 17006KT 5SM -RA BR OVC004 16/16 A2981 RMK AO2 PRESFR P0002 T01610161,KTRL,2020-12-11T19:17:00Z,32.72,-96.27,16.1,16.1,170,6,,5.0,29.811024,,,TRUE,TRUE,,,,,,-RA BR,OVC,400,,,,,,,LIFR,,,,,,0.02,,,,,,METAR,144.0
KMMH 111917Z AUTO 27021G28KT 10SM CLR 09/M25 A3007 RMK AO2,KMMH,2020-12-11T19:17:00Z,37.62,-118.83,9.0,-25.0,270,21,28,10.0,30.070866,,,TRUE,TRUE,,,,,,,CLR,,,,,,,,VFR,,,,,,,,,,,,SPECI,2167.0
KMBG 111917Z AUTO 05005KT 4SM BR OVC003 M04/M07 A3010 RMK AO2 T10441067,KMBG,2020-12-11T19:17:00Z,45.55,-100.42,-4.4,-6.7,50,5,,4.0,30.100393,,,TRUE,TRUE,,,,,,BR,OVC,300,,,,,,,LIFR,,,,,,,,,,,,METAR,515.0
KHLC 111917Z AUTO 35012KT 5SM BR OVC009 01/M01 A2988 RMK AO2 T00061011,KHLC,2020-12-11T19:17:00Z,39.37,-99.83,0.6,-1.1,350,12,,5.0,29.878937,,,TRUE,TRUE,,,,,,BR,OVC,900,,,,,,,IFR,,,,,,,,,,,,METAR,667.0
KDGW 111917Z AUTO 12014KT 3SM -SN SCT013 BKN032 OVC049 M03/M07 A2993 RMK AO2 P0000 T10331067,KDGW,2020-12-11T19:17:00Z,42.8,-105.38,-3.3,-6.7,120,14,,3.0,29.929134,,,TRUE,TRUE,,,,,,-SN,SCT,1300,BKN,3200,OVC,4900,,,MVFR,,,,,,0.005,,,,,,METAR,1503.0
CZFA 111917Z 36003KT 310V020 30SM FEW031 BKN044 M10/M12 A2998 RMK SC1SC6 SLP214,CZFA,2020-12-11T19:17:00Z,62.2,-133.38,-10.0,-12.0,360,3,,30.0,29.97933,1021.4,,,,,,,,,,FEW,3100,BKN,4400,,,,,VFR,,,,,,,,,,,,SPECI,702.0
CYXY 111917Z 00000KT 40SM FEW007 BKN025 BKN200 M12/M13 A3004 RMK SF2SC4CI1 SLP233,CYXY,2020-12-11T19:17:00Z,60.72,-135.07,-12.0,-13.0,0,0,,40.0,30.041338,1023.3,,,,,,,,,,FEW,700,BKN,2500,BKN,20000,,,MVFR,,,,,,,,,,,,SPECI,677.0
KYKM 111916Z 00000KT 7SM SCT013 BKN120 02/M01 A3006 RMK AO2 T00171006,KYKM,2020-12-11T19:16:00Z,46.57,-120.53,1.7,-0.6,0,0,,7.0,30.059055,,,,TRUE,,,,,,,SCT,1300,BKN,12000,,,,,VFR,,,,,,,,,,,,METAR,319.0
KRND 111916Z AUTO 17005KT 10SM SCT014 21/17 A2983 RMK AO2 SLP097 $,KRND,2020-12-11T19:16:00Z,29.53,-98.27,21.0,17.0,170,5,,10.0,29.828741,1009.7,,TRUE,TRUE,TRUE,,,,,,SCT,1400,,,,,,,VFR,,,,,,,,,,,,METAR,224.0
KPKD 111916Z AUTO 06006KT 10SM OVC005 M03/M06 A3012 RMK AO2 T10331056,KPKD,2020-12-11T19:16:00Z,46.9,-95.07,-3.3,-5.6,60,6,,10.0,30.121063,,,TRUE,TRUE,,,,,,,OVC,500,,,,,,,IFR,,,,,,,,,,,,METAR,439.0
KNY0 111916Z AUTO 14003KT 10SM CLR 07/00 A3001 RMK AO2,KNY0,2020-12-11T19:16:00Z,42.98,-74.33,7.0,0.0,140,3,,10.0,30.008858,,,TRUE,TRUE,,,,,,,CLR,,,,,,,,VFR,,,,,,,,,,,,METAR,266.0
KIKK 111916Z AUTO 02013KT 7SM OVC012 08/06 A2989 RMK AO2,KIKK,2020-12-11T19:16:00Z,41.07,-87.85,8.0,6.0,20,13,,7.0,29.890747,,,TRUE,TRUE,,,,,,,OVC,1200,,,,,,,MVFR,,,,,,,,,,,,SPECI,188.0
KCUL 111916Z AUTO 19014G20KT 10SM SCT034 18/11 A2988 RMK AO2,KCUL,2020-12-11T19:16:00Z,38.08,-88.12,18.0,11.0,190,14,20,10.0,29.878937,,,TRUE,TRUE,,,,,,,SCT,3400,,,,,,,VFR,,,,,,,,,,,,METAR,116.0
K40B 111916Z AUTO VRB03KT 00/M04 A2998 RMK AO1 SLP179 T00011037 55012 P0001,K40B,2020-12-11T19:16:00Z,46.62,-69.52,0.1,-3.7,0,3,,,29.97933,1017.9,,TRUE,TRUE,,,,,,,,,,,,,,,,-1.2,,,,,0.01,,,,,,METAR,344.0
PAMB 111915Z AUTO 03020G28KT 7SM OVC013 M09/M13 A2978 RMK AO2 PK WND 04028/1909 FZRANO $,PAMB,2020-12-11T19:15:00Z,58.98,-159.05,-9.0,-13.0,30,20,28,7.0,29.778543,,,TRUE,TRUE,TRUE,,,TRUE,,,OVC,1300,,,,,,,MVFR,,,,,,,,,,,,METAR,28.0
LMML 111915Z 30015KT 9999 FEW030 15/09 Q1005 NOSIG,LMML,2020-12-11T19:15:00Z,35.85,14.47,15.0,9.0,300,15,,6.21,29.675198,,,,,,TRUE,,,,,FEW,3000,,,,,,,VFR,,,,,,,,,,,,METAR,78.0
LIRP 111915Z 13004KT 9999 FEW050 BKN080 07/06 Q1003 NOSIG,LIRP,2020-12-11T19:15:00Z,43.68,10.38,7.0,6.0,130,4,,6.21,29.616142,,,,,,TRUE,,,,,FEW,5000,BKN,8000,,,,,VFR,,,,,,,,,,,,METAR,1.0
LHSN 111915Z 14002KT 9999 OVC012 03/02 Q1007 NOSIG RMK GRN,LHSN,2020-12-11T19:15:00Z,47.12,20.23,3.0,2.0,140,2,,6.21,29.734253,,,,,,TRUE,,,,,OVC,1200,,,,,,,MVFR,,,,,,,,,,,,METAR,89.0
LHSM 111915Z AUTO 16006KT 5000 -SHRA BR OVC004 03/03 Q1005,LHSM,2020-12-11T19:15:00Z,46.68,17.17,3.0,3.0,160,6,,3.11,29.675198,,,TRUE,,,,,,,-SHRA BR,OVC,400,,,,,,,LIFR,,,,,,,,,,,,METAR,119.0
LHPR 111915Z AUTO 15009KT 8000 OVC005 02/01 Q1005,LHPR,2020-12-11T19:15:00Z,47.63,17.82,2.0,1.0,150,9,,4.97,29.675198,,,TRUE,,,,,,,,OVC,500,,,,,,,IFR,,,,,,,,,,,,METAR,127.0
LHPP 111915Z 14007KT 3000 -DZ BR OVC005 02/02 Q1005,LHPP,2020-12-11T19:15:00Z,45.98,18.23,2.0,2.0,140,7,,1.86,29.675198,,,,,,,,,,-DZ BR,OVC,500,,,,,,,IFR,,,,,,,,,,,,METAR,193.0
LHPA 111915Z 14008KT 8000 OVC010 02/01 Q1005 NOSIG RMK GRN,LHPA,2020-12-11T19:15:00Z,47.35,17.5,2.0,1.0,140,8,,4.97,29.675198,,,,,,TRUE,,,,,OVC,1000,,,,,,,MVFR,,,,,,,,,,,,METAR,143.0
LHKE 111915Z 13006KT 5000 BR OVC004 02/02 Q1007 R12/01//95 BECMG 3000 RMK YLO,LHKE,2020-12-11T19:15:00Z,46.92,19.75,2.0,2.0,130,6,,3.11,29.734253,,,,,,,,,,BR,OVC,400,,,,,,,LIFR,,,,,,,,,,,,METAR,113.0
LHDC 111915Z AUTO VRB01KT 3000 BR OVC003 02/02 Q1007,LHDC,2020-12-11T19:15:00Z,47.48,21.62,2.0,2.0,0,1,,1.86,29.734253,,,TRUE,,,,,,,BR,OVC,300,,,,,,,LIFR,,,,,,,,,,,,SPECI,105.0
KW63 111915Z AUTO 17/07 RMK AO1 PNO,KW63,2020-12-11T19:15:00Z,36.6,-78.55,17.0,7.0,,,,,,,,TRUE,TRUE,,,,,,,,,,,,,,,,,,,,,,,,,,,SPECI,126.0
KVHN 111915Z AUTO 27017G26KT 10SM CLR 15/02 A3002 RMK AO2 T01540015,KVHN,2020-12-11T19:15:00Z,31.07,-104.78,15.4,1.5,270,17,26,10.0,30.02067,,,TRUE,TRUE,,,,,,,CLR,,,,,,,,VFR,,,,,,,,,,,,METAR,1200.0
KUYF 111915Z AUTO 20010KT 10SM CLR 17/02 A2995 RMK AO2,KUYF,2020-12-11T19:15:00Z,39.93,-83.47,17.0,2.0,200,10,,10.0,29.949802,,,TRUE,TRUE,,,,,,,CLR,,,,,,,,VFR,,,,,,,,,,,,SPECI,326.0
KUKF 111915Z AUTO 00000KT 10SM CLR 16/03 A3017 RMK AO2,KUKF,2020-12-11T19:15:00Z,36.22,-81.1,16.0,3.0,0,0,,10.0,30.171259,,,TRUE,TRUE,,,,,,,CLR,,,,,,,,VFR,,,,,,,,,,,,SPECI,383.0
KTVK 111915Z AUTO 1 1/4SM -RA OVC003 04/04 A2980 RMK AO2 P0001,KTVK,2020-12-11T19:15:00Z,40.68,-92.9,4.0,4.0,,,,1.25,29.799213,,,TRUE,TRUE,,,,,,-RA,OVC,300,,,,,,,LIFR,,,,,,0.01,,,,,,METAR,311.0
KTMT 111915Z AUTO 00000KT 10SM 02/M09 A3007 RMK AO2 T00221094,KTMT,2020-12-11T19:15:00Z,39.47,-117.2,2.2,-9.4,0,0,,10.0,30.070866,,,TRUE,TRUE,,,,,,,,,,,,,,,,,,,,,,,,,,,METAR,1748.0
KSZT 111915Z AUTO 02003KT 10SM BKN040 OVC060 00/M02 A3004 RMK AO2,KSZT,2020-12-11T19:15:00Z,48.3,-116.57,0.0,-2.0,20,3,,10.0,30.041338,,,TRUE,TRUE,,,,,,,BKN,4000,OVC,6000,,,,,VFR,,,,,,,,,,,,METAR,649.0
KRPH 111915Z AUTO 30006KT 10SM SCT021 13/06 A2984 RMK AO2 T01290063,KRPH,2020-12-11T19:15:00Z,33.12,-98.55,12.9,6.3,300,6,,10.0,29.840551,,,TRUE,TRUE,,,,,,,SCT,2100,,,,,,,VFR,,,,,,,,,,,,SPECI,341.0
KRCE 111915Z AUTO 34012KT 10SM SCT023 SCT110 08/01 A2984 RMK AO2,KRCE,2020-12-11T19:15:00Z,35.48,-97.82,8.0,1.0,340,12,,10.0,29.840551,,,TRUE,TRUE,,,,,,,SCT,2300,SCT,11000,,,,,VFR,,,,,,,,,,,,METAR,412.0
KRBW 111915Z AUTO 20005KT 10SM CLR 20/07 A3015 RMK AO2,KRBW,2020-12-11T19:15:00Z,32.92,-80.63,20.0,7.0,200,5,,10.0,30.15059,,,TRUE,TRUE,,,,,,,CLR,,,,,,,,VFR,,,,,,,,,,,,SPECI,30.0
KPEQ 111915Z AUTO 27021G26KT 10SM CLR 19/01 A2991 RMK AO2 T01890014 PWINO,KPEQ,2020-12-11T19:15:00Z,31.38,-103.52,18.9,1.4,270,21,26,10.0,29.911417,,,TRUE,TRUE,,,,,TRUE,,CLR,,,,,,,,VFR,,,,,,,,,,,,METAR,794.0
KOWX 111915Z AUTO 21009KT 10SM CLR 15/03 A2992 RMK AO1,KOWX,2020-12-11T19:15:00Z,41.03,-83.98,15.0,3.0,210,9,,10.0,29.920275,,,TRUE,TRUE,,,,,,,CLR,,,,,,,,VFR,,,,,,,,,,,,SPECI,232.0
KMYP 111915Z AUTO 26027G35KT OVC001 M11/M12 A2983 RMK AO2 PWINO,KMYP,2020-12-11T19:15:00Z,38.48,-106.32,-11.0,-12.0,260,27,35,,29.828741,,,TRUE,TRUE,,,,,TRUE,,OVC,100,,,,,,,,,,,,,,,,,,,METAR,3629.0
KMPZ 111915Z AUTO 08006KT 2SM RA SCT006 OVC011 05/04 A2986 RMK AO2,KMPZ,2020-12-11T19:15:00Z,40.95,-91.52,5.0,4.0,80,6,,2.0,29.861221,,,TRUE,TRUE,,,,,,RA,SCT,600,OVC,1100,,,,,IFR,,,,,,,,,,,,SPECI,222.0
KMDS 111915Z AUTO 04015G21KT 10SM CLR 00/M03 A3003 RMK AO2,KMDS,2020-12-11T19:15:00Z,44.02,-97.08,0.0,-3.0,40,15,21,10.0,30.029528,,,TRUE,TRUE,,,,,,,CLR,,,,,,,,VFR,,,,,,,,,,,,METAR,524.0
KLZZ 111915Z AUTO 23005KT 10SM CLR 19/17 A2984 RMK AO2 T01860171,KLZZ,2020-12-11T19:15:00Z,31.1,-98.2,18.6,17.1,230,5,,10.0,29.840551,,,TRUE,TRUE,,,,,,,CLR,,,,,,,,VFR,,,,,,,,,,,,SPECI,356.0
KLCQ 111915Z AUTO 00000KT 10SM CLR 20/07 A3013 RMK AO2,KLCQ,2020-12-11T19:15:00Z,30.18,-82.58,20.0,7.0,0,0,,10.0,30.129921,,,TRUE,TRUE,,,,,,,CLR,,,,,,,,VFR,,,,,,,,,,,,SPECI,59.0
KIBM 111915Z AUTO 02005KT 4SM -SN SCT013 BKN030 OVC042 M03/M06 A2993 RMK AO2 T10261058,KIBM,2020-12-11T19:15:00Z,41.18,-103.68,-2.6,-5.8,20,5,,4.0,29.929134,,,TRUE,TRUE,,,,,,-SN,SCT,1300,BKN,3000,OVC,4200,,,MVFR,,,,,,,,,,,,METAR,1494.0
KHOE 111915Z AUTO 00000KT 10SM CLR 20/06 A3014 RMK AO2,KHOE,2020-12-11T19:15:00Z,31.05,-82.78,20.0,6.0,0,0,,10.0,30.138779,,,TRUE,TRUE,,,,,,,CLR,,,,,,,,VFR,,,,,,,,,,,,SPECI,56.0
KGLE 111915Z AUTO 29009G14KT 10SM BKN015 OVC021 15/12 A2984 RMK AO2 T01460117,KGLE,2020-12-11T19:15:00Z,33.65,-97.2,14.6,11.7,290,9,14,10.0,29.840551,,,TRUE,TRUE,,,,,,,BKN,1500,OVC,2100,,,,,MVFR,,,,,,,,,,,,SPECI,250.0
KFYG 111915Z AUTO 11007KT 5SM BR CLR 12/10 A2977 RMK AO2,KFYG,2020-12-11T19:15:00Z,38.58,-91.0,12.0,10.0,110,7,,5.0,29.769686,,,TRUE,TRUE,,,,,,BR,CLR,,,,,,,,MVFR,,,,,,,,,,,,METAR,147.0
KEHO 111915Z AUTO 18006KT 10SM CLR 17/06 A3013 RMK AO2 T01650062,KEHO,2020-12-11T19:15:00Z,35.25,-81.6,16.5,6.2,180,6,,10.0,30.129921,,,TRUE,TRUE,,,,,,,CLR,,,,,,,,VFR,,,,,,,,,,,,METAR,261.0
KEDJ 111915Z AUTO 22008KT 10SM CLR 15/04 A2994 RMK AO1,KEDJ,2020-12-11T19:15:00Z,40.37,-83.82,15.0,4.0,220,8,,10.0,29.940945,,,TRUE,TRUE,,,,,,,CLR,,,,,,,,VFR,,,,,,,,,,,,SPECI,341.0
KEBS 111915Z AUTO 05019G26KT 10SM OVC016 04/01 A2988 RMK AO2,KEBS,2020-12-11T19:15:00Z,42.43,-93.87,4.0,1.0,50,19,26,10.0,29.878937,,,TRUE,TRUE,,,,,,,OVC,1600,,,,,,,MVFR,,,,,,,,,,,,METAR,340.0
KDWX 111915Z AUTO 17010KT 10SM SCT020 SCT027 OVC060 M03/M07 A2990 RMK AO2 T10261072,KDWX,2020-12-11T19:15:00Z,41.03,-107.5,-2.6,-7.2,170,10,,10.0,29.899607,,,TRUE,TRUE,,,,,,,SCT,2000,SCT,2700,OVC,6000,,,VFR,,,,,,,,,,,,SPECI,1974.0
KDPL 111915Z AUTO 18005KT 10SM CLR 21/13 A3014 RMK AO2,KDPL,2020-12-11T19:15:00Z,35.0,-77.97,21.0,13.0,180,5,,10.0,30.138779,,,TRUE,TRUE,,,,,,,CLR,,,,,,,,VFR,,,,,,,,,,,,METAR,39.0
KDLN 111915Z AUTO 00000KT 10SM SCT024 OVC085 M07/M09 A2989 RMK AO2 SNE1854 P0000 T10671089,KDLN,2020-12-11T19:15:00Z,45.25,-112.55,-6.7,-8.9,0,0,,10.0,29.890747,,,TRUE,TRUE,,,,,,,SCT,2400,OVC,8500,,,,,VFR,,,,,,0.005,,,,,,METAR,1586.0
KBWD 111915Z AUTO 26011G17KT 10SM SCT043 22/10 A2984 RMK AO1,KBWD,2020-12-11T19:15:00Z,31.8,-98.95,22.0,10.0,260,11,17,10.0,29.840551,,,TRUE,TRUE,,,,,,,SCT,4300,,,,,,,VFR,,,,,,,,,,,,SPECI,420.0
KAZE 111915Z AUTO 23007KT 10SM CLR 21/07 A3012 RMK AO2 T02060074,KAZE,2020-12-11T19:15:00Z,31.88,-82.65,20.6,7.4,230,7,,10.0,30.121063,,,TRUE,TRUE,,,,,,,CLR,,,,,,,,VFR,,,,,,,,,,,,SPECI,78.0
CYKJ 111915Z AUTO 00000KT 9SM -SN OVC006 M11/M12 A3016 RMK SLP264,CYKJ,2020-12-11T19:15:00Z,57.25,-105.62,-11.0,-12.0,0,0,,9.0,30.159449,1026.4,,TRUE,,,,,,,-SN,OVC,600,,,,,,,IFR,,,,,,,,,,,,SPECI,519.0
CYAY 111915Z AUTO 26009KT 9SM BKN007 OVC120 00/M01 A2985 RMK SLP109,CYAY,2020-12-11T19:15:00Z,51.38,-56.07,0.0,-1.0,260,9,,9.0,29.84941,1010.9,,TRUE,,,,,,,,BKN,700,OVC,12000,,,,,IFR,,,,,,,,,,,,SPECI,23.0
RKJB 111914Z AUTO 35004KT 3000 BR NCD 06/06 Q1019,RKJB,2020-12-11T19:14:00Z,34.98,126.38,6.0,6.0,350,4,,1.86,30.088583,,,TRUE,,,,,,,BR,CLR,,,,,,,,IFR,,,,,,,,,,,,SPECI,16.0
PPIZ 111914Z AUTO 05010KT 10SM OVC031 M22/M24 A3056 RMK AO2 FZRANO,PPIZ,2020-12-11T19:14:00Z,69.73,-163.0,-22.0,-24.0,50,10,,10.0,30.561024,,,TRUE,TRUE,,,,TRUE,,,OVC,3100,,,,,,,VFR,,,,,,,,,,,,SPECI,5.0
KTWF 111914Z 26013KT 10SM BKN025 OVC035 M01/M06 A3003 RMK AO2 T10061061,KTWF,2020-12-11T19:14:00Z,42.48,-114.48,-0.6,-6.1,260,13,,10.0,30.029528,,,,TRUE,,,,,,,BKN,2500,OVC,3500,,,,,MVFR,,,,,,,,,,,,METAR,1269.0
KCPR 111914Z 09007KT 1 1/2SM -SN SCT010 OVC015 M04/M07 A2988 RMK AO2 P0000 T10441072,KCPR,2020-12-11T19:14:00Z,42.9,-106.47,-4.4,-7.2,90,7,,1.5,29.878937,,,,TRUE,,,,,,-SN,SCT,1000,OVC,1500,,,,,IFR,,,,,,0.005,,,,,,METAR,1623.0
KBRD 111914Z AUTO 02008KT 10SM OVC010 M01/M04 A3013 RMK AO2 T10111044,KBRD,2020-12-11T19:14:00Z,46.4,-94.13,-1.1,-4.4,20,8,,10.0,30.129921,,,TRUE,TRUE,,,,,,,OVC,1000,,,,,,,MVFR,,,,,,,,,,,,METAR,372.0
CYZH 111914Z AUTO 09008KT 9SM BKN014 M05/M08 A3010 RMK SLP235,CYZH,2020-12-11T19:14:00Z,55.28,-114.77,-5.0,-8.0,90,8,,9.0,30.100393,1023.5,,TRUE,,,,,,,,BKN,1400,,,,,,,MVFR,,,,,,,,,,,,SPECI,583.0
PAGN 111913Z AUTO 00000KT 10SM SCT013 OVC075 01/00 A3012 RMK AO2 FZRANO,PAGN,2020-12-11T19:13:00Z,57.5,-134.58,1.0,0.0,0,0,,10.0,30.121063,,,TRUE,TRUE,,,,TRUE,,,SCT,1300,OVC,7500,,,,,VFR,,,,,,,,,,,,SPECI,2.0
KMUO 111913Z AUTO 33004KT 10SM FEW060 02/M01 A3007 RMK AO2 SLP209 $,KMUO,2020-12-11T19:13:00Z,43.03,-115.87,2.0,-1.0,330,4,,10.0,30.070866,1020.9,,TRUE,TRUE,TRUE,,,,,,FEW,6000,,,,,,,VFR,,,,,,,,,,,,SPECI,915.0
KMIC 111913Z 05010KT 10SM SCT018 02/M03 A3009 RMK AO2 T00171033,KMIC,2020-12-11T19:13:00Z,45.07,-93.35,1.7,-3.3,50,10,,10.0,30.088583,,,,TRUE,,,,,,,SCT,1800,,,,,,,VFR,,,,,,,,,,,,SPECI,263.0
KMCI 111913Z 01004KT 9SM OVC016 07/04 A2974 RMK AO2 T00720044,KMCI,2020-12-11T19:13:00Z,39.3,-94.73,7.2,4.4,10,4,,9.0,29.740158,,,,TRUE,,,,,,,OVC,1600,,,,,,,MVFR,,,,,,,,,,,,SPECI,308.0
KFYV 111913Z 20011KT 10SM -RA BKN014 BKN030 OVC090 14/13 A2979 RMK AO2 RAB1856 P0000 T01440128,KFYV,2020-12-11T19:13:00Z,36.02,-94.17,14.4,12.8,200,11,,10.0,29.790354,,,,TRUE,,,,,,-RA,BKN,1400,BKN,3000,OVC,9000,,,MVFR,,,,,,0.005,,,,,,SPECI,377.0
KFTK 111913Z AUTO 19015G16KT 10SM FEW210 19/06 A2996 RMK AO2 PRESFR SLP147,KFTK,2020-12-11T19:13:00Z,37.9,-85.97,19.0,6.0,190,15,16,10.0,29.958662,1014.7,,TRUE,TRUE,,,,,,,FEW,21000,,,,,,,VFR,,,,,,,,,,,,METAR,225.0
KFHU 111913Z AUTO 30007KT 10SM CLR 13/M03 A3011 RMK AO2 PRESFR SLP170,KFHU,2020-12-11T19:13:00Z,31.58,-110.35,13.0,-3.0,300,7,,10.0,30.109253,1017.0,,TRUE,TRUE,,,,,,,CLR,,,,,,,,VFR,,,,,,,,,,,,METAR,1424.0
CYZR 111913Z AUTO 01009KT 6SM BR OVC010 06/05 A2996 RMK SLP155,CYZR,2020-12-11T19:13:00Z,43.0,-82.3,6.0,5.0,10,9,,6.0,29.958662,1015.5,,TRUE,,,,,,,BR,OVC,1000,,,,,,,MVFR,,,,,,,,,,,,SPECI,181.0
KHLR 111912Z AUTO 17006KT 10SM BKN003 18/17 A2984 RMK AO2 CIG 003V280 BKN V SCT SLP098,KHLR,2020-12-11T19:12:00Z,31.13,-97.72,18.0,17.0,170,6,,10.0,29.840551,1009.8,,TRUE,TRUE,,,,,,,BKN,300,,,,,,,LIFR,,,,,,,,,,,,SPECI,271.0
KC99 111912Z AUTO 30013G21KT 3SM SCT008 BKN011 OVC037 M09/M11 A2973 RMK AO2,KC99,2020-12-11T19:12:00Z,39.87,-105.55,-9.0,-11.0,300,13,21,3.0,29.731298,,,TRUE,TRUE,,,,,,,SCT,800,BKN,1100,OVC,3700,,,MVFR,,,,,,,,,,,,SPECI,3334.0
KBYI 111912Z AUTO 26017G27KT 10SM UP SCT022 OVC033 01/M06 A3000 RMK AO2 PK WND 26027/1910 P0000 T00061061,KBYI,2020-12-11T19:12:00Z,42.55,-113.77,0.6,-6.1,260,17,27,10.0,30.0,,,TRUE,TRUE,,,,,,UP,SCT,2200,OVC,3300,,,,,VFR,,,,,,0.005,,,,,,SPECI,1263.0
PFCL 111911Z AUTO 03021G27KT 10SM BKN009 M09/M11 A2978 RMK AO2 PK WND 03027/1905 FZRANO TSNO,PFCL,2020-12-11T19:11:00Z,58.83,-158.53,-9.0,-11.0,30,21,27,10.0,29.778543,,,TRUE,TRUE,,,TRUE,TRUE,,,BKN,900,,,,,,,IFR,,,,,,,,,,,,METAR,23.0
KRTN 111911Z AUTO 19009KT 10SM BKN012 OVC020 01/M02 A2978 RMK AO2 T00111022,KRTN,2020-12-11T19:11:00Z,36.73,-104.5,1.1,-2.2,190,9,,10.0,29.778543,,,TRUE,TRUE,,,,,,,BKN,1200,OVC,2000,,,,,MVFR,,,,,,,,,,,,METAR,1939.0
KHHR 111911Z VRB03KT 8SM OVC032 14/07 A3014 RMK AO2 T01440072,KHHR,2020-12-11T19:11:00Z,33.92,-118.33,14.4,7.2,0,3,,8.0,30.138779,,,,TRUE,,,,,,,OVC,3200,,,,,,,VFR,,,,,,,,,,,,METAR,21.0
KFRI 111911Z AUTO 36008KT 10SM OVC019 05/M01 A2978 RMK AO2 SLP088,KFRI,2020-12-11T19:11:00Z,39.05,-96.77,5.0,-1.0,360,8,,10.0,29.778543,1008.8,,TRUE,TRUE,,,,,,,OVC,1900,,,,,,,MVFR,,,,,,,,,,,,METAR,232.0
KDDC 111911Z AUTO 34009KT 9SM OVC015 02/M02 A2986 RMK AO2 T00171022,KDDC,2020-12-11T19:11:00Z,37.77,-99.97,1.7,-2.2,340,9,,9.0,29.861221,,,TRUE,TRUE,,,,,,,OVC,1500,,,,,,,MVFR,,,,,,,,,,,,METAR,786.0
DAUG 111911Z 27014KT 6000 NSC 20/10 Q1014,DAUG,2020-12-11T19:11:00Z,32.38,3.78,20.0,10.0,270,14,,3.73,29.940945,,,,,,,,,,,CLR,,,,,,,,MVFR,,,,,,,,,,,,SPECI,444.0
CYZT 111911Z 27004KT 20SM FEW005 FEW020 BKN030 05/05 A3007 RMK SF1SC1SC6 SF TR SLP184,CYZT,2020-12-11T19:11:00Z,50.68,-127.37,5.0,5.0,270,4,,20.0,30.070866,1018.4,,,,,,,,,,FEW,500,FEW,2000,BKN,3000,,,MVFR,,,,,,,,,,,,SPECI,13.0
VCBI 111910Z 36003KT 9000 NSC 24/21 Q1012 NOSIG,VCBI,2020-12-11T19:10:00Z,7.17,79.88,24.0,21.0,360,3,,5.59,29.88189,,,,,,TRUE,,,,,CLR,,,,,,,,VFR,,,,,,,,,,,,METAR,10.0
SKBO 111910Z 29005KT 9000 DZ BKN018TCU 17/12 Q1023 NOSIG RMK A3022,SKBO,2020-12-11T19:10:00Z,4.7,-74.15,17.0,12.0,290,5,,5.59,30.206694,,,,,,TRUE,,,,DZ,BKN,1800,,,,,,,MVFR,,,,,,,,,,,,SPECI,2547.0
KRQO 111910Z AUTO 32012KT 10SM CLR 08/02 A2986 RMK AO2 T00830017,KRQO,2020-12-11T19:10:00Z,35.47,-98.0,8.3,1.7,320,12,,10.0,29.861221,,,TRUE,TRUE,,,,,,,CLR,,,,,,,,VFR,,,,,,,,,,,,SPECI,431.0
KPNA 111910Z AUTO 00000KT 2SM -SN SCT010 BKN014 OVC020 M04/M07 A2985 RMK AO2,KPNA,2020-12-11T19:10:00Z,42.8,-109.8,-4.0,-7.0,0,0,,2.0,29.84941,,,TRUE,TRUE,,,,,,-SN,SCT,1000,BKN,1400,OVC,2000,,,IFR,,,,,,,,,,,,SPECI,2158.0
KONT 111910Z 28003KT 10SM SCT029 BKN210 BKN240 13/05 A3012 RMK AO2 T01330050,KONT,2020-12-11T19:10:00Z,34.05,-117.58,13.3,5.0,280,3,,10.0,30.121063,,,,TRUE,,,,,,,SCT,2900,BKN,21000,BKN,24000,,,VFR,,,,,,,,,,,,METAR,279.0
KOJA 111910Z AUTO 30013KT 10SM CLR 09/00 A2986 RMK AO2 T00891001,KOJA,2020-12-11T19:10:00Z,35.55,-98.67,8.9,-0.1,300,13,,10.0,29.861221,,,TRUE,TRUE,,,,,,,CLR,,,,,,,,VFR,,,,,,,,,,,,SPECI,490.0
KMHP 111910Z AUTO 19004KT 10SM CLR 21/07 A3014 RMK AO2 T02060068,KMHP,2020-12-11T19:10:00Z,32.37,-82.08,20.6,6.8,190,4,,10.0,30.138779,,,TRUE,TRUE,,,,,,,CLR,,,,,,,,VFR,,,,,,,,,,,,SPECI,60.0
KMGR 111910Z AUTO 17004KT 10SM CLR 20/08 A3013 RMK AO2,KMGR,2020-12-11T19:10:00Z,31.08,-83.8,20.0,8.0,170,4,,10.0,30.129921,,,TRUE,TRUE,,,,,,,CLR,,,,,,,,VFR,,,,,,,,,,,,SPECI,86.0
KEZM 111910Z AUTO 00000KT 10SM CLR 21/05 A3015 RMK AO2 T02080047,KEZM,2020-12-11T19:10:00Z,32.22,-83.13,20.8,4.7,0,0,,10.0,30.15059,,,TRUE,TRUE,,,,,,,CLR,,,,,,,,VFR,,,,,,,,,,,,SPECI,86.0
KBRL 111910Z AUTO 06011KT 1 3/4SM RA BR SCT010 BKN014 OVC031 05/04 A2983 RMK AO2 PRESFR P0002 T00500044,KBRL,2020-12-11T19:10:00Z,40.77,-91.13,5.0,4.4,60,11,,1.75,29.828741,,,TRUE,TRUE,,,,,,RA BR,SCT,1000,BKN,1400,OVC,3100,,,IFR,,,,,,0.02,,,,,,METAR,208.0
KACJ 111910Z AUTO 24004KT 10SM CLR 22/05 A3013 RMK AO2,KACJ,2020-12-11T19:10:00Z,32.12,-84.18,22.0,5.0,240,4,,10.0,30.129921,,,TRUE,TRUE,,,,,,,CLR,,,,,,,,VFR,,,,,,,,,,,,SPECI,140.0
K2J5 111910Z AUTO 27004KT 10SM CLR 20/06 A3014 RMK AO2 T02020057,K2J5,2020-12-11T19:10:00Z,32.9,-81.97,20.2,5.7,270,4,,10.0,30.138779,,,TRUE,TRUE,,,,,,,CLR,,,,,,,,VFR,,,,,,,,,,,,SPECI,72.0
BIHN 111910Z 08016G31KT 9999 +RADZ BR FEW008 BKN018 OVC023 08/05 Q0989,BIHN,2020-12-11T19:10:00Z,64.3,-15.23,8.0,5.0,80,16,31,6.21,29.202755,,,,,,,,,,+RA +DZ BR,FEW,800,BKN,1800,OVC,2300,,,MVFR,,,,,,,,,,,,METAR,8.0
KFUL 111909Z 00000KT 9SM OVC030 16/07 A3012 RMK AO2 T01560067,KFUL,2020-12-11T19:09:00Z,33.87,-117.98,15.6,6.7,0,0,,9.0,30.121063,,,,TRUE,,,,,,,OVC,3000,,,,,,,MVFR,,,,,,,,,,,,SPECI,23.0
KCOD 111909Z AUTO 06005KT 3SM -SN FEW015 SCT021 BKN027 M02/M04 A2989 RMK AO2 P0000 FZRANO,KCOD,2020-12-11T19:09:00Z,44.52,-109.02,-2.0,-4.0,60,5,,3.0,29.890747,,,TRUE,TRUE,,,,TRUE,,-SN,FEW,1500,SCT,2100,BKN,2700,,,MVFR,,,,,,0.005,,,,,,SPECI,1550.0
CZBF 111909Z AUTO 15002KT 9SM -SN OVC036 M01/M03 A3005 RMK ICG MISG SLP187,CZBF,2020-12-11T19:09:00Z,47.62,-65.75,-1.0,-3.0,150,2,,9.0,30.050198,1018.7,,TRUE,,,,,,,-SN,OVC,3600,,,,,,,VFR,,,,,,,,,,,,SPECI,60.0
CYQU 111909Z 25003KT 170V250 1SM BR VV003 M12/M13 A3001 RMK FG8 SLP217,CYQU,2020-12-11T19:09:00Z,55.18,-118.88,-12.0,-13.0,250,3,,1.0,30.008858,1021.7,,,,,,,,,BR,OVX,0,,,,,,,LIFR,,,,,,,,,,,300,SPECI,668.0
PAMR 111908Z 00000KT 10SM SCT007 M14/M16 A3008 RMK AO2 T11391161 $,PAMR,2020-12-11T19:08:00Z,61.22,-149.85,-13.9,-16.1,0,0,,10.0,30.079725,,,,TRUE,TRUE,,,,,,SCT,700,,,,,,,VFR,,,,,,,,,,,,SPECI,43.0
KHLN 111908Z 34004KT 2 1/2SM -SN OVC021 M02/M06 A2996 RMK AO2 P0000 T10221056,KHLN,2020-12-11T19:08:00Z,46.6,-111.98,-2.2,-5.6,340,4,,2.5,29.958662,,,,TRUE,,,,,,-SN,OVC,2100,,,,,,,IFR,,,,,,0.005,,,,,,SPECI,1178.0
KDEQ 111908Z AUTO 00000KT 4SM -RA BR OVC006 15/15 A2983 RMK AO2 LTG DSNT E P0000 T01500150,KDEQ,2020-12-11T19:08:00Z,34.05,-94.4,15.0,15.0,0,0,,4.0,29.828741,,,TRUE,TRUE,,,,,,-RA BR,OVC,600,,,,,,,IFR,,,,,,0.005,,,,,,SPECI,107.0
KCWN 111908Z AUTO 03004KT 1 3/4SM BR BKN005 BKN020 M04/M05 A2976 RMK AO2 CIG 005V020 BKN V SCT SLP027 PWINO FZRANO $,KCWN,2020-12-11T19:08:00Z,38.75,-104.85,-4.0,-5.0,30,4,,1.75,29.760826,1002.7,,TRUE,TRUE,TRUE,,,TRUE,TRUE,BR,BKN,500,BKN,2000,,,,,IFR,,,,,,,,,,,,SPECI,2040.0
KPRB 111907Z AUTO 00000KT 10SM SCT006 08/04 A3019 RMK AO2 T00830044,KPRB,2020-12-11T19:07:00Z,35.67,-120.63,8.3,4.4,0,0,,10.0,30.188976,,,TRUE,TRUE,,,,,,,SCT,600,,,,,,,VFR,,,,,,,,,,,,METAR,249.0
SCTN 111906Z 36018G29KT 2000 +RA SCT006 OVC010 11/10 Q1009,SCTN,2020-12-11T19:06:00Z,-42.92,-72.7,11.0,10.0,360,18,29,1.24,29.793306,,,,,,,,,,+RA,SCT,600,OVC,1000,,,,,IFR,,,,,,,,,,,,SPECI,8.0
KDPA 111906Z 05016G23KT 10SM -RA SCT015 BKN033 OVC070 06/02 A2991 RMK AO2 RAB03 P0000 T00610022,KDPA,2020-12-11T19:06:00Z,41.88,-88.25,6.1,2.2,50,16,23,10.0,29.911417,,,,TRUE,,,,,,-RA,SCT,1500,BKN,3300,OVC,7000,,,VFR,,,,,,0.005,,,,,,METAR,228.0
CBBC 111906Z AUTO /////KT 9SM OVC003 03/03 A3008 RMK ICG PAST HR WND MISG SLP191,CBBC,2020-12-11T19:06:00Z,52.18,-128.15,3.0,3.0,,,,9.0,30.079725,1019.1,,TRUE,,,,,,,,OVC,300,,,,,,,LIFR,,,,,,,,,,,,SPECI,36.0
RCMQ 111905Z 01010KT 4000 BR BKN002 OVC016 19/18 Q1014 RMK A2996 APCH CLD BKN002,RCMQ,2020-12-11T19:05:00Z,24.27,120.62,19.0,18.0,10,10,,2.49,29.940945,,,,,,,,,,BR,BKN,200,OVC,1600,,,,,LIFR,,,,,,,,,,,,SPECI,202.0
PAHL 111905Z AUTO 32003KT 10SM SCT022 M31/M34 A3033 RMK AO2 FZRANO,PAHL,2020-12-11T19:05:00Z,65.7,-156.35,-31.0,-34.0,320,3,,10.0,30.33071,,,TRUE,TRUE,,,,TRUE,,,SCT,2200,,,,,,,VFR,,,,,,,,,,,,METAR,49.0
MUCL 111905Z AUTO 06009KT 020V090 25/19 Q1015,MUCL,2020-12-11T19:05:00Z,21.63,-81.55,25.0,19.0,60,9,,,29.970472,,,TRUE,,,,,,,,,,,,,,,,,,,,,,,,,,,,METAR,5.0
KSQI 111905Z AUTO 05010G18KT 10SM -RA BKN010 OVC045 05/04 A2987 RMK AO2 P0001,KSQI,2020-12-11T19:05:00Z,41.75,-89.67,5.0,4.0,50,10,18,10.0,29.870079,,,TRUE,TRUE,,,,,,-RA,BKN,1000,OVC,4500,,,,,MVFR,,,,,,0.01,,,,,,METAR,196.0
KOJC 111905Z 25006KT 8SM OVC011 08/07 A2974 RMK AO2 T00780067 $,KOJC,2020-12-11T19:05:00Z,38.85,-94.73,7.8,6.7,250,6,,8.0,29.740158,,,,TRUE,TRUE,,,,,,OVC,1100,,,,,,,MVFR,,,,,,,,,,,,METAR,328.0
KMHK 111905Z 35006KT 10SM OVC019 05/M01 A2979 RMK AO2 T00501011,KMHK,2020-12-11T19:05:00Z,39.13,-96.68,5.0,-1.1,350,6,,10.0,29.790354,,,,TRUE,,,,,,,OVC,1900,,,,,,,MVFR,,,,,,,,,,,,METAR,320.0
KBUR 111905Z 27005KT 10SM SCT023 12/06 A3013 RMK AO2 T01220056,KBUR,2020-12-11T19:05:00Z,34.2,-118.37,12.2,5.6,270,5,,10.0,30.129921,,,,TRUE,,,,,,,SCT,2300,,,,,,,VFR,,,,,,,,,,,,METAR,221.0
CYBW 111905Z AUTO 16010G15KT 6SM BR OVC005 M08/M09 A3002 RMK SLP245,CYBW,2020-12-11T19:05:00Z,51.1,-114.37,-8.0,-9.0,160,10,15,6.0,30.02067,1024.5,,TRUE,,,,,,,BR,OVC,500,,,,,,,IFR,,,,,,,,,,,,SPECI,1197.0
KNXP 111904Z AUTO 00000KT 3SM HZ CLR 11/M08 A3012 RMK AO2 T01111083,KNXP,2020-12-11T19:04:00Z,34.28,-116.13,11.1,-8.3,0,0,,3.0,30.121063,,,TRUE,TRUE,,,,,,HZ,CLR,,,,,,,,MVFR,,,,,,,,,,,,SPECI,610.0
KFLP 111904Z AUTO 15004KT 10SM -RA BKN010 BKN041 OVC050 13/13 A2980 RMK AO2 RAB01 P0000,KFLP,2020-12-11T19:04:00Z,36.28,-92.58,13.0,13.0,150,4,,10.0,29.799213,,,TRUE,TRUE,,,,,,-RA,BKN,1000,BKN,4100,OVC,5000,,,MVFR,,,,,,0.005,,,,,,SPECI,215.0
KATT 111904Z AUTO 00000KT 5SM -RA BR BKN006 OVC110 19/17 A2986 RMK AO2 RAB02 CIG 005V009 P0000 T01940172,KATT,2020-12-11T19:04:00Z,30.32,-97.77,19.4,17.2,0,0,,5.0,29.861221,,,TRUE,TRUE,,,,,,-RA BR,BKN,600,OVC,11000,,,,,IFR,,,,,,0.005,,,,,,METAR,203.0
KOTM 111903Z AUTO 07012KT 2SM -RA BR OVC005 04/04 A2982 RMK AO2 P0001 T00390039,KOTM,2020-12-11T19:03:00Z,41.1,-92.45,3.9,3.9,70,12,,2.0,29.819881,,,TRUE,TRUE,,,,,,-RA BR,OVC,500,,,,,,,IFR,,,,,,0.01,,,,,,SPECI,254.0
KMNM 111903Z AUTO 04009KT 10SM BKN024 02/M03 A3010 RMK AO2 FZRANO $,KMNM,2020-12-11T19:03:00Z,45.12,-87.63,2.0,-3.0,40,9,,10.0,30.100393,,,TRUE,TRUE,TRUE,,,TRUE,,,BKN,2400,,,,,,,MVFR,,,,,,,,,,,,SPECI,188.0
KLVM 111903Z AUTO 07008KT 8SM SCT007 OVC013 M03/M05 A2992 RMK AO2 SNE01 P0000 T10281050 $,KLVM,2020-12-11T19:03:00Z,45.7,-110.43,-2.8,-5.0,70,8,,8.0,29.920275,,,TRUE,TRUE,TRUE,,,,,,SCT,700,OVC,1300,,,,,MVFR,,,,,,0.005,,,,,,SPECI,1418.0
KGFK 111903Z 36004KT 5SM BR OVC005 M04/M06 A3020 RMK AO2 T10441061,KGFK,2020-12-11T19:03:00Z,47.95,-97.18,-4.4,-6.1,360,4,,5.0,30.200787,,,,TRUE,,,,,,BR,OVC,500,,,,,,,IFR,,,,,,,,,,,,SPECI,256.0
KAWO 111903Z AUTO 14006KT 10SM OVC030 06/03 A3009 RMK AO2,KAWO,2020-12-11T19:03:00Z,48.17,-122.17,6.0,3.0,140,6,,10.0,30.088583,,,TRUE,TRUE,,,,,,,OVC,3000,,,,,,,MVFR,,,,,,,,,,,,SPECI,38.0
SVVA 111902Z AUTO NIL,SVVA,2020-12-11T19:02:00Z,10.15,-67.92,,,,,,,,,,TRUE,,,,,,,,,,,,,,,,,,,,,,,,,,,,METAR,428.0
SVSR 111902Z AUTO NIL,SVSR,2020-12-11T19:02:00Z,7.87,-67.43,,,,,,,,,,TRUE,,,,,,,,,,,,,,,,,,,,,,,,,,,,METAR,49.0
SVPA 111902Z AUTO NIL,SVPA,2020-12-11T19:02:00Z,5.62,-67.6,,,,,,,,,,TRUE,,,,,,,,,,,,,,,,,,,,,,,,,,,,METAR,77.0
SVMI 111902Z AUTO 07011KT NCD ///// Q1012,SVMI,2020-12-11T19:02:00Z,10.6,-67.0,,,70,11,,,29.88189,,,TRUE,,,,,,,,CLR,,,,,,,,,,,,,,,,,,,,METAR,48.0
SVMG 111902Z AUTO 10013KT NCD 31/21 Q1011,SVMG,2020-12-11T19:02:00Z,10.92,-63.97,31.0,21.0,100,13,,,29.852362,,,TRUE,,,,,,,,CLR,,,,,,,,,,,,,,,,,,,,METAR,16.0
SVMC 111902Z AUTO 15003KT NCD 33/19 Q1009,SVMC,2020-12-11T19:02:00Z,10.57,-71.72,33.0,19.0,150,3,,,29.793306,,,TRUE,,,,,,,,CLR,,,,,,,,,,,,,,,,,,,,METAR,76.0
SVLO 111902Z AUTO NIL,SVLO,2020-12-11T19:02:00Z,11.8,-66.18,,,,,,,,,,TRUE,,,,,,,,,,,,,,,,,,,,,,,,,,,,METAR,3.0
SVJM 111902Z AUTO 31004KT NCD 32/15 Q1011,SVJM,2020-12-11T19:02:00Z,9.92,-67.38,32.0,15.0,310,4,,,29.852362,,,TRUE,,,,,,,,CLR,,,,,,,,,,,,,,,,,,,,METAR,448.0
SVGU 111902Z AUTO 12008KT NCD 32/20 Q1011,SVGU,2020-12-11T19:02:00Z,9.03,-69.75,32.0,20.0,120,8,,,29.852362,,,TRUE,,,,,,,,CLR,,,,,,,,,,,,,,,,,,,,METAR,165.0
SVGD 111902Z AUTO 05006KT NCD 32/22 Q1011,SVGD,2020-12-11T19:02:00Z,7.22,-70.75,32.0,22.0,50,6,,,29.852362,,,TRUE,,,,,,,,CLR,,,,,,,,,,,,,,,,,,,,METAR,129.0
SVFM 111902Z AUTO 13006KT NCD 28/16 Q1013,SVFM,2020-12-11T19:02:00Z,10.48,-66.83,28.0,16.0,130,6,,,29.911417,,,TRUE,,,,,,,,CLR,,,,,,,,,,,,,,,,,,,,METAR,852.0
SVCS 111902Z AUTO NIL,SVCS,2020-12-11T19:02:00Z,10.3,-66.82,,,,,,,,,,TRUE,,,,,,,,,,,,,,,,,,,,,,,,,,,,METAR,656.0
SVCJ 111902Z AUTO NIL,SVCJ,2020-12-11T19:02:00Z,9.65,-68.58,,,,,,,,,,TRUE,,,,,,,,,,,,,,,,,,,,,,,,,,,,METAR,156.0
SVBS 111902Z AUTO 23006KT NCD 32/// Q1013,SVBS,2020-12-11T19:02:00Z,10.25,-67.65,,,230,6,,,29.911417,,,TRUE,,,,,,,,CLR,,,,,,,,,,,,,,,,,,,,METAR,435.0
SVBM 111902Z AUTO 31010KT NCD 28/18 Q1013,SVBM,2020-12-11T19:02:00Z,10.05,-69.37,28.0,18.0,310,10,,,29.911417,,,TRUE,,,,,,,,CLR,,,,,,,,,,,,,,,,,,,,METAR,624.0
SVBI 111902Z AUTO 04005KT NCD 33/20 Q1013,SVBI,2020-12-11T19:02:00Z,8.62,-70.22,33.0,20.0,40,5,,,29.911417,,,TRUE,,,,,,,,CLR,,,,,,,,,,,,,,,,,,,,METAR,185.0
SVBC 111902Z AUTO NIL,SVBC,2020-12-11T19:02:00Z,10.12,-64.68,,,,,,,,,,TRUE,,,,,,,,,,,,,,,,,,,,,,,,,,,,METAR,7.0
KVNY 111902Z 00000KT 10SM SCT021 14/07 A3012 RMK AO2 T01390067,KVNY,2020-12-11T19:02:00Z,34.22,-118.48,13.9,6.7,0,0,,10.0,30.121063,,,,TRUE,,,,,,,SCT,2100,,,,,,,VFR,,,,,,,,,,,,SPECI,241.0
KMWM 111902Z AUTO 03015G19KT 10SM CLR 02/M03 A3001 RMK AO2,KMWM,2020-12-11T19:02:00Z,43.9,-95.1,2.0,-3.0,30,15,19,10.0,30.008858,,,TRUE,TRUE,,,,,,,CLR,,,,,,,,VFR,,,,,,,,,,,,METAR,427.0
KDIJ 111902Z AUTO 00000KT 9SM UP BKN043 OVC050 M01/M06 A2991 RMK AO2 UPB1858SNE1858 P0001,KDIJ,2020-12-11T19:02:00Z,43.75,-111.1,-1.0,-6.0,0,0,,9.0,29.911417,,,TRUE,TRUE,,,,,,UP,BKN,4300,OVC,5000,,,,,VFR,,,,,,0.01,,,,,,METAR,1896.0
PAFS 111901Z AUTO 04007KT 10SM CLR M21/M23 A3013 RMK AO2 SLP224 T12111233 FZRANO,PAFS,2020-12-11T19:01:00Z,63.02,-154.35,-21.1,-23.3,40,7,,10.0,30.129921,1022.4,,TRUE,TRUE,,,,TRUE,,,CLR,,,,,,,,VFR,,,,,,,,,,,,METAR,131.0
KRQB 111901Z AUTO 04004KT BKN017 OVC100 06/01 A3001 RMK AO2,KRQB,2020-12-11T19:01:00Z,43.72,-85.5,6.0,1.0,40,4,,,30.008858,,,TRUE,TRUE,,,,,,,BKN,1700,OVC,10000,,,,,,,,,,,,,,,,,METAR,282.0
KMSP 111901Z 03012KT 10SM BKN019 BKN250 02/M03 A3010 RMK AO2 T00171028,KMSP,2020-12-11T19:01:00Z,44.88,-93.23,1.7,-2.8,30,12,,10.0,30.100393,,,,TRUE,,,,,,,BKN,1900,BKN,25000,,,,,MVFR,,,,,,,,,,,,SPECI,255.0
KFTW 111901Z 23009KT 10SM BKN010 18/16 A2981 RMK AO2 T01830161,KFTW,2020-12-11T19:01:00Z,32.83,-97.37,18.3,16.1,230,9,,10.0,29.811024,,,,TRUE,,,,,,,BKN,1000,,,,,,,MVFR,,,,,,,,,,,,METAR,213.0
KEFK 111901Z AUTO 16006KT 10SM OVC080 04/M02 A3000 RMK AO2,KEFK,2020-12-11T19:01:00Z,44.88,-72.23,4.0,-2.0,160,6,,10.0,30.0,,,TRUE,TRUE,,,,,,,OVC,8000,,,,,,,VFR,,,,,,,,,,,,METAR,282.0
ETIK 111901Z AUTO 15006KT 9999 -DZ FEW015 SCT039 02/02 A2944 RMK AO2 DZB01 SLP985 $,ETIK,2020-12-11T19:01:00Z,49.47,10.38,2.0,2.0,150,6,,6.21,29.438976,998.5,,TRUE,TRUE,TRUE,,,,,-DZ,FEW,1500,SCT,3900,,,,,VFR,,,,,,,,,,,,SPECI,326.0
CWLY 111901Z AUTO 00000KT 9SM FEW005 OVC011 02/01 A3007 RMK SLP190,CWLY,2020-12-11T19:01:00Z,50.22,-121.58,2.0,1.0,0,0,,9.0,30.070866,1019.0,,TRUE,,,,,,,,FEW,500,OVC,1100,,,,,MVFR,,,,,,,,,,,,SPECI,228.0
CWAE 111901Z 00000KT 15SM SCT038 00/M00 A3001 RMK CU3 WND ESTD SLP183,CWAE,2020-12-11T19:01:00Z,50.13,-122.95,0.0,0.0,0,0,,15.0,30.008858,1018.3,,,,,,,,,,SCT,3800,,,,,,,VFR,,,,,,,,,,,,SPECI,658.0
BGTL 111901Z AUTO 16015KT 9999 FEW016 FEW031 M03/M04 A2953 RMK AO2 WSHFT 1848 SLP987 TSNO $,BGTL,2020-12-11T19:01:00Z,76.53,-68.75,-3.0,-4.0,160,15,,6.21,29.530512,998.7,,TRUE,TRUE,TRUE,,TRUE,,,,FEW,1600,FEW,3100,,,,,VFR,,,,,,,,,,,,SPECI,79.0
ZYHB 111900Z 25002MPS 190V310 5000 BR NSC M19/M21 Q1020 NOSIG,ZYHB,2020-12-11T19:00:00Z,45.62,126.25,-19.0,-21.0,250,4,,3.11,30.11811,,,,,,TRUE,,,,BR,CLR,,,,,,,,MVFR,,,,,,,,,,,,METAR,134.0
ZYCC 111900Z 25002MPS CAVOK M15/M19 Q1020 NOSIG,ZYCC,2020-12-11T19:00:00Z,43.98,125.68,-15.0,-19.0,250,4,,6.21,30.11811,,,,,,TRUE,,,,,CAVOK,,,,,,,,VFR,,,,,,,,,,,,METAR,211.0
ZWSH 111900Z AUTO VRB01MPS 5000 // ////// M01/M05 Q1022,ZWSH,2020-12-11T19:00:00Z,39.55,76.02,-1.0,-5.0,0,2,,3.11,30.177166,,,TRUE,,,,,,,,,,,,,,,,,,,,,,,,,,,,METAR,1374.0
ZUUU 111900Z 00000MPS 5000 BR NSC 08/07 Q1021 NOSIG,ZUUU,2020-12-11T19:00:00Z,30.58,103.95,8.0,7.0,0,0,,3.11,30.147638,,,,,,TRUE,,,,BR,CLR,,,,,,,,MVFR,,,,,,,,,,,,METAR,494.0
ZUGY 111900Z 02002MPS 9999 -RA SCT005 BKN014 OVC026 05/05 Q1021 NOSIG,ZUGY,2020-12-11T19:00:00Z,26.53,106.8,5.0,5.0,20,4,,6.21,30.147638,,,,,,TRUE,,,,-RA,SCT,500,BKN,1400,OVC,2600,,,MVFR,,,,,,,,,,,,METAR,1130.0
ZUCK 111900Z 13002MPS 3000 BR FEW008 SCT020 09/09 Q1021 NOSIG,ZUCK,2020-12-11T19:00:00Z,29.72,106.63,9.0,9.0,130,4,,1.86,30.147638,,,,,,TRUE,,,,BR,FEW,800,SCT,2000,,,,,IFR,,,,,,,,,,,,METAR,416.0
ZSQD 111900Z 04002MPS 1800 BR NSC 00/M01 Q1022 BECMG TL2000 1400,ZSQD,2020-12-11T19:00:00Z,36.27,120.38,0.0,-1.0,40,4,,1.12,30.177166,,,,,,,,,,BR,CLR,,,,,,,,IFR,,,,,,,,,,,,METAR,8.0
ZSOF 111900Z 00000MPS 2000 BR NSC 04/02 Q1023 NOSIG,ZSOF,2020-12-11T19:00:00Z,31.98,116.97,4.0,2.0,0,0,,1.24,30.206694,,,,,,TRUE,,,,BR,CLR,,,,,,,,IFR,,,,,,,,,,,,METAR,23.0
ZSNJ 111900Z 31002MPS 1000 R06/1600D R07/0275V0400N PRFG BR NSC 04/04 Q1024 BECMG TL2040 0700 FG,ZSNJ,2020-12-11T19:00:00Z,31.75,118.87,4.0,4.0,310,4,,0.62,30.236221,,,,,,,,,,PRFG BR,CLR,,,,,,,,LIFR,,,,,,,,,,,,METAR,27.0
ZSNB 111900Z 33004MPS 310V010 4000 BR BKN026 10/06 Q1022 NOSIG,ZSNB,2020-12-11T19:00:00Z,29.83,121.47,10.0,6.0,330,8,,2.49,30.177166,,,,,,TRUE,,,,BR,BKN,2600,,,,,,,IFR,,,,,,,,,,,,METAR,5.0
ZSFZ 111900Z 02002MPS 350V050 9999 FEW030 16/13 Q1018 NOSIG,ZSFZ,2020-12-11T19:00:00Z,25.93,119.67,16.0,13.0,20,4,,6.21,30.059055,,,,,,TRUE,,,,,FEW,3000,,,,,,,VFR,,,,,,,,,,,,METAR,14.0
ZSAM 111900Z 06003MPS 9999 BKN027 19/15 Q1016 NOSIG,ZSAM,2020-12-11T19:00:00Z,24.53,118.13,19.0,15.0,60,6,,6.21,30.0,,,,,,TRUE,,,,,BKN,2700,,,,,,,MVFR,,,,,,,,,,,,METAR,13.0
ZPPP 111900Z 23001MPS CAVOK 07/04 Q1019 NOSIG,ZPPP,2020-12-11T19:00:00Z,25.0,102.65,7.0,4.0,230,2,,6.21,30.088583,,,,,,TRUE,,,,,CAVOK,,,,,,,,VFR,,,,,,,,,,,,METAR,1885.0
ZLXY 111900Z 24001MPS 3500 BR NSC M04/M04 Q1023 NOSIG,ZLXY,2020-12-11T19:00:00Z,34.43,108.75,-4.0,-4.0,240,2,,2.17,30.206694,,,,,,TRUE,,,,BR,CLR,,,,,,,,IFR,,,,,,,,,,,,METAR,478.0
ZLLL 111900Z 32003MPS 9999 BKN046 M04/M12 Q1019 NOSIG,ZLLL,2020-12-11T19:00:00Z,36.52,103.62,-4.0,-12.0,320,6,,6.21,30.088583,,,,,,TRUE,,,,,BKN,4600,,,,,,,VFR,,,,,,,,,,,,METAR,1939.0
ZJSY 111900Z 00000MPS 9999 BKN040 23/20 Q1012 NOSIG,ZJSY,2020-12-11T19:00:00Z,18.3,109.42,23.0,20.0,0,0,,6.21,29.88189,,,,,,TRUE,,,,,BKN,4000,,,,,,,VFR,,,,,,,,,,,,METAR,27.0
ZJHK 111900Z 02003MPS 8000 SCT006 BKN010 BKN033 21/21 Q1014 NOSIG,ZJHK,2020-12-11T19:00:00Z,19.93,110.43,21.0,21.0,20,6,,4.97,29.940945,,,,,,TRUE,,,,,SCT,600,BKN,1000,BKN,3300,,,MVFR,,,,,,,,,,,,METAR,21.0
ZHHH 111900Z 19002MPS 1700 BR NSC 05/05 Q1023 NOSIG,ZHHH,2020-12-11T19:00:00Z,30.78,114.22,5.0,5.0,190,4,,1.06,30.206694,,,,,,TRUE,,,,BR,CLR,,,,,,,,IFR,,,,,,,,,,,,METAR,33.0
ZHCC 111900Z VRB01MPS CAVOK 00/M05 Q1022 NOSIG,ZHCC,2020-12-11T19:00:00Z,34.52,113.83,0.0,-5.0,0,2,,6.21,30.177166,,,,,,TRUE,,,,,CAVOK,,,,,,,,VFR,,,,,,,,,,,,METAR,149.0
ZGSZ 111900Z 01003MPS 6000 NSC 20/16 Q1015 NOSIG,ZGSZ,2020-12-11T19:00:00Z,22.63,113.8,20.0,16.0,10,6,,3.73,29.970472,,,,,,TRUE,,,,,CLR,,,,,,,,MVFR,,,,,,,,,,,,METAR,18.0
ZGOW 111900Z 12001MPS 7000 NSC 19/17 Q1016 NOSIG,ZGOW,2020-12-11T19:00:00Z,23.55,116.5,19.0,17.0,120,2,,4.35,30.0,,,,,,TRUE,,,,,CLR,,,,,,,,MVFR,,,,,,,,,,,,METAR,4.0
ZGNN 111900Z 06004MPS 6000 BKN030 19/13 Q1016 NOSIG,ZGNN,2020-12-11T19:00:00Z,22.62,108.17,19.0,13.0,60,8,,3.73,30.0,,,,,,TRUE,,,,,BKN,3000,,,,,,,MVFR,,,,,,,,,,,,METAR,128.0
ZGKL 111900Z 03003MPS 5000 BR SCT043 BKN060 11/08 Q1021 NOSIG,ZGKL,2020-12-11T19:00:00Z,25.22,110.03,11.0,8.0,30,6,,3.11,30.147638,,,,,,TRUE,,,,BR,SCT,4300,BKN,6000,,,,,MVFR,,,,,,,,,,,,METAR,151.0
ZGHA 111900Z 33002MPS 2500 BR BKN050 09/07 Q1023 NOSIG,ZGHA,2020-12-11T19:00:00Z,28.18,113.22,9.0,7.0,330,4,,1.55,30.206694,,,,,,TRUE,,,,BR,BKN,5000,,,,,,,IFR,,,,,,,,,,,,METAR,61.0
ZBSJ 111900Z 00000MPS 0050 R15/0175N FZFG VV010 M03/M03 Q1021 NOSIG,ZBSJ,2020-12-11T19:00:00Z,38.28,114.7,-3.0,-3.0,0,0,,0.03,30.147638,,,,,,TRUE,,,,FZFG,OVX,0,,,,,,,LIFR,,,,,,,,,,,1000,METAR,70.0
ZBHH 111900Z 04002MPS 8000 NSC M12/M14 Q1018 NOSIG,ZBHH,2020-12-11T19:00:00Z,40.85,111.82,-12.0,-14.0,40,4,,4.97,30.059055,,,,,,TRUE,,,,,CLR,,,,,,,,MVFR,,,,,,,,,,,,METAR,1081.0
YWHA 111900Z AUTO 23005KT 9999 // NCD 17/11 Q1014,YWHA,2020-12-11T19:00:00Z,-33.07,137.52,17.0,11.0,230,5,,6.21,29.940945,,,TRUE,,,,,,,,CLR,,,,,,,,VFR,,,,,,,,,,,,SPECI,12.0
YWGT 111900Z AUTO 36007KT 9999 // NCD 13/05 Q1027,YWGT,2020-12-11T19:00:00Z,-36.42,146.3,13.0,5.0,360,7,,6.21,30.324802,,,TRUE,,,,,,,,CLR,,,,,,,,VFR,,,,,,,,,,,,SPECI,152.0
YTRE 111900Z AUTO 25006KT 220V030 //// // SCT034 BKN041 BKN051 17/15 Q1025,YTRE,2020-12-11T19:00:00Z,-31.88,152.52,17.0,15.0,250,6,,,30.265747,,,TRUE,,,,,,,,SCT,3400,BKN,4100,BKN,5100,,,,,,,,,,,,,,,SPECI,8.0
YTNK 111900Z AUTO 32004KT 9999 // NCD 27/11 Q1009,YTNK,2020-12-11T19:00:00Z,-19.63,134.18,27.0,11.0,320,4,,6.21,29.793306,,,TRUE,,,,,,,,CLR,,,,,,,,VFR,,,,,,,,,,,,SPECI,368.0
YSWG 111900Z AUTO 10011KT 9999 // NCD 13/05 Q1027,YSWG,2020-12-11T19:00:00Z,-35.15,147.47,13.0,5.0,100,11,,6.21,30.324802,,,TRUE,,,,,,,,CLR,,,,,,,,VFR,,,,,,,,,,,,SPECI,212.0
YSNW 111900Z AUTO 00000KT 9999 // SCT037 SCT041 OVC056 15/10 Q1029,YSNW,2020-12-11T19:00:00Z,-34.95,150.53,15.0,10.0,0,0,,6.21,30.383858,,,TRUE,,,,,,,,SCT,3700,SCT,4100,OVC,5600,,,VFR,,,,,,,,,,,,METAR,109.0
YRMD 111900Z AUTO 08010KT 9999 // NCD 26/16 Q1010,YRMD,2020-12-11T19:00:00Z,-20.7,143.12,26.0,16.0,80,10,,6.21,29.822834,,,TRUE,,,,,,,,CLR,,,,,,,,VFR,,,,,,,,,,,,METAR,209.0
YPBO 111900Z AUTO 34003KT 9999 // SCT105 OVC125 25/18 Q1003,YPBO,2020-12-11T19:00:00Z,-23.17,117.75,25.0,18.0,340,3,,6.21,29.616142,,,TRUE,,,,,,,,SCT,10500,OVC,12500,,,,,VFR,,,,,,,,,,,,METAR,425.0
YOLD 111900Z AUTO 19005KT 9999 // NCD 25/M04 Q1012,YOLD,2020-12-11T19:00:00Z,-30.48,136.88,25.0,-4.0,190,5,,6.21,29.88189,,,TRUE,,,,,,,,CLR,,,,,,,,VFR,,,,,,,,,,,,METAR,102.0
YNWN 111900Z AUTO 28003KT 9999 // NCD 20/19 Q1004,YNWN,2020-12-11T19:00:00Z,-23.42,119.8,20.0,19.0,280,3,,6.21,29.64567,,,TRUE,,,,,,,,CLR,,,,,,,,VFR,,,,,,,,,,,,METAR,526.0
YNTN 111900Z AUTO 14005KT 9999 // OVC125 26/22 Q1008,YNTN,2020-12-11T19:00:00Z,-17.68,141.07,26.0,22.0,140,5,,6.21,29.763779,,,TRUE,,,,,,,,OVC,12500,,,,,,,VFR,,,,,,,,,,,,METAR,19.0
YNBR 111900Z AUTO 15009KT //// // NCD 14/08 Q1022,YNBR,2020-12-11T19:00:00Z,-30.32,149.83,14.0,8.0,150,9,,,30.177166,,,TRUE,,,,,,,,CLR,,,,,,,,,,,,,,,,,,,,METAR,230.0
YNAR 111900Z AUTO 09013KT 9999 // NCD 14/05 Q1026,YNAR,2020-12-11T19:00:00Z,-34.7,146.52,14.0,5.0,90,13,,6.21,30.295275,,,TRUE,,,,,,,,CLR,,,,,,,,VFR,,,,,,,,,,,,METAR,142.0
YMTG 111900Z AUTO 08009KT //// // ////// 10/09 Q1023,YMTG,2020-12-11T19:00:00Z,-37.75,140.78,10.0,9.0,80,9,,,30.206694,,,TRUE,,,,,,,,,,,,,,,,,,,,,,,,,,,,METAR,65.0
YMOR 111900Z AUTO 15010KT 9999 // NCD 16/10 Q1021,YMOR,2020-12-11T19:00:00Z,-29.5,149.85,16.0,10.0,150,10,,6.21,30.147638,,,TRUE,,,,,,,,CLR,,,,,,,,VFR,,,,,,,,,,,,METAR,211.0
YMIA 111900Z AUTO 09005KT 9999 // NCD 20/07 Q1019,YMIA,2020-12-11T19:00:00Z,-34.23,142.08,20.0,7.0,90,5,,6.21,30.088583,,,TRUE,,,,,,,,CLR,,,,,,,,VFR,,,,,,,,,,,,METAR,53.0
YMER 111900Z AUTO 00000KT 9999 // BKN033 OVC048 13/11 Q1031,YMER,2020-12-11T19:00:00Z,-36.92,149.9,13.0,11.0,0,0,,6.21,30.442913,,,TRUE,,,,,,,,BKN,3300,OVC,4800,,,,,VFR,,,,,,,,,,,,METAR,2.0
YMEN 111900Z AUTO 34003KT 9999 // NCD 10/08 Q1026,YMEN,2020-12-11T19:00:00Z,-37.72,144.9,10.0,8.0,340,3,,6.21,30.295275,,,TRUE,,,,,,,,CLR,,,,,,,,VFR,,,,,,,,,,,,METAR,86.0
YMEK 111900Z AUTO 17005KT 9999 // NCD 20/18 Q1003,YMEK,2020-12-11T19:00:00Z,-26.62,118.55,20.0,18.0,170,5,,6.21,29.616142,,,TRUE,,,,,,,,CLR,,,,,,,,VFR,,,,,,,,,,,,METAR,521.0
YMDG 111900Z AUTO 13010KT 9999 // NCD 14/09 Q1026,YMDG,2020-12-11T19:00:00Z,-32.57,149.62,14.0,9.0,130,10,,6.21,30.295275,,,TRUE,,,,,,,,CLR,,,,,,,,VFR,,,,,,,,,,,,METAR,470.0
YMAY 111900Z AUTO 11004KT 9999 // NCD 13/07 Q1027,YMAY,2020-12-11T19:00:00Z,-36.07,146.95,13.0,7.0,110,4,,6.21,30.324802,,,TRUE,,,,,,,,CLR,,,,,,,,VFR,,,,,,,,,,,,METAR,156.0
YLRE 111900Z AUTO 12006KT 9999 // NCD 21/16 Q1013,YLRE,2020-12-11T19:00:00Z,-23.43,144.28,21.0,16.0,120,6,,6.21,29.911417,,,TRUE,,,,,,,,CLR,,,,,,,,VFR,,,,,,,,,,,,METAR,191.0
YLEC 111900Z AUTO 10017KT 9999 // NCD 26/02 Q1013,YLEC,2020-12-11T19:00:00Z,-30.6,138.43,26.0,2.0,100,17,,6.21,29.911417,,,TRUE,,,,,,,,CLR,,,,,,,,VFR,,,,,,,,,,,,METAR,261.0
YHUG 111900Z AUTO 07010KT 9999 // OVC120 26/15 Q1012,YHUG,2020-12-11T19:00:00Z,-20.82,144.23,26.0,15.0,70,10,,6.21,29.88189,,,TRUE,,,,,,,,OVC,12000,,,,,,,VFR,,,,,,,,,,,,METAR,320.0
YGTH 111900Z AUTO 09009KT 9999 // NCD 14/06 Q1025,YGTH,2020-12-11T19:00:00Z,-34.25,146.07,14.0,6.0,90,9,,6.21,30.265747,,,TRUE,,,,,,,,CLR,,,,,,,,VFR,,,,,,,,,,,,METAR,132.0
YGTE 111900Z AUTO 00000KT 9999 // BKN020 26/26 Q1008,YGTE,2020-12-11T19:00:00Z,-13.97,136.45,26.0,26.0,0,0,,6.21,29.763779,,,TRUE,,,,,,,,BKN,2000,,,,,,,MVFR,,,,,,,,,,,,METAR,14.0
YEML 111900Z AUTO 15011KT 9999 // OVC067 22/14 Q1015,YEML,2020-12-11T19:00:00Z,-23.57,148.18,22.0,14.0,150,11,,6.21,29.970472,,,TRUE,,,,,,,,OVC,6700,,,,,,,VFR,,,,,,,,,,,,METAR,192.0
YCOM 111900Z AUTO 00000KT 9999 // BKN024 03/02 Q1030,YCOM,2020-12-11T19:00:00Z,-36.3,148.97,3.0,2.0,0,0,,6.21,30.413385,,,TRUE,,,,,,,,BKN,2400,,,,,,,MVFR,,,,,,,,,,,,METAR,930.0
YCNM 111900Z AUTO 09009KT //// // ////// 16/10 Q1023,YCNM,2020-12-11T19:00:00Z,-30.98,148.38,16.0,10.0,90,9,,,30.206694,,,TRUE,,,,,,,,,,,,,,,,,,,,,,,,,,,,METAR,180.0
YCDU 111900Z AUTO 08006KT 9999 // SCT087 SCT100 OVC115 23/00 Q1012,YCDU,2020-12-11T19:00:00Z,-32.12,133.7,23.0,0.0,80,6,,6.21,29.88189,,,TRUE,,,,,,,,SCT,8700,SCT,10000,OVC,11500,,,VFR,,,,,,,,,,,,METAR,21.0
YCCY 111900Z AUTO 06003KT 9999 // NCD 24/19 Q1009,YCCY,2020-12-11T19:00:00Z,-20.67,140.5,24.0,19.0,60,3,,6.21,29.793306,,,TRUE,,,,,,,,CLR,,,,,,,,VFR,,,,,,,,,,,,METAR,188.0
YCBP 111900Z AUTO 11008KT 9999 // BKN110 26/00 Q1011,YCBP,2020-12-11T19:00:00Z,-29.03,134.72,26.0,0.0,110,8,,6.21,29.852362,,,TRUE,,,,,,,,BKN,11000,,,,,,,VFR,,,,,,,,,,,,METAR,227.0
YCBB 111900Z AUTO 22004KT 9999 // NCD 10/09 Q1025,YCBB,2020-12-11T19:00:00Z,-31.33,149.27,10.0,9.0,220,4,,6.21,30.265747,,,TRUE,,,,,,,,CLR,,,,,,,,VFR,,,,,,,,,,,,METAR,644.0
YCBA 111900Z AUTO 09010KT 9999 // NCD 17/09 Q1022,YCBA,2020-12-11T19:00:00Z,-31.53,145.8,17.0,9.0,90,10,,6.21,30.177166,,,TRUE,,,,,,,,CLR,,,,,,,,VFR,,,,,,,,,,,,METAR,219.0
YCAS 111900Z AUTO 21009KT //// // ////// 17/16 Q1021,YCAS,2020-12-11T19:00:00Z,-28.88,153.07,17.0,16.0,210,9,,,30.147638,,,TRUE,,,,,,,,,,,,,,,,,,,,,,,,,,,,METAR,25.0
YCAR 111900Z AUTO 22013KT 9999 // OVC015 23/22 Q1003,YCAR,2020-12-11T19:00:00Z,-24.88,113.67,23.0,22.0,220,13,,6.21,29.616142,,,TRUE,,,,,,,,OVC,1500,,,,,,,MVFR,,,,,,,,,,,,METAR,4.0
YBWX 111900Z AUTO 26016KT //// // ////// 25/20 Q1004,YBWX,2020-12-11T19:00:00Z,-20.85,115.4,25.0,20.0,260,16,,,29.64567,,,TRUE,,,,,,,,,,,,,,,,,,,,,,,,,,,,METAR,5.0
YBWP 111900Z AUTO 00000KT 9999 // NCD 25/23 Q1008,YBWP,2020-12-11T19:00:00Z,-12.68,141.92,25.0,23.0,0,0,,6.21,29.763779,,,TRUE,,,,,,,,CLR,,,,,,,,VFR,,,,,,,,,,,,METAR,21.0
YBUD 111900Z AUTO 17010KT 9999 // NCD 20/18 Q1015,YBUD,2020-12-11T19:00:00Z,-24.9,152.32,20.0,18.0,170,10,,6.21,29.970472,,,TRUE,,,,,,,,CLR,,,,,,,,VFR,,,,,,,,,,,,METAR,30.0
YBPN 111900Z AUTO 16008KT 9999 // ////// 23/19 Q1011,YBPN,2020-12-11T19:00:00Z,-20.5,148.55,23.0,19.0,160,8,,6.21,29.852362,,,TRUE,,,,,,,,,,,,,,,,,,,,,,,,,,,,METAR,20.0
YBOK 111900Z AUTO 12008KT 9999 // NCD 15/13 Q1019,YBOK,2020-12-11T19:00:00Z,-27.42,151.73,15.0,13.0,120,8,,6.21,30.088583,,,TRUE,,,,,,,,CLR,,,,,,,,VFR,,,,,,,,,,,,METAR,406.0
YBNA 111900Z AUTO 24012KT 9999 // SCT008 BKN046 OVC098 17/16 Q1020,YBNA,2020-12-11T19:00:00Z,-28.83,153.57,17.0,16.0,240,12,,6.21,30.11811,,,TRUE,,,,,,,,SCT,800,BKN,4600,OVC,9800,,,VFR,,,,,,,,,,,,METAR,3.0
YBMK 111900Z AUTO 17009KT 9999 // SCT026 SCT031 BKN038 23/20 Q1012,YBMK,2020-12-11T19:00:00Z,-21.17,149.17,23.0,20.0,170,9,,6.21,29.88189,,,TRUE,,,,,,,,SCT,2600,SCT,3100,BKN,3800,,,VFR,,,,,,,,,,,,METAR,4.0
YBHI 111900Z AUTO 06012KT 9999 // NCD 24/10 Q1017,YBHI,2020-12-11T19:00:00Z,-32.0,141.47,24.0,10.0,60,12,,6.21,30.029528,,,TRUE,,,,,,,,CLR,,,,,,,,VFR,,,,,,,,,,,,METAR,285.0
YBDV 111900Z AUTO 07011KT //// // ////// 29/16 Q1010,YBDV,2020-12-11T19:00:00Z,-25.9,139.35,29.0,16.0,70,11,,,29.822834,,,TRUE,,,,,,,,,,,,,,,,,,,,,,,,,,,,METAR,46.0
YBCV 111900Z AUTO 09010KT 9999 // NCD 18/13 Q1017,YBCV,2020-12-11T19:00:00Z,-26.4,146.27,18.0,13.0,90,10,,6.21,30.029528,,,TRUE,,,,,,,,CLR,,,,,,,,VFR,,,,,,,,,,,,METAR,306.0
YAYE 111900Z AUTO 07015KT 9999 // SCT088 BKN100 24/13 Q1009,YAYE,2020-12-11T19:00:00Z,-25.18,130.98,24.0,13.0,70,15,,6.21,29.793306,,,TRUE,,,,,,,,SCT,8800,BKN,10000,,,,,VFR,,,,,,,,,,,,SPECI,489.0
YARG 111900Z AUTO 00000KT 9999 // NCD 28/22 Q1007,YARG,2020-12-11T19:00:00Z,-16.63,128.45,28.0,22.0,0,0,,6.21,29.734253,,,TRUE,,,,,,,,CLR,,,,,,,,VFR,,,,,,,,,,,,METAR,157.0
WSSL 111900Z 33003KT 270V010 9999 FEW018 BKN150 27/24 Q1009,WSSL,2020-12-11T19:00:00Z,1.42,103.87,27.0,24.0,330,3,,6.21,29.793306,,,,,,,,,,,FEW,1800,BKN,15000,,,,,VFR,,,,,,,,,,,,METAR,11.0
WSAP 111900Z 30003KT 9999 FEW018 BKN140 28/24 Q1009,WSAP,2020-12-11T19:00:00Z,1.37,103.92,28.0,24.0,300,3,,6.21,29.793306,,,,,,,,,,,FEW,1800,BKN,14000,,,,,VFR,,,,,,,,,,,,METAR,20.0
WMSA 111900Z 00000KT 9000 FEW017CB 25/24 Q1010,WMSA,2020-12-11T19:00:00Z,3.13,101.55,25.0,24.0,0,0,,5.59,29.822834,,,,,,,,,,,FEW,1700,,,,,,,VFR,,,,,,,,,,,,METAR,19.0
WMKN 111900Z VRB02KT 7000 -RA SCT022 25/24 Q1009,WMKN,2020-12-11T19:00:00Z,5.37,103.1,25.0,24.0,0,2,,4.35,29.793306,,,,,,,,,,-RA,SCT,2200,,,,,,,MVFR,,,,,,,,,,,,METAR,12.0
WMKL 111900Z VRB02KT 9999 FEW017CB 26/24 Q1010,WMKL,2020-12-11T19:00:00Z,6.32,99.72,26.0,24.0,0,2,,6.21,29.822834,,,,,,,,,,,FEW,1700,,,,,,,VFR,,,,,,,,,,,,METAR,4.0
WMKJ 111900Z 00000KT 9999 FEW022 26/24 Q1009,WMKJ,2020-12-11T19:00:00Z,1.63,103.67,26.0,24.0,0,0,,6.21,29.793306,,,,,,,,,,,FEW,2200,,,,,,,VFR,,,,,,,,,,,,METAR,38.0
WMKI 111900Z 03003KT 010V070 7000 FEW006 SCT026 24/24 Q1010,WMKI,2020-12-11T19:00:00Z,4.57,101.08,24.0,24.0,30,3,,4.35,29.822834,,,,,,,,,,,FEW,600,SCT,2600,,,,,MVFR,,,,,,,,,,,,METAR,37.0
WMKE 111900Z AUTO 00000KT //// // ////// 24/24 Q1009,WMKE,2020-12-11T19:00:00Z,4.53,103.43,24.0,24.0,0,0,,,29.793306,,,TRUE,,,,,,,,,,,,,,,,,,,,,,,,,,,,METAR,5.0
WMKD 111900Z 00000KT 9999 FEW025 24/23 Q1009 NOSIG,WMKD,2020-12-11T19:00:00Z,3.77,103.22,24.0,23.0,0,0,,6.21,29.793306,,,,,,TRUE,,,,,FEW,2500,,,,,,,VFR,,,,,,,,,,,,METAR,18.0
WMKC 111900Z VRB02KT 9000 -RA FEW008 SCT020 24/24 Q1009 RETS,WMKC,2020-12-11T19:00:00Z,6.17,102.28,24.0,24.0,0,2,,5.59,29.793306,,,,,,,,,,-RA,FEW,800,SCT,2000,,,,,VFR,,,,,,,,,,,,METAR,7.0
WMKB 111900Z VRB03KT 5000 FEW024 25/24 Q1009 NOSIG,WMKB,2020-12-11T19:00:00Z,5.47,100.38,25.0,24.0,0,3,,3.11,29.793306,,,,,,TRUE,,,,,FEW,2400,,,,,,,MVFR,,,,,,,,,,,,METAR,4.0
WMKA 111900Z VRB02KT 6000 FEW010 25/24 Q1009,WMKA,2020-12-11T19:00:00Z,6.2,100.4,25.0,24.0,0,2,,3.73,29.793306,,,,,,,,,,,FEW,1000,,,,,,,MVFR,,,,,,,,,,,,METAR,5.0
WMBA 111900Z 00000KT 9000 FEW032 25/24 Q1009,WMBA,2020-12-11T19:00:00Z,4.22,100.7,25.0,24.0,0,0,,5.59,29.793306,,,,,,,,,,,FEW,3200,,,,,,,VFR,,,,,,,,,,,,METAR,9.0
WMAU 111900Z AUTO VRB03KT //// // ////// 25/25 Q1009,WMAU,2020-12-11T19:00:00Z,2.38,103.88,25.0,25.0,0,3,,,29.793306,,,TRUE,,,,,,,,,,,,,,,,,,,,,,,,,,,,METAR,5.0
WBKW 111900Z VRB02KT 9999 FEW016 23/22 Q1009,WBKW,2020-12-11T19:00:00Z,4.32,118.12,23.0,22.0,0,2,,6.21,29.793306,,,,,,,,,,,FEW,1600,,,,,,,VFR,,,,,,,,,,,,METAR,17.0
WBKT 111900Z 13004KT 050V190 9999 FEW013 27/25 Q1008,WBKT,2020-12-11T19:00:00Z,6.92,116.83,27.0,25.0,130,4,,6.21,29.763779,,,,,,,,,,,FEW,1300,,,,,,,VFR,,,,,,,,,,,,METAR,11.0
WBKS 111900Z 00000KT 9999 FEW015 26/25 Q1008,WBKS,2020-12-11T19:00:00Z,5.9,118.07,26.0,25.0,0,0,,6.21,29.763779,,,,,,,,,,,FEW,1500,,,,,,,VFR,,,,,,,,,,,,METAR,13.0
WBKL 111900Z 00000KT 9999 -RA SCT012 25/24 Q1008 RERA,WBKL,2020-12-11T19:00:00Z,5.3,115.25,25.0,24.0,0,0,,6.21,29.763779,,,,,,,,,,-RA,SCT,1200,,,,,,,VFR,,,,,,,,,,,,METAR,29.0
WBGY 111900Z AUTO VRB02KT //// // ////// 23/23 Q1009,WBGY,2020-12-11T19:00:00Z,1.22,111.45,23.0,23.0,0,2,,,29.793306,,,TRUE,,,,,,,,,,,,,,,,,,,,,,,,,,,,METAR,13.0
WBGS 111900Z VRB02KT 9999 FEW007 SCT018 24/23 Q1008,WBGS,2020-12-11T19:00:00Z,2.27,111.98,24.0,23.0,0,2,,6.21,29.763779,,,,,,,,,,,FEW,700,SCT,1800,,,,,VFR,,,,,,,,,,,,METAR,26.0
WBGR 111900Z 22010KT 180V250 2000 +RA SCT014 24/24 Q1008,WBGR,2020-12-11T19:00:00Z,4.32,113.98,24.0,24.0,220,10,,1.24,29.763779,,,,,,,,,,+RA,SCT,1400,,,,,,,IFR,,,,,,,,,,,,METAR,18.0
WBGB 111900Z 13004KT 090V160 9999 SCT016 24/24 Q1008,WBGB,2020-12-11T19:00:00Z,3.12,113.02,24.0,24.0,130,4,,6.21,29.763779,,,,,,,,,,,SCT,1600,,,,,,,VFR,,,,,,,,,,,,METAR,34.0
VTUU 111900Z 02004KT CAVOK 22/20 Q1011 NOSIG,VTUU,2020-12-11T19:00:00Z,15.25,104.87,22.0,20.0,20,4,,6.21,29.852362,,,,,,TRUE,,,,,CAVOK,,,,,,,,VFR,,,,,,,,,,,,METAR,123.0
VTUK 111900Z 07004KT 010V170 8000 NSC 22/18 Q1012 NOSIG,VTUK,2020-12-11T19:00:00Z,16.47,102.78,22.0,18.0,70,4,,4.97,29.88189,,,,,,TRUE,,,,,CLR,,,,,,,,MVFR,,,,,,,,,,,,METAR,190.0
VTSG 111900Z 03003KT 340V080 9999 FEW020 24/23 Q1010 NOSIG,VTSG,2020-12-11T19:00:00Z,8.1,98.98,24.0,23.0,30,3,,6.21,29.822834,,,,,,TRUE,,,,,FEW,2000,,,,,,,VFR,,,,,,,,,,,,METAR,32.0
VTCT 111900Z 33001KT 5000 BR NSC 15/15 Q1013 NOSIG,VTCT,2020-12-11T19:00:00Z,19.95,99.88,15.0,15.0,330,1,,3.11,29.911417,,,,,,TRUE,,,,BR,CLR,,,,,,,,MVFR,,,,,,,,,,,,METAR,389.0
VRMM 111900Z 06005KT 9999 FEW018TCU SCT120 BKN260 28/25 Q1011 TEMPO 5000 TSRA,VRMM,2020-12-11T19:00:00Z,4.2,73.52,28.0,25.0,60,5,,6.21,29.852362,,,,,,,,,,,FEW,1800,SCT,12000,BKN,26000,,,VFR,,,,,,,,,,,,METAR,2.0
VOTR 111900Z 04003KT 3000 BR FEW016 23/22 Q1013 TEMPO 2000 BR,VOTR,2020-12-11T19:00:00Z,10.77,78.72,23.0,22.0,40,3,,1.86,29.911417,,,,,,,,,,BR,FEW,1600,,,,,,,IFR,,,,,,,,,,,,METAR,90.0
VERC 111900Z 00000KT 3000 HZ NSC 16/11 Q1017 NOSIG,VERC,2020-12-11T19:00:00Z,23.32,85.32,16.0,11.0,0,0,,1.86,30.029528,,,,,,TRUE,,,,HZ,CLR,,,,,,,,IFR,,,,,,,,,,,,METAR,646.0
VEGY 111900Z 00000KT 0800 FG FEW020 SCT100 17/15 Q1014,VEGY,2020-12-11T19:00:00Z,24.75,84.95,17.0,15.0,0,0,,0.5,29.940945,,,,,,,,,,FG,FEW,2000,SCT,10000,,,,,LIFR,,,,,,,,,,,,METAR,115.0
VEGT 111900Z 00000KT 3000 BR FEW018 SCT100 17/16 Q1014 NOSIG,VEGT,2020-12-11T19:00:00Z,26.1,91.58,17.0,16.0,0,0,,1.86,29.940945,,,,,,TRUE,,,,BR,FEW,1800,SCT,10000,,,,,IFR,,,,,,,,,,,,METAR,50.0
VEBS 111900Z 00000KT 2200 BR NSC 21/20 Q1013 NOSIG,VEBS,2020-12-11T19:00:00Z,20.25,85.82,21.0,20.0,0,0,,1.37,29.911417,,,,,,TRUE,,,,BR,CLR,,,,,,,,IFR,,,,,,,,,,,,METAR,42.0
VEBN 111900Z 06005KT 1200 DZ FEW025 SCT100 18/16 Q1014 BECMG 0800 MIFG,VEBN,2020-12-11T19:00:00Z,25.45,82.85,18.0,16.0,60,5,,0.75,29.940945,,,,,,,,,,DZ,FEW,2500,SCT,10000,,,,,LIFR,,,,,,,,,,,,METAR,81.0
VANP 111900Z 00000KT 3000 HZ NSC 19/12 Q1015 NOSIG,VANP,2020-12-11T19:00:00Z,21.08,79.05,19.0,12.0,0,0,,1.86,29.970472,,,,,,TRUE,,,,HZ,CLR,,,,,,,,IFR,,,,,,,,,,,,METAR,309.0
UWOR 111900Z 02001MPS 9999 SCT005 M20/M24 Q1042 R25/450145 NOSIG RMK QBB150 QFE757/1010,UWOR,2020-12-11T19:00:00Z,51.07,58.6,-20.0,-24.0,20,2,,6.21,30.767717,,,,,,TRUE,,,,,SCT,500,,,,,,,VFR,,,,,,,,,,,,SPECI,270.0
UWLW 111900Z 17003MPS 8000 OVC020 M15/M17 Q1041 R20/820555 NOSIG RMK QFE775,UWLW,2020-12-11T19:00:00Z,54.4,48.8,-15.0,-17.0,170,6,,4.97,30.73819,,,,,,TRUE,,,,,OVC,2000,,,,,,,MVFR,,,,,,,,,,,,METAR,67.0
UUMO 111900Z 13002MPS CAVOK M09/M12 Q1031 R07/090060 NOSIG RMK QFE758/1011,UUMO,2020-12-11T19:00:00Z,55.52,37.5,-9.0,-12.0,130,4,,6.21,30.442913,,,,,,TRUE,,,,,CAVOK,,,,,,,,VFR,,,,,,,,,,,,METAR,167.0
UUBC 111900Z AUTO 12003MPS 9999 // NCD M08/M12 Q1029 RMK QFE753/1005,UUBC,2020-12-11T19:00:00Z,54.55,36.37,-8.0,-12.0,120,6,,6.21,30.383858,,,TRUE,,,,,,,,CLR,,,,,,,,VFR,,,,,,,,,,,,METAR,198.0
UTFN 111900Z 31002KT 1100 R28/P2000N BR NSC M01/M03 Q1026 R28/CLRD70 NOSIG,UTFN,2020-12-11T19:00:00Z,40.98,71.57,-1.0,-3.0,310,2,,0.68,30.295275,,,,,,TRUE,,,,BR,CLR,,,,,,,,LIFR,,,,,,,,,,,,METAR,477.0
UTAV 111900Z 26002KT 8000 FEW050 BKN100 M02/M05 Q1029 R31/CLRD70 NOSIG,UTAV,2020-12-11T19:00:00Z,39.08,63.62,-2.0,-5.0,260,2,,4.97,30.383858,,,,,,TRUE,,,,,FEW,5000,BKN,10000,,,,,MVFR,,,,,,,,,,,,METAR,187.0
UTAT 111900Z 02008KT CAVOK M05/M11 Q1031 R08/CLRD70 NOSIG,UTAT,2020-12-11T19:00:00Z,41.77,59.83,-5.0,-11.0,20,8,,6.21,30.442913,,,,,,TRUE,,,,,CAVOK,,,,,,,,VFR,,,,,,,,,,,,METAR,84.0
UTAM 111900Z 34006KT 6000 OVC026 M01/M03 Q1031 R88/CLRD70 NOSIG,UTAM,2020-12-11T19:00:00Z,37.62,61.9,-1.0,-3.0,340,6,,3.73,30.442913,,,,,,TRUE,,,,,OVC,2600,,,,,,,MVFR,,,,,,,,,,,,METAR,218.0
UTAK 111900Z 10008KT CAVOK M05/M08 Q1031 R16R/CLRD70 NOSIG,UTAK,2020-12-11T19:00:00Z,40.05,53.0,-5.0,-8.0,100,8,,6.21,30.442913,,,,,,TRUE,,,,,CAVOK,,,,,,,,VFR,,,,,,,,,,,,METAR,83.0
UTAA 111900Z 27002KT 9000 -SN OVC012 M05/M06 Q1031 R12L///0028 R12R/490540 NOSIG,UTAA,2020-12-11T19:00:00Z,37.98,58.37,-5.0,-6.0,270,2,,5.59,30.442913,,,,,,TRUE,,,,-SN,OVC,1200,,,,,,,MVFR,,,,,,,,,,,,METAR,207.0
URMN 111900Z 29002MPS 9999 OVC016 M01/M03 Q1019 R24/////// NOSIG RMK MT OBSC QFE728,URMN,2020-12-11T19:00:00Z,43.52,43.63,-1.0,-3.0,290,4,,6.21,30.088583,,,,,,TRUE,,,,,OVC,1600,,,,,,,MVFR,,,,,,,,,,,,METAR,424.0
UOOO 111900Z 17012MPS 0700 R19/1800D -SN BLSN NSC M25/M28 Q1020 R19/32//55 NOSIG RMK QFE749/0999,UOOO,2020-12-11T19:00:00Z,69.32,87.33,-25.0,-28.0,170,23,,0.43,30.11811,,,,,,TRUE,,,,BLSN -SN,CLR,,,,,,,,LIFR,,,,,,,,,,,,METAR,177.0
UMGG 111900Z 11006MPS CAVOK M04/M07 Q1022 R10/290050 NOSIG,UMGG,2020-12-11T19:00:00Z,52.53,31.02,-4.0,-7.0,110,12,,6.21,30.177166,,,,,,TRUE,,,,,CAVOK,,,,,,,,VFR,,,,,,,,,,,,METAR,135.0
ULPB 111900Z AUTO 10002MPS 1800 SN ///020/// M05/M06 Q1023 RMK QFE764/1018,ULPB,2020-12-11T19:00:00Z,61.88,34.15,-5.0,-6.0,100,4,,1.12,30.206694,,,TRUE,,,,,,,SN,,,,,,,,,,,,,,,,,,,,,METAR,41.0
UKDR 111900Z 10007MPS 050V130 CAVOK M01/M04 Q1017 R36/09//65 NOSIG,UKDR,2020-12-11T19:00:00Z,48.05,33.22,-1.0,-4.0,100,14,,6.21,30.029528,,,,,,TRUE,,,,,CAVOK,,,,,,,,VFR,,,,,,,,,,,,METAR,119.0
UKDD 111900Z 11010MPS 9999 BKN019 M00/M05 Q1020 R08/090070 NOSIG,UKDD,2020-12-11T19:00:00Z,48.37,35.1,0.0,-5.0,110,19,,6.21,30.11811,,,,,,TRUE,,,,,BKN,1900,,,,,,,MVFR,,,,,,,,,,,,METAR,147.0
UHMM 111900Z 09001MPS 9999 NSC M35/M38 Q1012 RMK QFE744 R28/10002MPS,UHMM,2020-12-11T19:00:00Z,59.92,150.72,-35.0,-38.0,90,2,,6.21,29.88189,,,,,,,,,,,CLR,,,,,,,,VFR,,,,,,,,,,,,METAR,175.0
UHMA 111900Z 04010MPS 9999 -SN SCT022 M10/M14 Q1022 R01/////// NOSIG RMK TDZ R01/04010G11MPS END R01/05012G15MPS QFE763/1017,UHMA,2020-12-11T19:00:00Z,64.73,177.73,-10.0,-14.0,40,19,,6.21,30.177166,,,,,,TRUE,,,,-SN,SCT,2200,,,,,,,VFR,,,,,,,,,,,,METAR,53.0
UHBB 111900Z 27002MPS 9999 SCT026 M19/M22 Q1016 R36/490250 NOSIG RMK QFE744/0992,UHBB,2020-12-11T19:00:00Z,50.43,127.42,-19.0,-22.0,270,4,,6.21,30.0,,,,,,TRUE,,,,,SCT,2600,,,,,,,VFR,,,,,,,,,,,,METAR,185.0
UERR 111900Z 00000MPS 1000 BR NSC M43/M47 Q1023 R25/490232 NOSIG RMK QFE736/0981,UERR,2020-12-11T19:00:00Z,62.53,114.05,-43.0,-47.0,0,0,,0.62,30.206694,,,,,,TRUE,,,,BR,CLR,,,,,,,,LIFR,,,,,,,,,,,,SPECI,352.0
UERP 111900Z 28003MPS CAVOK M37/M41 Q1019 NOSIG RMK QFE720,UERP,2020-12-11T19:00:00Z,66.4,112.03,-37.0,-41.0,280,6,,6.21,30.088583,,,,,,TRUE,,,,,CAVOK,,,,,,,,VFR,,,,,,,,,,,,SPECI,514.0
UCFL 111900Z 35005MPS 9999 SCT100 M03/M08 Q1022 R07/CLRD95,UCFL,2020-12-11T19:00:00Z,42.58,76.7,-3.0,-8.0,350,10,,6.21,30.177166,,,,,,,,,,,SCT,10000,,,,,,,VFR,,,,,,,,,,,,METAR,1654.0
UBBY 111900Z 34004KT 9999 OVC037 01/01 Q1031 R33/////// NOSIG RMK MT OBSC,UBBY,2020-12-11T19:00:00Z,41.57,46.67,1.0,1.0,340,4,,6.21,30.442913,,,,,,TRUE,,,,,OVC,3700,,,,,,,VFR,,,,,,,,,,,,METAR,383.0
UBBQ 111900Z 33002KT 7000 OVC039 02/01 Q1028 R34/////// NOSIG RMK MT OBSC,UBBQ,2020-12-11T19:00:00Z,40.82,47.72,2.0,1.0,330,2,,4.35,30.35433,,,,,,TRUE,,,,,OVC,3900,,,,,,,MVFR,,,,,,,,,,,,METAR,339.0
UBBN 111900Z 12006KT 9999 FEW040 SCT090 01/M02 Q1022 R14R/CLRD// NOSIG RMK MT OP QFE691,UBBN,2020-12-11T19:00:00Z,39.18,45.45,1.0,-2.0,120,6,,6.21,30.177166,,,,,,TRUE,,,,,FEW,4000,SCT,9000,,,,,VFR,,,,,,,,,,,,SPECI,857.0
UBBL 111900Z 32008KT 6000 -RA OVC020 05/05 Q1029 R33/CLRD// NOSIG RMK MT OBSC,UBBL,2020-12-11T19:00:00Z,38.75,48.82,5.0,5.0,320,8,,3.73,30.383858,,,,,,TRUE,,,,-RA,OVC,2000,,,,,,,MVFR,,,,,,,,,,,,METAR,-11.0
UASK 111900Z 31001MPS 3500 BR BKN005 M23/M25 Q1041 R12/850238 NOSIG RMK QBB150 QFE755/1006,UASK,2020-12-11T19:00:00Z,50.03,82.5,-23.0,-25.0,310,2,,2.17,30.73819,,,,,,TRUE,,,,BR,BKN,500,,,,,,,IFR,,,,,,,,,,,,METAR,285.0
UARR 111900Z 12003MPS 9999 BKN014 M13/M14 Q1042 R04/420060 NOSIG RMK QFE778/1037,UARR,2020-12-11T19:00:00Z,51.15,51.53,-13.0,-14.0,120,6,,6.21,30.767717,,,,,,TRUE,,,,,BKN,1400,,,,,,,MVFR,,,,,,,,,,,,METAR,33.0
UAOO 111900Z 05006MPS CAVOK M10/M11 Q1033 NOSIG RMK QFE763/1017,UAOO,2020-12-11T19:00:00Z,44.7,65.6,-10.0,-11.0,50,12,,6.21,30.501968,,,,,,TRUE,,,,,CAVOK,,,,,,,,VFR,,,,,,,,,,,,METAR,130.0
TVSA 111900Z 07008KT 040V100 9999 SCT022 27/22 Q1011 NOSIG ,TVSA,2020-12-11T19:00:00Z,13.15,-61.15,27.0,22.0,70,8,,6.21,29.852362,,,,,,TRUE,,,,,SCT,2200,,,,,,,VFR,,,,,,,,,,,,METAR,3.0
TUPJ 111900Z 09008KT 10SM VCSH BKN018 27/23 A2994 RMK Q1014 VIS16KM VCSH NW,TUPJ,2020-12-11T19:00:00Z,18.43,-64.53,27.0,23.0,90,8,,10.0,29.940945,,,,,,,,,,VCSH,BKN,1800,,,,,,,MVFR,,,,,,,,,,,,SPECI,6.0
TTPP 111900Z 11009KT 9999 VCSH SCT018 30/22 Q1010 NOSIG,TTPP,2020-12-11T19:00:00Z,10.58,-61.35,30.0,22.0,110,9,,6.21,29.822834,,,,,,TRUE,,,,VCSH,SCT,1800,,,,,,,VFR,,,,,,,,,,,,METAR,11.0
TTCP 111900Z 11011KT 9999 FEW022 30/23 Q1010 NOSIG,TTCP,2020-12-11T19:00:00Z,11.15,-60.85,30.0,23.0,110,11,,6.21,29.822834,,,,,,TRUE,,,,,FEW,2200,,,,,,,VFR,,,,,,,,,,,,METAR,13.0
TRPG 111900Z 08008KT 010V130 9999 BKN017 27/23 Q1014,TRPG,2020-12-11T19:00:00Z,16.78,-62.2,27.0,23.0,80,8,,6.21,29.940945,,,,,,,,,,,BKN,1700,,,,,,,MVFR,,,,,,,,,,,,METAR,170.0
TQPF 111900Z 09014KT 9999 FEW017 27/23 Q1013,TQPF,2020-12-11T19:00:00Z,18.2,-63.05,27.0,23.0,90,14,,6.21,29.911417,,,,,,,,,,,FEW,1700,,,,,,,VFR,,,,,,,,,,,,METAR,33.0
TNCM 111900Z 06007KT 9999 SHRA SCT016 28/24 Q1014 NOSIG ,TNCM,2020-12-11T19:00:00Z,18.05,-63.12,28.0,24.0,60,7,,6.21,29.940945,,,,,,TRUE,,,,SHRA,SCT,1600,,,,,,,VFR,,,,,,,,,,,,METAR,9.0
TNCC 111900Z 10011KT 9999 FEW028 29/20 Q1010 NOSIG,TNCC,2020-12-11T19:00:00Z,12.2,-68.97,29.0,20.0,100,11,,6.21,29.822834,,,,,,TRUE,,,,,FEW,2800,,,,,,,VFR,,,,,,,,,,,,METAR,10.0
TNCA 111900Z 09013KT 9999 FEW025 30/23 Q1010 NOSIG,TNCA,2020-12-11T19:00:00Z,12.5,-70.0,30.0,23.0,90,13,,6.21,29.822834,,,,,,TRUE,,,,,FEW,2500,,,,,,,VFR,,,,,,,,,,,,METAR,7.0
TLPL 111900Z 06009KT 9999 SCT028 28/23 Q1012 NOSIG,TLPL,2020-12-11T19:00:00Z,13.75,-60.95,28.0,23.0,60,9,,6.21,29.88189,,,,,,TRUE,,,,,SCT,2800,,,,,,,VFR,,,,,,,,,,,,METAR,13.0
TLPC 111900Z 07007KT 9999 FEW026 29/23 Q1012 NOSIG,TLPC,2020-12-11T19:00:00Z,14.02,-61.0,29.0,23.0,70,7,,6.21,29.88189,,,,,,TRUE,,,,,FEW,2600,,,,,,,VFR,,,,,,,,,,,,METAR,8.0
TKPN 111900Z 08012KT 9999 SCT020 28/23 Q1013,TKPN,2020-12-11T19:00:00Z,17.2,-62.58,28.0,23.0,80,12,,6.21,29.911417,,,,,,,,,,,SCT,2000,,,,,,,VFR,,,,,,,,,,,,METAR,12.0
TKPK 111900Z 05010KT 9999 -SHRA SCT016 26/23 Q1013,TKPK,2020-12-11T19:00:00Z,17.3,-62.72,26.0,23.0,50,10,,6.21,29.911417,,,,,,,,,,-SHRA,SCT,1600,,,,,,,VFR,,,,,,,,,,,,METAR,62.0
TGPY 111900Z 11028KT 9999 -SHRA VCSH BKN016 SCT035 28/24 Q1011 NOSIG ADJ SHRA-ENE-SW,TGPY,2020-12-11T19:00:00Z,12.0,-61.78,28.0,24.0,110,28,,6.21,29.852362,,,,,,TRUE,,,,-SHRA VCSH SHRA,BKN,1600,SCT,3500,,,,,MVFR,,,,,,,,,,,,METAR,12.0
TDPD 111900Z 10008KT 9999 BKN017 27/23 Q1013,TDPD,2020-12-11T19:00:00Z,15.55,-61.3,27.0,23.0,100,8,,6.21,29.911417,,,,,,,,,,,BKN,1700,,,,,,,MVFR,,,,,,,,,,,,METAR,13.0
TDCF 111900Z 29002KT 9999 BKN015 30/24 Q1011,TDCF,2020-12-11T19:00:00Z,15.33,-61.4,30.0,24.0,290,2,,6.21,29.852362,,,,,,,,,,,BKN,1500,,,,,,,MVFR,,,,,,,,,,,,METAR,4.0
TBPB 111900Z 09013KT 9999 +SHRA SCT018 29/23 Q1011 NOSIG,TBPB,2020-12-11T19:00:00Z,13.07,-59.48,29.0,23.0,90,13,,6.21,29.852362,,,,,,TRUE,,,,+SHRA,SCT,1800,,,,,,,VFR,,,,,,,,,,,,METAR,55.0
TAPA 111900Z 08008KT 9999 VCSH SCT017TCU 27/22 Q1013 NOSIG,TAPA,2020-12-11T19:00:00Z,17.13,-61.78,27.0,22.0,80,8,,6.21,29.911417,,,,,,TRUE,,,,VCSH,SCT,1700,,,,,,,VFR,,,,,,,,,,,,METAR,15.0
SYEC 111900Z 08014KT 9999 BKN19 30/25 Q1009 NOSIG,SYEC,2020-12-11T19:00:00Z,6.8,-58.1,30.0,25.0,80,14,,6.21,29.793306,,,,,,TRUE,,,,,,,,,,,,,,,,,,,,,,,,,METAR,10.0
SYCJ 111900Z 06012KT 9999 SCT020 SCT100 30/23 Q1009 NOSIG,SYCJ,2020-12-11T19:00:00Z,6.5,-58.25,30.0,23.0,60,12,,6.21,29.793306,,,,,,TRUE,,,,,SCT,2000,SCT,10000,,,,,VFR,,,,,,,,,,,,METAR,30.0
SUMU 111900Z 22007KT CAVOK 22/14 Q1007 NOSIG,SUMU,2020-12-11T19:00:00Z,-34.83,-56.02,22.0,14.0,220,7,,6.21,29.734253,,,,,,TRUE,,,,,CAVOK,,,,,,,,VFR,,,,,,,,,,,,METAR,32.0
SULS 111900Z 21015KT 9999 FEW023 SCT070 BKN200 22/17 Q1006,SULS,2020-12-11T19:00:00Z,-34.87,-55.1,22.0,17.0,210,15,,6.21,29.704725,,,,,,,,,,,FEW,2300,SCT,7000,BKN,20000,,,VFR,,,,,,,,,,,,METAR,22.0
SUDU 111900Z 20014KT 9000 TS SCT030 FEW040CB BKN080 21/19 Q1007,SUDU,2020-12-11T19:00:00Z,-33.35,-56.5,21.0,19.0,200,14,,5.59,29.734253,,,,,,,,,,TS,SCT,3000,FEW,4000,BKN,8000,,,VFR,,,,,,,,,,,,METAR,91.0
SUCA 111900Z 22011KT 9999 FEW023 26/08 Q1007,SUCA,2020-12-11T19:00:00Z,-34.45,-57.77,26.0,8.0,220,11,,6.21,29.734253,,,,,,,,,,,FEW,2300,,,,,,,VFR,,,,,,,,,,,,METAR,26.0
SPYL 111900Z 21014KT CAVOK 26/17 Q1010 RMK BIRD HAZARD RWY 17/35 PP000,SPYL,2020-12-11T19:00:00Z,-4.57,-81.25,26.0,17.0,210,14,,6.21,29.822834,,,,,,,,,,,CAVOK,,,,,,,,VFR,,,,,,,,,,,,METAR,89.0
SPTU 111900Z 27005KT 180V350 9999 SCT025 30/23 Q1006 RMK BIRD HAZARD RWY 01/19 PP000,SPTU,2020-12-11T19:00:00Z,-12.62,-69.22,30.0,23.0,270,5,,6.21,29.704725,,,,,,,,,,,SCT,2500,,,,,,,VFR,,,,,,,,,,,,METAR,213.0
SPTN 111900Z 21009KT 170V250 CAVOK 24/14 Q1014 RMK PP000,SPTN,2020-12-11T19:00:00Z,-18.03,-70.28,24.0,14.0,210,9,,6.21,29.940945,,,,,,,,,,,CAVOK,,,,,,,,VFR,,,,,,,,,,,,METAR,459.0
SPST 111900Z 36003KT 9999 SCT015TCU BKN080 29/22 Q1008 RMK BIRD HAZARD RWY 17/35 RA CESO 1807Z PP009,SPST,2020-12-11T19:00:00Z,-6.52,-76.37,29.0,22.0,360,3,,6.21,29.763779,,,,,,,,,,,SCT,1500,BKN,8000,,,,,VFR,,,,,,,,,,,,METAR,282.0
SPSO 111900Z 22019KT CAVOK 23/17 Q1011 RMK BIRD HAZARD RWY 22/04 PP000,SPSO,2020-12-11T19:00:00Z,-13.73,-76.22,23.0,17.0,220,19,,6.21,29.852362,,,,,,,,,,,CAVOK,,,,,,,,VFR,,,,,,,,,,,,METAR,8.0
SPRU 111900Z 15010KT 9000 NSC 20/16 Q1011 RMK PP000,SPRU,2020-12-11T19:00:00Z,-8.08,-79.12,20.0,16.0,150,10,,5.59,29.852362,,,,,,,,,,,CLR,,,,,,,,VFR,,,,,,,,,,,,METAR,23.0
SPQU 111900Z 24010KT 210V290 CAVOK 20/00 Q1024 NOSIG RMK PP000,SPQU,2020-12-11T19:00:00Z,-16.33,-71.57,20.0,0.0,240,10,,6.21,30.236221,,,,,,TRUE,,,,,CAVOK,,,,,,,,VFR,,,,,,,,,,,,METAR,2527.0
SPQT 111900Z 06004KT 350V150 9999 VCSH BKN018 FEW020TCU 31/24 Q1007 NOSIG RMK TCU W BIRD HAZARD RWY 06/24 PP000,SPQT,2020-12-11T19:00:00Z,-3.78,-73.32,31.0,24.0,60,4,,6.21,29.734253,,,,,,TRUE,,,,VCSH,BKN,1800,FEW,2000,,,,,MVFR,,,,,,,,,,,,METAR,92.0
SPPY 111900Z 01012KT 9999 SCT025 SCT060 19/12 Q1024 RMK PP000,SPPY,2020-12-11T19:00:00Z,-6.22,-77.85,19.0,12.0,10,12,,6.21,30.236221,,,,,,,,,,,SCT,2500,SCT,6000,,,,,VFR,,,,,,,,,,,,METAR,2536.0
SPNC 111900Z 07005KT 9999 VCSH FEW030 OVC110 23/14 Q1018 RMK PP000,SPNC,2020-12-11T19:00:00Z,-9.87,-76.2,23.0,14.0,70,5,,6.21,30.059055,,,,,,,,,,VCSH,FEW,3000,OVC,11000,,,,,VFR,,,,,,,,,,,,METAR,1856.0
SPMS 111900Z 28005KT 9999 FEW010 BKN070 26/25 Q1008 RMK BIRD HAZARD RWY 09/27 PP000,SPMS,2020-12-11T19:00:00Z,-5.9,-76.12,26.0,25.0,280,5,,6.21,29.763779,,,,,,,,,,,FEW,1000,BKN,7000,,,,,VFR,,,,,,,,,,,,METAR,149.0
SPME 111900Z 29009KT 9999 BKN013 25/21 Q1010 RMK BIRD HAZARD RWY 32/14 PP000,SPME,2020-12-11T19:00:00Z,-3.55,-80.4,25.0,21.0,290,9,,6.21,29.822834,,,,,,,,,,,BKN,1300,,,,,,,MVFR,,,,,,,,,,,,METAR,26.0
SPJL 111900Z 11014KT 9999 SCT020 21/M08 Q1029 RMK PP000,SPJL,2020-12-11T19:00:00Z,-15.47,-70.15,21.0,-8.0,110,14,,6.21,30.383858,,,,,,,,,,,SCT,2000,,,,,,,VFR,,,,,,,,,,,,METAR,3837.0
SPJI 111900Z 20003KT 9999 SCT023 SCT080 31/24 Q1016 RMK PP000,SPJI,2020-12-11T19:00:00Z,-7.17,-76.72,31.0,24.0,200,3,,6.21,30.0,,,,,,,,,,,SCT,2300,SCT,8000,,,,,VFR,,,,,,,,,,,,METAR,363.0
SPJC 111900Z 19011KT 150V210 9999 FEW012 SCT025 23/17 Q1012 NOSIG RMK PP000,SPJC,2020-12-11T19:00:00Z,-12.02,-77.12,23.0,17.0,190,11,,6.21,29.88189,,,,,,TRUE,,,,,FEW,1200,SCT,2500,,,,,VFR,,,,,,,,,,,,METAR,26.0
SPHY 111900Z 35009KT 9999 FEW012 SCT050 17/08 Q1031 RMK BIRD HAZARD RWY03/21 PP000,SPHY,2020-12-11T19:00:00Z,-13.7,-73.35,17.0,8.0,350,9,,6.21,30.442913,,,,,,,,,,,FEW,1200,SCT,5000,,,,,VFR,,,,,,,,,,,,METAR,3553.0
SPHO 111900Z VRB06KT 9999 SCT050 26/04 Q1020 RMK PP000,SPHO,2020-12-11T19:00:00Z,-13.17,-74.22,26.0,4.0,0,6,,6.21,30.11811,,,,,,,,,,,SCT,5000,,,,,,,VFR,,,,,,,,,,,,METAR,2743.0
SPHI 111900Z 19018KT CAVOK 25/16 Q1011 RMK BIRD HAZARD RWY 19/01 PP000,SPHI,2020-12-11T19:00:00Z,-6.78,-79.82,25.0,16.0,190,18,,6.21,29.852362,,,,,,,,,,,CAVOK,,,,,,,,VFR,,,,,,,,,,,,METAR,33.0
SPGM 111900Z 14003KT 4000 -RABR BKN015 OVC070 22/22 Q1011 RMK PP010,SPGM,2020-12-11T19:00:00Z,-9.28,-76.0,22.0,22.0,140,3,,2.49,29.852362,,,,,,,,,,-RA BR,BKN,1500,OVC,7000,,,,,IFR,,,,,,,,,,,,METAR,643.0
SPEO 111900Z 20018KT CAVOK 22/18 Q1011 RMK PP000,SPEO,2020-12-11T19:00:00Z,-9.17,-78.52,22.0,18.0,200,18,,6.21,29.852362,,,,,,,,,,,CAVOK,,,,,,,,VFR,,,,,,,,,,,,METAR,13.0
SPCL 111900Z 22009KT 9999 BKN020 BKN070 28/24 Q1008 RMK BIRD HAZARD RWY 02/20 PP000,SPCL,2020-12-11T19:00:00Z,-8.38,-74.58,28.0,24.0,220,9,,6.21,29.763779,,,,,,,,,,,BKN,2000,BKN,7000,,,,,MVFR,,,,,,,,,,,,METAR,154.0
SMZO 111900Z 09008KT 9999 VCSH FEW018CB 31/22 Q1008 NOSIG,SMZO,2020-12-11T19:00:00Z,5.82,-55.18,31.0,22.0,90,8,,6.21,29.763779,,,,,,TRUE,,,,VCSH,FEW,1800,,,,,,,VFR,,,,,,,,,,,,METAR,7.0
SMJP 111900Z 30003KT 9999 VCSH FEW015CB SCT035 27/23 Q1008 RETS NOSIG,SMJP,2020-12-11T19:00:00Z,5.45,-55.18,27.0,23.0,300,3,,6.21,29.763779,,,,,,TRUE,,,,VCSH,FEW,1500,SCT,3500,,,,,VFR,,,,,,,,,,,,METAR,14.0
SLVR 111900Z 33014G26KT 9999 FEW013 SCT020 28/22 Q1006,SLVR,2020-12-11T19:00:00Z,-17.63,-63.13,28.0,22.0,330,14,26,6.21,29.704725,,,,,,,,,,,FEW,1300,SCT,2000,,,,,VFR,,,,,,,,,,,,METAR,377.0
SLTR 111900Z 31010KT 8000 VCSH SCT017 30/23 Q1006,SLTR,2020-12-11T19:00:00Z,-14.83,-64.92,30.0,23.0,310,10,,4.97,29.704725,,,,,,,,,,VCSH,SCT,1700,,,,,,,MVFR,,,,,,,,,,,,METAR,157.0
SLTJ 111900Z 10008KT 9999 FEW036 SCT200 30/09 Q1012,SLTJ,2020-12-11T19:00:00Z,-21.55,-64.72,30.0,9.0,100,8,,6.21,29.88189,,,,,,,,,,,FEW,3600,SCT,20000,,,,,VFR,,,,,,,,,,,,METAR,1850.0
SLSI 111900Z 33008KT 9999 BKN015 30/22 Q1007,SLSI,2020-12-11T19:00:00Z,-16.38,-60.95,30.0,22.0,330,8,,6.21,29.734253,,,,,,,,,,,BKN,1500,,,,,,,MVFR,,,,,,,,,,,,METAR,417.0
SLSA 111900Z 34010KT 8000 VCSH BKN017 FEW023CB BKN200 30/24 Q1006,SLSA,2020-12-11T19:00:00Z,-13.77,-65.43,30.0,24.0,340,10,,4.97,29.704725,,,,,,,,,,VCSH,BKN,1700,FEW,2300,BKN,20000,,,MVFR,,,,,,,,,,,,METAR,144.0
SLRY 111900Z 34006KT 9999 SCT017 31/22 Q1006,SLRY,2020-12-11T19:00:00Z,-14.3,-67.37,31.0,22.0,340,6,,6.21,29.704725,,,,,,,,,,,SCT,1700,,,,,,,VFR,,,,,,,,,,,,METAR,187.0
SLRI 111900Z 36010KT 8000 VCSH SCT017 FEW020CB BKN200 30/24 Q1008,SLRI,2020-12-11T19:00:00Z,-11.02,-66.08,30.0,24.0,360,10,,4.97,29.763779,,,,,,,,,,VCSH,SCT,1700,FEW,2000,BKN,20000,,,MVFR,,,,,,,,,,,,METAR,136.0
SLRB 111900Z 36015KT 9999 SCT020 36/22 Q1009,SLRB,2020-12-11T19:00:00Z,-18.32,-59.75,36.0,22.0,360,15,,6.21,29.793306,,,,,,,,,,,SCT,2000,,,,,,,VFR,,,,,,,,,,,,METAR,266.0
SLPS 111900Z 36008KT 9999 BKN015 34/22 Q1005,SLPS,2020-12-11T19:00:00Z,-18.98,-57.82,34.0,22.0,360,8,,6.21,29.675198,,,,,,,,,,,BKN,1500,,,,,,,MVFR,,,,,,,,,,,,METAR,136.0
SLOR 111900Z 09015KT 9999 FEW023 FEW025CB 23/03 Q1029,SLOR,2020-12-11T19:00:00Z,-17.97,-67.08,23.0,3.0,90,15,,6.21,30.383858,,,,,,,,,,,FEW,2300,FEW,2500,,,,,VFR,,,,,,,,,,,,METAR,3720.0
SLMG 111900Z 32012KT 9999 SCT017 30/23 Q1007,SLMG,2020-12-11T19:00:00Z,-13.27,-64.07,30.0,23.0,320,12,,6.21,29.734253,,,,,,,,,,,SCT,1700,,,,,,,VFR,,,,,,,,,,,,METAR,146.0
SLLP 111900Z 08008KT 030V140 9999 FEW023 FEW025CB 20/M02 Q1032,SLLP,2020-12-11T19:00:00Z,-16.52,-68.17,20.0,-2.0,80,8,,6.21,30.47244,,,,,,,,,,,FEW,2300,FEW,2500,,,,,VFR,,,,,,,,,,,,METAR,4061.0
SLJE 111900Z 36006KT 9999 SCT017 33/21 Q1009,SLJE,2020-12-11T19:00:00Z,-17.82,-60.75,33.0,21.0,360,6,,6.21,29.793306,,,,,,,,,,,SCT,1700,,,,,,,VFR,,,,,,,,,,,,METAR,286.0
SLET 111900Z 31016G28KT 9999 FEW012 SCT017 29/21 Q1005,SLET,2020-12-11T19:00:00Z,-17.8,-63.17,29.0,21.0,310,16,28,6.21,29.675198,,,,,,,,,,,FEW,1200,SCT,1700,,,,,VFR,,,,,,,,,,,,METAR,414.0
SLCP 111900Z 36004KT 9999 BKN017 27/21 Q1010,SLCP,2020-12-11T19:00:00Z,-16.15,-62.02,27.0,21.0,360,4,,6.21,29.822834,,,,,,,,,,,BKN,1700,,,,,,,MVFR,,,,,,,,,,,,METAR,502.0
SLCO 111900Z 29010KT 8000 VCSH SCT013 FEW020CB BKN200 29/24 Q1008,SLCO,2020-12-11T19:00:00Z,-11.03,-68.78,29.0,24.0,290,10,,4.97,29.763779,,,,,,,,,,VCSH,SCT,1300,FEW,2000,BKN,20000,,,MVFR,,,,,,,,,,,,METAR,238.0
SLCB 111900Z 13015KT 9999 FEW040 FEW043CB 33/M04 Q1013,SLCB,2020-12-11T19:00:00Z,-17.42,-66.18,33.0,-4.0,130,15,,6.21,29.911417,,,,,,,,,,,FEW,4000,FEW,4300,,,,,VFR,,,,,,,,,,,,METAR,2560.0
SLCA 111900Z 15005KT 9999 NSC 36/11 Q1005,SLCA,2020-12-11T19:00:00Z,-20.0,-63.53,36.0,11.0,150,5,,6.21,29.675198,,,,,,,,,,,CLR,,,,,,,,VFR,,,,,,,,,,,,METAR,796.0
SLAL 111900Z 06010KT 9999 FEW023 FEW030CB 24/02 Q1020,SLAL,2020-12-11T19:00:00Z,-19.23,-65.15,24.0,2.0,60,10,,6.21,30.11811,,,,,,,,,,,FEW,2300,FEW,3000,,,,,VFR,,,,,,,,,,,,METAR,3109.0
SKSP 111900Z 07008KT 020V100 9999 SCT017 30/24 Q1011 RMK A2986,SKSP,2020-12-11T19:00:00Z,12.58,-81.72,30.0,24.0,70,8,,6.21,29.852362,,,,,,,,,,,SCT,1700,,,,,,,VFR,,,,,,,,,,,,METAR,6.0
SKRG 111900Z 10008KT 9999 SCT020 SCT200 23/13 Q1022 NOSIG RMK A3020,SKRG,2020-12-11T19:00:00Z,6.17,-75.42,23.0,13.0,100,8,,6.21,30.177166,,,,,,TRUE,,,,,SCT,2000,SCT,20000,,,,,VFR,,,,,,,,,,,,METAR,2132.0
SKPE 111900Z 32006KT 9999 SCT023 27/18 Q1014 RMK A2995,SKPE,2020-12-11T19:00:00Z,4.82,-75.73,27.0,18.0,320,6,,6.21,29.940945,,,,,,,,,,,SCT,2300,,,,,,,VFR,,,,,,,,,,,,METAR,1341.0
SKLT 111900Z 05003KT 9999 SCT017 SCT100 31/25 Q1007 RMK A2974,SKLT,2020-12-11T19:00:00Z,-4.2,-69.93,31.0,25.0,50,3,,6.21,29.734253,,,,,,,,,,,SCT,1700,SCT,10000,,,,,VFR,,,,,,,,,,,,METAR,78.0
SKCL 111900Z 34008KT 8000 SCT020 29/19 Q1012 NOSIG RMK HZ A2988,SKCL,2020-12-11T19:00:00Z,3.53,-76.37,29.0,19.0,340,8,,4.97,29.88189,,,,,,TRUE,,,,,SCT,2000,,,,,,,MVFR,,,,,,,,,,,,METAR,967.0
SKCG 111900Z 34010KT 310V010 9999 FEW017 SCT200 31/24 Q1007 RMK A2974,SKCG,2020-12-11T19:00:00Z,10.43,-75.52,31.0,24.0,340,10,,6.21,29.734253,,,,,,,,,,,FEW,1700,SCT,20000,,,,,VFR,,,,,,,,,,,,METAR,6.0
SKCC 111900Z 36008KT 330V030 9999 SCT018 28/21 Q1011 RMK A2988,SKCC,2020-12-11T19:00:00Z,7.92,-72.52,28.0,21.0,360,8,,6.21,29.852362,,,,,,,,,,,SCT,1800,,,,,,,VFR,,,,,,,,,,,,SPECI,308.0
SKBQ 111900Z 01010KT 9999 FEW018 31/23 Q1007 NOSIG RMK A2978,SKBQ,2020-12-11T19:00:00Z,10.87,-74.77,31.0,23.0,10,10,,6.21,29.734253,,,,,,TRUE,,,,,FEW,1800,,,,,,,VFR,,,,,,,,,,,,METAR,23.0
SKBG 111900Z 32010KT 9999 SCT015 27/20 Q1012 RMK A2990,SKBG,2020-12-11T19:00:00Z,7.13,-73.18,27.0,20.0,320,10,,6.21,29.88189,,,,,,,,,,,SCT,1500,,,,,,,VFR,,,,,,,,,,,,METAR,1187.0
SGES 111900Z 03006KT 9999 FEW040TCU 35/18 Q1008,SGES,2020-12-11T19:00:00Z,-25.45,-54.85,35.0,18.0,30,6,,6.21,29.763779,,,,,,,,,,,FEW,4000,,,,,,,VFR,,,,,,,,,,,,METAR,256.0
SGEN 111900Z 34010KT 9999 FEW033 36/14 Q1006,SGEN,2020-12-11T19:00:00Z,-27.23,-55.83,36.0,14.0,340,10,,6.21,29.704725,,,,,,,,,,,FEW,3300,,,,,,,VFR,,,,,,,,,,,,METAR,202.0
SGAS 111900Z 01008KT 310V070 9999 FEW040 35/21 Q1007,SGAS,2020-12-11T19:00:00Z,-25.25,-57.52,35.0,21.0,10,8,,6.21,29.734253,,,,,,,,,,,FEW,4000,,,,,,,VFR,,,,,,,,,,,,METAR,83.0
SETU 111900Z 20010KT 9999 -TSRA FEW016CB BKN020 12/11 Q1029,SETU,2020-12-11T19:00:00Z,0.82,-77.7,12.0,11.0,200,10,,6.21,30.383858,,,,,,,,,,-TSRA,FEW,1600,BKN,2000,,,,,MVFR,,,,,,,,,,,,METAR,2936.0
SETN 111900Z 30010KT 9999 SCT030 BKN100 29/25 Q1009 RMK A2981,SETN,2020-12-11T19:00:00Z,0.98,-79.63,29.0,25.0,300,10,,6.21,29.793306,,,,,,,,,,,SCT,3000,BKN,10000,,,,,VFR,,,,,,,,,,,,METAR,10.0
SEST 111900Z 16016KT 9999 FEW020 BKN100 27/23 Q1009 RMK A2980,SEST,2020-12-11T19:00:00Z,-0.9,-89.62,27.0,23.0,160,16,,6.21,29.793306,,,,,,,,,,,FEW,2000,BKN,10000,,,,,VFR,,,,,,,,,,,,METAR,13.0
SESM 111900Z 21002KT 9999 SCT023 BKN100 25/21 Q1013 RMK A2991,SESM,2020-12-11T19:00:00Z,-1.5,-78.07,25.0,21.0,210,2,,6.21,29.911417,,,,,,,,,,,SCT,2300,BKN,10000,,,,,VFR,,,,,,,,,,,,METAR,1056.0
SESA 111900Z 23006KT 9999 SCT015 BKN030 25/20 Q1010 RMK A2985,SESA,2020-12-11T19:00:00Z,-2.2,-80.98,25.0,20.0,230,6,,6.21,29.822834,,,,,,,,,,,SCT,1500,BKN,3000,,,,,MVFR,,,,,,,,,,,,METAR,6.0
SERO 111900Z 31006KT 9999 FEW020 BKN070 26/22 Q1010,SERO,2020-12-11T19:00:00Z,-3.43,-79.98,26.0,22.0,310,6,,6.21,29.822834,,,,,,,,,,,FEW,2000,BKN,7000,,,,,VFR,,,,,,,,,,,,METAR,6.0
SERB 111900Z 08008KT 9999 BKN040 22/10 Q1025,SERB,2020-12-11T19:00:00Z,-1.65,-78.67,22.0,10.0,80,8,,6.21,30.265747,,,,,,,,,,,BKN,4000,,,,,,,VFR,,,,,,,,,,,,METAR,2788.0
SEQM 111900Z 36019KT 9999 SCT033 BKN300 20/13 Q1022 NOSIG RMK A3020,SEQM,2020-12-11T19:00:00Z,-0.12,-78.35,20.0,13.0,360,19,,6.21,30.177166,,,,,,TRUE,,,,,SCT,3300,BKN,30000,,,,,VFR,,,,,,,,,,,,METAR,2386.0
SENL 111900Z 19001KT 9999 SCT020 31/24 Q1009 RMK A2979,SENL,2020-12-11T19:00:00Z,0.1,-76.87,31.0,24.0,190,1,,6.21,29.793306,,,,,,,,,,,SCT,2000,,,,,,,VFR,,,,,,,,,,,,METAR,293.0
SEMT 111900Z 31006KT 9999 BKN020 27/22 Q1010 RMK A2982,SEMT,2020-12-11T19:00:00Z,-0.95,-80.67,27.0,22.0,310,6,,6.21,29.822834,,,,,,,,,,,BKN,2000,,,,,,,MVFR,,,,,,,,,,,,METAR,13.0
SEMC 111900Z 08007KT 9999 SCT030 SCT100 25/19 Q1014 RMK A2994,SEMC,2020-12-11T19:00:00Z,-2.3,-78.12,25.0,19.0,80,7,,6.21,29.940945,,,,,,,,,,,SCT,3000,SCT,10000,,,,,VFR,,,,,,,,,,,,METAR,1036.0
SELT 111900Z 17011KT 9999 SCT030 SCT070 17/08 Q1025,SELT,2020-12-11T19:00:00Z,-0.92,-78.62,17.0,8.0,170,11,,6.21,30.265747,,,,,,,,,,,SCT,3000,SCT,7000,,,,,VFR,,,,,,,,,,,,METAR,2779.0
SEJD 111900Z 05006KT 9999 SCT020 BKN100 30/25 Q1009 RMK A2980,SEJD,2020-12-11T19:00:00Z,-1.07,-77.58,30.0,25.0,50,6,,6.21,29.793306,,,,,,,,,,,SCT,2000,BKN,10000,,,,,VFR,,,,,,,,,,,,METAR,376.0
SEGU 111900Z 15005KT 110V170 9999 FEW023 BKN030 OVC100 27/21 Q1009 NOSIG RMK A2981,SEGU,2020-12-11T19:00:00Z,-2.15,-79.88,27.0,21.0,150,5,,6.21,29.793306,,,,,,TRUE,,,,,FEW,2300,BKN,3000,OVC,10000,,,MVFR,,,,,,,,,,,,METAR,6.0
SEGS 111900Z 14010KT 9999 FEW040 BKN090 28/21 Q1010 A2984,SEGS,2020-12-11T19:00:00Z,-0.45,-90.27,28.0,21.0,140,10,,6.21,29.822834,,,,,,,,,,,FEW,4000,BKN,9000,,,,,VFR,,,,,,,,,,,,METAR,51.0
SECU 111900Z 18004KT 9999 SCT040 BKN100 22/10 Q1021,SECU,2020-12-11T19:00:00Z,-2.88,-78.98,22.0,10.0,180,4,,6.21,30.147638,,,,,,,,,,,SCT,4000,BKN,10000,,,,,VFR,,,,,,,,,,,,METAR,2516.0
SECO 111900Z 07006KT 9999 BKN020 SCT300 31/23 Q1008 RMK A2978,SECO,2020-12-11T19:00:00Z,-0.45,-76.98,31.0,23.0,70,6,,6.21,29.763779,,,,,,,,,,,BKN,2000,SCT,30000,,,,,MVFR,,,,,,,,,,,,METAR,256.0
SECA 111900Z 24003KT 9999 FEW040 OVC200 27/17 Q1013,SECA,2020-12-11T19:00:00Z,-4.0,-79.37,27.0,17.0,240,3,,6.21,29.911417,,,,,,,,,,,FEW,4000,OVC,20000,,,,,VFR,,,,,,,,,,,,METAR,1237.0
SEAM 111900Z 00000KT 9999 SCT020 BKN100 21/11 Q1023,SEAM,2020-12-11T19:00:00Z,-1.2,-78.57,21.0,11.0,0,0,,6.21,30.206694,,,,,,,,,,,SCT,2000,BKN,10000,,,,,VFR,,,,,,,,,,,,METAR,2520.0
SCVM 111900Z 25013KT CAVOK 26/14 Q1014,SCVM,2020-12-11T19:00:00Z,-32.95,-71.48,26.0,14.0,250,13,,6.21,29.940945,,,,,,,,,,,CAVOK,,,,,,,,VFR,,,,,,,,,,,,METAR,136.0
SCVD 111900Z 28012KT 4500 +SHRA OVC020 12/12 Q1017,SCVD,2020-12-11T19:00:00Z,-39.65,-73.08,12.0,12.0,280,12,,2.8,30.029528,,,,,,,,,,+SHRA,OVC,2000,,,,,,,IFR,,,,,,,,,,,,METAR,19.0
SCTE 111900Z 34010KT 290V360 8000 -RA SCT010 OVC025 12/11 Q1013 NOSIG,SCTE,2020-12-11T19:00:00Z,-41.43,-73.08,12.0,11.0,340,10,,4.97,29.911417,,,,,,TRUE,,,,-RA,SCT,1000,OVC,2500,,,,,MVFR,,,,,,,,,,,,METAR,85.0
SCTB 111900Z 24007KT CAVOK 28/06 Q1015,SCTB,2020-12-11T19:00:00Z,-33.45,-70.53,28.0,6.0,240,7,,6.21,29.970472,,,,,,,,,,,CAVOK,,,,,,,,VFR,,,,,,,,,,,,METAR,655.0
SCSN 111900Z 23017KT CAVOK 19/10 Q1015 RMK FU 10NM NE,SCSN,2020-12-11T19:00:00Z,-33.65,-71.62,19.0,10.0,230,17,,6.21,29.970472,,,,,,,,,,,CAVOK,,,,,,,,VFR,,,,,,,,,,,,METAR,73.0
SCSE 111900Z 29015KT CAVOK 19/12 Q1014,SCSE,2020-12-11T19:00:00Z,-29.92,-71.2,19.0,12.0,290,15,,6.21,29.940945,,,,,,,,,,,CAVOK,,,,,,,,VFR,,,,,,,,,,,,METAR,141.0
SCRM 111900Z 34020KT 6000 VCFG BKN004 OVC015 02/01 Q0978 NOSIG,SCRM,2020-12-11T19:00:00Z,-62.18,-58.98,2.0,1.0,340,20,,3.73,28.877953,,,,,,TRUE,,,,VCFG,BKN,400,OVC,1500,,,,,LIFR,,,,,,,,,,,,METAR,45.0
SCRG 111900Z /////KT CAVOK 27/09 Q1015,SCRG,2020-12-11T19:00:00Z,-34.17,-70.77,27.0,9.0,,,,6.21,29.970472,,,,,,,,,,,CAVOK,,,,,,,,VFR,,,,,,,,,,,,METAR,488.0
SCRD 111900Z 15015KT CAVOK 23/08 Q1015,SCRD,2020-12-11T19:00:00Z,-33.07,-71.55,23.0,8.0,150,15,,6.21,29.970472,,,,,,,,,,,CAVOK,,,,,,,,VFR,,,,,,,,,,,,METAR,342.0
SCQP 111900Z 27013KT 240V300 9999 FEW033 BKN057 16/09 Q1018,SCQP,2020-12-11T19:00:00Z,-38.92,-72.65,16.0,9.0,270,13,,6.21,30.059055,,,,,,,,,,,FEW,3300,BKN,5700,,,,,VFR,,,,,,,,,,,,METAR,97.0
SCPQ 111900Z AUTO 34015G25KT 6000 -RA FEW008 11/09 Q1009,SCPQ,2020-12-11T19:00:00Z,-42.33,-73.72,11.0,9.0,340,15,25,3.73,29.793306,,,TRUE,,,,,,,-RA,FEW,800,,,,,,,MVFR,,,,,,,,,,,,METAR,166.0
SCON 111900Z 34010KT 310V010 5000 DZ BKN010 OVC070 12/11 Q1007,SCON,2020-12-11T19:00:00Z,-43.13,-73.62,12.0,11.0,340,10,,3.11,29.734253,,,,,,,,,,DZ,BKN,1000,OVC,7000,,,,,MVFR,,,,,,,,,,,,METAR,11.0
SCNT 111900Z 24012KT 210V280 9999 BKN050 14/05 Q0983,SCNT,2020-12-11T19:00:00Z,-51.67,-72.53,14.0,5.0,240,12,,6.21,29.02559,,,,,,,,,,,BKN,5000,,,,,,,VFR,,,,,,,,,,,,METAR,68.0
SCMK 111900Z 31013KT 6000 -RA SCT006 OVC016 12/11 Q1004,SCMK,2020-12-11T19:00:00Z,-43.9,-73.73,12.0,11.0,310,13,,3.73,29.64567,,,,,,,,,,-RA,SCT,600,OVC,1600,,,,,MVFR,,,,,,,,,,,,METAR,22.0
SCJO 111900Z 33013KT 8000 -RA SCT030 OVC040 14/10 Q1014,SCJO,2020-12-11T19:00:00Z,-40.6,-73.05,14.0,10.0,330,13,,4.97,29.940945,,,,,,,,,,-RA,SCT,3000,OVC,4000,,,,,MVFR,,,,,,,,,,,,METAR,61.0
SCIR 111900Z 20009KT 9999 BKN030 18/11 Q1022,SCIR,2020-12-11T19:00:00Z,-33.67,-78.93,18.0,11.0,200,9,,6.21,30.177166,,,,,,,,,,,BKN,3000,,,,,,,MVFR,,,,,,,,,,,,METAR,132.0
SCIP 111900Z 11015KT 060V130 9999 FEW033 24/15 Q1025 NOSIG,SCIP,2020-12-11T19:00:00Z,-27.17,-109.43,24.0,15.0,110,15,,6.21,30.265747,,,,,,TRUE,,,,,FEW,3300,,,,,,,VFR,,,,,,,,,,,,METAR,48.0
SCIE 111900Z 24012KT 9999 FEW015 18/08 Q1019,SCIE,2020-12-11T19:00:00Z,-36.77,-73.07,18.0,8.0,240,12,,6.21,30.088583,,,,,,,,,,,FEW,1500,,,,,,,VFR,,,,,,,,,,,,METAR,8.0
SCIC 111900Z 22007KT CAVOK 26/05 Q1014,SCIC,2020-12-11T19:00:00Z,-34.97,-71.22,26.0,5.0,220,7,,6.21,29.940945,,,,,,,,,,,CAVOK,,,,,,,,VFR,,,,,,,,,,,,METAR,230.0
SCHR 111900Z 27006KT 9999 FEW030 BKN035 11/09 Q0990,SCHR,2020-12-11T19:00:00Z,-47.23,-72.58,11.0,9.0,270,6,,6.21,29.232283,,,,,,,,,,,FEW,3000,BKN,3500,,,,,VFR,,,,,,,,,,,,METAR,203.0
SCGZ 111900Z 28009KT 9999 BKN043 BKN060 15/05 Q0979,SCGZ,2020-12-11T19:00:00Z,-54.93,-67.63,15.0,5.0,280,9,,6.21,28.90748,,,,,,,,,,,BKN,4300,BKN,6000,,,,,VFR,,,,,,,,,,,,METAR,21.0
SCGE 111900Z 32008KT 9999 SCT014 24/06 Q1017,SCGE,2020-12-11T19:00:00Z,-37.4,-72.42,24.0,6.0,320,8,,6.21,30.029528,,,,,,,,,,,SCT,1400,,,,,,,VFR,,,,,,,,,,,,METAR,122.0
SCFT 111900Z VRB09G19KT 4000 RA SCT013 OVC026 08/05 Q1007,SCFT,2020-12-11T19:00:00Z,-43.18,-71.85,8.0,5.0,0,9,19,2.49,29.734253,,,,,,,,,,RA,SCT,1300,OVC,2600,,,,,IFR,,,,,,,,,,,,METAR,345.0
SCFM 111900Z 30011KT 9999 FEW030 BKN040 BKN070 12/06 Q0982,SCFM,2020-12-11T19:00:00Z,-53.25,-70.32,12.0,6.0,300,11,,6.21,28.996063,,,,,,,,,,,FEW,3000,BKN,4000,BKN,7000,,,VFR,,,,,,,,,,,,METAR,28.0
SCFA 111900Z 21014KT 9999 FEW024 20/14 Q1013 NOSIG,SCFA,2020-12-11T19:00:00Z,-23.43,-70.43,20.0,14.0,210,14,,6.21,29.911417,,,,,,TRUE,,,,,FEW,2400,,,,,,,VFR,,,,,,,,,,,,METAR,113.0
SCEL 111900Z 21011KT CAVOK 30/07 Q1013 NOSIG,SCEL,2020-12-11T19:00:00Z,-33.38,-70.78,30.0,7.0,210,11,,6.21,29.911417,,,,,,TRUE,,,,,CAVOK,,,,,,,,VFR,,,,,,,,,,,,METAR,478.0
SCDA 111900Z 24011KT CAVOK 22/13 Q1013,SCDA,2020-12-11T19:00:00Z,-20.53,-70.17,22.0,13.0,240,11,,6.21,29.911417,,,,,,,,,,,CAVOK,,,,,,,,VFR,,,,,,,,,,,,METAR,41.0
SCCY 111900Z 23003KT 180V310 9999 -RA SCT025 OVC033 09/06 Q0997,SCCY,2020-12-11T19:00:00Z,-45.58,-72.1,9.0,6.0,230,3,,6.21,29.438976,,,,,,,,,,-RA,SCT,2500,OVC,3300,,,,,VFR,,,,,,,,,,,,METAR,301.0
SCCI 111900Z 31016KT 9999 BKN037 15/06 Q0981 NOSIG,SCCI,2020-12-11T19:00:00Z,-53.0,-70.85,15.0,6.0,310,16,,6.21,28.966536,,,,,,TRUE,,,,,BKN,3700,,,,,,,VFR,,,,,,,,,,,,METAR,37.0
SCCH 111900Z 27009KT CAVOK 24/07 Q1016,SCCH,2020-12-11T19:00:00Z,-36.57,-72.02,24.0,7.0,270,9,,6.21,30.0,,,,,,,,,,,CAVOK,,,,,,,,VFR,,,,,,,,,,,,METAR,148.0
SCCF 111900Z 27022KT CAVOK 24/M07 Q1022,SCCF,2020-12-11T19:00:00Z,-22.5,-68.9,24.0,-7.0,270,22,,6.21,30.177166,,,,,,,,,,,CAVOK,,,,,,,,VFR,,,,,,,,,,,,METAR,2290.0
SCCC 111900Z 26028G44KT 9999 SCT040 ///// Q0992,SCCC,2020-12-11T19:00:00Z,-46.58,-71.7,,,260,28,44,6.21,29.291338,,,,,,,,,,,SCT,4000,,,,,,,VFR,,,,,,,,,,,,METAR,305.0
SCBA 111900Z 28025KT 9999 -SHRA SCT023 BKN100 10/05 Q0996,SCBA,2020-12-11T19:00:00Z,-45.92,-71.68,10.0,5.0,280,25,,6.21,29.409449,,,,,,,,,,-SHRA,SCT,2300,BKN,10000,,,,,VFR,,,,,,,,,,,,METAR,516.0
SCAT 111900Z 25009KT 210V300 9999 FEW020 20/12 Q1013,SCAT,2020-12-11T19:00:00Z,-27.27,-70.77,20.0,12.0,250,9,,6.21,29.911417,,,,,,,,,,,FEW,2000,,,,,,,VFR,,,,,,,,,,,,METAR,209.0
SCAS 111900Z 06012KT 9999 -RA SCT016 OVC030 11/08 Q0999,SCAS,2020-12-11T19:00:00Z,-45.4,-72.67,11.0,8.0,60,12,,6.21,29.498032,,,,,,,,,,-RA,SCT,1600,OVC,3000,,,,,MVFR,,,,,,,,,,,,METAR,8.0
SCAR 111900Z 23011KT CAVOK 22/14 Q1013,SCAR,2020-12-11T19:00:00Z,-18.35,-70.33,22.0,14.0,230,11,,6.21,29.911417,,,,,,,,,,,CAVOK,,,,,,,,VFR,,,,,,,,,,,,METAR,57.0
SCAP 111900Z 20009KT 150V250 9999 -SHRA OVC040 09/05 Q1008,SCAP,2020-12-11T19:00:00Z,-43.62,-71.8,9.0,5.0,200,9,,6.21,29.763779,,,,,,,,,,-SHRA,OVC,4000,,,,,,,VFR,,,,,,,,,,,,METAR,252.0
SBYS 111900Z 30008KT 9999 -RA SCT037 OVC070 23/21 Q1015,SBYS,2020-12-11T19:00:00Z,-21.97,-47.33,23.0,21.0,300,8,,6.21,29.970472,,,,,,,,,,-RA,SCT,3700,OVC,7000,,,,,VFR,,,,,,,,,,,,METAR,600.0
SBVT 111900Z 16009KT 9999 BKN015 OVC070 26/23 Q1013,SBVT,2020-12-11T19:00:00Z,-20.25,-40.28,26.0,23.0,160,9,,6.21,29.911417,,,,,,,,,,,BKN,1500,OVC,7000,,,,,MVFR,,,,,,,,,,,,METAR,4.0
SBVH 111900Z 31011KT 9999 VCSH BKN030 FEW035TCU 29/20 Q1010,SBVH,2020-12-11T19:00:00Z,-12.68,-60.08,29.0,20.0,310,11,,6.21,29.822834,,,,,,,,,,VCSH,BKN,3000,FEW,3500,,,,,MVFR,,,,,,,,,,,,METAR,615.0
SBUR 111900Z 21007KT 9999 FEW020 23/20 Q1016,SBUR,2020-12-11T19:00:00Z,-19.77,-47.97,23.0,20.0,210,7,,6.21,30.0,,,,,,,,,,,FEW,2000,,,,,,,VFR,,,,,,,,,,,,METAR,807.0
SBUL 111900Z 36005KT 9999 VCSH FEW023 SCT027 FEW035TCU OVC100 23/17 Q1016,SBUL,2020-12-11T19:00:00Z,-18.87,-48.22,23.0,17.0,360,5,,6.21,30.0,,,,,,,,,,VCSH,FEW,2300,SCT,2700,FEW,3500,OVC,10000,VFR,,,,,,,,,,,,METAR,945.0
SBUF 111900Z 10010KT 9999 FEW023 37/11 Q1010,SBUF,2020-12-11T19:00:00Z,-9.4,-38.25,37.0,11.0,100,10,,6.21,29.822834,,,,,,,,,,,FEW,2300,,,,,,,VFR,,,,,,,,,,,,METAR,266.0
SBUA 111900Z 16002KT 9999 SCT025 FEW030TCU 30/23 Q1007,SBUA,2020-12-11T19:00:00Z,-0.15,-66.98,30.0,23.0,160,2,,6.21,29.734253,,,,,,,,,,,SCT,2500,FEW,3000,,,,,VFR,,,,,,,,,,,,METAR,73.0
SBTT 111900Z 18004KT 9999 SCT022 FEW023TCU 29/25 Q1007,SBTT,2020-12-11T19:00:00Z,-4.25,-69.93,29.0,25.0,180,4,,6.21,29.734253,,,,,,,,,,,SCT,2200,FEW,2300,,,,,VFR,,,,,,,,,,,,METAR,79.0
SBTF 111900Z 07008KT 9999 SCT020 32/24 Q1007,SBTF,2020-12-11T19:00:00Z,-3.37,-64.72,32.0,24.0,70,8,,6.21,29.734253,,,,,,,,,,,SCT,2000,,,,,,,VFR,,,,,,,,,,,,METAR,55.0
SBTE 111900Z 14007KT 9999 SCT040 36/17 Q1007,SBTE,2020-12-11T19:00:00Z,-5.05,-42.82,36.0,17.0,140,7,,6.21,29.734253,,,,,,,,,,,SCT,4000,,,,,,,VFR,,,,,,,,,,,,METAR,60.0
SBTC 111900Z 19007KT 9999 FEW020 30/23 Q1013,SBTC,2020-12-11T19:00:00Z,-15.35,-38.98,30.0,23.0,190,7,,6.21,29.911417,,,,,,,,,,,FEW,2000,,,,,,,VFR,,,,,,,,,,,,METAR,6.0
SBTA 111900Z 19005KT 4500 -TSRA FEW025CB SCT043 OVC100 24/19 Q1014,SBTA,2020-12-11T19:00:00Z,-23.03,-45.5,24.0,19.0,190,5,,2.8,29.940945,,,,,,,,,,-TSRA,FEW,2500,SCT,4300,OVC,10000,,,IFR,,,,,,,,,,,,METAR,578.0
SBSV 111900Z 07013KT CAVOK 29/21 Q1013,SBSV,2020-12-11T19:00:00Z,-12.9,-38.32,29.0,21.0,70,13,,6.21,29.911417,,,,,,,,,,,CAVOK,,,,,,,,VFR,,,,,,,,,,,,METAR,9.0
SBST 111900Z 00000KT 9999 -RA FEW008 SCT016 BKN099 25/23 Q1012,SBST,2020-12-11T19:00:00Z,-23.92,-46.3,25.0,23.0,0,0,,6.21,29.88189,,,,,,,,,,-RA,FEW,800,SCT,1600,BKN,9900,,,VFR,,,,,,,,,,,,METAR,5.0
SBSR 111900Z 36006KT 9999 SCT025 BKN070 26/16 Q1013,SBSR,2020-12-11T19:00:00Z,-20.8,-49.4,26.0,16.0,360,6,,6.21,29.911417,,,,,,,,,,,SCT,2500,BKN,7000,,,,,VFR,,,,,,,,,,,,METAR,537.0
SBSN 111900Z 10010KT 9999 FEW020 32/23 Q1008,SBSN,2020-12-11T19:00:00Z,-2.42,-54.78,32.0,23.0,100,10,,6.21,29.763779,,,,,,,,,,,FEW,2000,,,,,,,VFR,,,,,,,,,,,,METAR,57.0
SBSM 111900Z 31013KT 9999 SCT040 38/11 Q1005,SBSM,2020-12-11T19:00:00Z,-29.72,-53.7,38.0,11.0,310,13,,6.21,29.675198,,,,,,,,,,,SCT,4000,,,,,,,VFR,,,,,,,,,,,,METAR,86.0
SBSL 111900Z 04014KT 9999 FEW030 31/23 Q1008,SBSL,2020-12-11T19:00:00Z,-2.58,-44.23,31.0,23.0,40,14,,6.21,29.763779,,,,,,,,,,,FEW,3000,,,,,,,VFR,,,,,,,,,,,,METAR,53.0
SBSJ 111900Z 01007KT 4000 -RA BKN017 24/20 Q1015,SBSJ,2020-12-11T19:00:00Z,-23.22,-45.87,24.0,20.0,10,7,,2.49,29.970472,,,,,,,,,,-RA,BKN,1700,,,,,,,IFR,,,,,,,,,,,,METAR,640.0
SBSG 111900Z 17012G24KT 130V200 9999 SCT027 29/22 Q1011,SBSG,2020-12-11T19:00:00Z,-5.77,-35.37,29.0,22.0,170,12,24,6.21,29.852362,,,,,,,,,,,SCT,2700,,,,,,,VFR,,,,,,,,,,,,METAR,83.0
SBSC 111900Z 16009KT CAVOK 29/21 Q1012,SBSC,2020-12-11T19:00:00Z,-22.92,-43.72,29.0,21.0,160,9,,6.21,29.88189,,,,,,,,,,,CAVOK,,,,,,,,VFR,,,,,,,,,,,,METAR,6.0
SBRP 111900Z 32010KT 9999 BKN025 OVC100 25/19 Q1014,SBRP,2020-12-11T19:00:00Z,-21.13,-47.77,25.0,19.0,320,10,,6.21,29.940945,,,,,,,,,,,BKN,2500,OVC,10000,,,,,MVFR,,,,,,,,,,,,METAR,550.0
SBRJ 111900Z 17013KT 9999 FEW017 BKN100 25/23 Q1011,SBRJ,2020-12-11T19:00:00Z,-22.9,-43.17,25.0,23.0,170,13,,6.21,29.852362,,,,,,,,,,,FEW,1700,BKN,10000,,,,,VFR,,,,,,,,,,,,METAR,6.0
SBRF 111900Z 14012KT 9999 FEW025 27/18 Q1012,SBRF,2020-12-11T19:00:00Z,-8.13,-34.92,27.0,18.0,140,12,,6.21,29.88189,,,,,,,,,,,FEW,2500,,,,,,,VFR,,,,,,,,,,,,METAR,10.0
SBRB 111900Z 31008KT 270V360 9999 BKN025 BKN100 28/23 Q1009,SBRB,2020-12-11T19:00:00Z,-9.87,-67.88,28.0,23.0,310,8,,6.21,29.793306,,,,,,,,,,,BKN,2500,BKN,10000,,,,,MVFR,,,,,,,,,,,,METAR,190.0
SBPV 111900Z 01004KT 9999 FEW020 BKN100 28/23 Q1008,SBPV,2020-12-11T19:00:00Z,-8.72,-63.9,28.0,23.0,10,4,,6.21,29.763779,,,,,,,,,,,FEW,2000,BKN,10000,,,,,VFR,,,,,,,,,,,,METAR,89.0
SBPS 111900Z 06019KT 9999 FEW040 28/21 Q1013,SBPS,2020-12-11T19:00:00Z,-16.43,-39.07,28.0,21.0,60,19,,6.21,29.911417,,,,,,,,,,,FEW,4000,,,,,,,VFR,,,,,,,,,,,,METAR,44.0
SBPP 111900Z 33010KT 9999 BKN020 31/18 Q1011,SBPP,2020-12-11T19:00:00Z,-22.55,-55.7,31.0,18.0,330,10,,6.21,29.852362,,,,,,,,,,,BKN,2000,,,,,,,MVFR,,,,,,,,,,,,METAR,650.0
SBPL 111900Z 16008KT 9999 FEW035 36/14 Q1010,SBPL,2020-12-11T19:00:00Z,-9.37,-40.57,36.0,14.0,160,8,,6.21,29.822834,,,,,,,,,,,FEW,3500,,,,,,,VFR,,,,,,,,,,,,METAR,386.0
SBPK 111900Z 24013KT 9999 FEW045 38/18 Q1005,SBPK,2020-12-11T19:00:00Z,-31.72,-52.33,38.0,18.0,240,13,,6.21,29.675198,,,,,,,,,,,FEW,4500,,,,,,,VFR,,,,,,,,,,,,METAR,17.0
SBPJ 111900Z 18007KT 9999 TS VCSH SCT025 FEW035CB 31/21 Q1009,SBPJ,2020-12-11T19:00:00Z,-10.28,-48.37,31.0,21.0,180,7,,6.21,29.793306,,,,,,,,,,TS VCSH,SCT,2500,FEW,3500,,,,,VFR,,,,,,,,,,,,METAR,226.0
SBPF 111900Z 36016KT 9999 SCT040 33/14 Q1011,SBPF,2020-12-11T19:00:00Z,-28.25,-52.33,33.0,14.0,360,16,,6.21,29.852362,,,,,,,,,,,SCT,4000,,,,,,,VFR,,,,,,,,,,,,METAR,720.0
SBPC 111900Z /////KT 5000 -RA SCT011 FEW020TCU BKN090 18/18 Q1019,SBPC,2020-12-11T19:00:00Z,-21.85,-46.57,18.0,18.0,,,,3.11,30.088583,,,,,,,,,,-RA,SCT,1100,FEW,2000,BKN,9000,,,MVFR,,,,,,,,,,,,METAR,1259.0
SBPB 111900Z 07014KT 9999 FEW020 29/24 Q1007,SBPB,2020-12-11T19:00:00Z,-2.88,-41.72,29.0,24.0,70,14,,6.21,29.734253,,,,,,,,,,,FEW,2000,,,,,,,VFR,,,,,,,,,,,,METAR,3.0
SBPA 111900Z 27006KT 220V360 9999 FEW035 37/17 Q1005,SBPA,2020-12-11T19:00:00Z,-30.0,-51.17,37.0,17.0,270,6,,6.21,29.675198,,,,,,,,,,,FEW,3500,,,,,,,VFR,,,,,,,,,,,,METAR,3.0
SBOI 111900Z 09002KT 9999 SCT030 BKN100 28/24 Q1009,SBOI,2020-12-11T19:00:00Z,3.85,-51.78,28.0,24.0,90,2,,6.21,29.793306,,,,,,,,,,,SCT,3000,BKN,10000,,,,,VFR,,,,,,,,,,,,METAR,15.0
SBNT 111900Z 14017KT 9999 SCT025 29/21 Q1011,SBNT,2020-12-11T19:00:00Z,-5.92,-35.25,29.0,21.0,140,17,,6.21,29.852362,,,,,,,,,,,SCT,2500,,,,,,,VFR,,,,,,,,,,,,METAR,51.0
SBNF 111900Z 04014KT CAVOK 27/22 Q1010,SBNF,2020-12-11T19:00:00Z,-26.88,-48.65,27.0,22.0,40,14,,6.21,29.822834,,,,,,,,,,,CAVOK,,,,,,,,VFR,,,,,,,,,,,,METAR,5.0
SBMT 111900Z 30005KT 7000 BKN035 26/17 Q1015,SBMT,2020-12-11T19:00:00Z,-23.52,-46.63,26.0,17.0,300,5,,4.35,29.970472,,,,,,,,,,,BKN,3500,,,,,,,MVFR,,,,,,,,,,,,METAR,722.0
SBMS 111900Z 02015KT 9999 FEW030 34/22 Q1008,SBMS,2020-12-11T19:00:00Z,-5.2,-37.37,34.0,22.0,20,15,,6.21,29.763779,,,,,,,,,,,FEW,3000,,,,,,,VFR,,,,,,,,,,,,METAR,23.0
SBMQ 111900Z 05010KT 9999 SCT027 34/23 Q1008,SBMQ,2020-12-11T19:00:00Z,0.05,-51.07,34.0,23.0,50,10,,6.21,29.763779,,,,,,,,,,,SCT,2700,,,,,,,VFR,,,,,,,,,,,,METAR,15.0
SBMO 111900Z 10009KT 9999 FEW033 29/20 Q1013,SBMO,2020-12-11T19:00:00Z,-9.52,-35.78,29.0,20.0,100,9,,6.21,29.911417,,,,,,,,,,,FEW,3300,,,,,,,VFR,,,,,,,,,,,,METAR,116.0
SBMN 111900Z 07007KT 9999 SCT020 BKN090 29/23 Q1008,SBMN,2020-12-11T19:00:00Z,-3.13,-59.98,29.0,23.0,70,7,,6.21,29.763779,,,,,,,,,,,SCT,2000,BKN,9000,,,,,VFR,,,,,,,,,,,,METAR,71.0
SBMA 111900Z 05006KT 9999 SCT030 34/22 Q1008,SBMA,2020-12-11T19:00:00Z,-5.37,-49.13,34.0,22.0,50,6,,6.21,29.763779,,,,,,,,,,,SCT,3000,,,,,,,VFR,,,,,,,,,,,,METAR,110.0
SBLS 111900Z VRB02KT 9999 SCT036 SCT100 28/19 Q1016,SBLS,2020-12-11T19:00:00Z,-19.67,-43.88,28.0,19.0,0,2,,6.21,30.0,,,,,,,,,,,SCT,3600,SCT,10000,,,,,VFR,,,,,,,,,,,,METAR,850.0
SBLO 111900Z 25005KT 9999 TS VCSH SCT040 FEW050CB 27/19 Q1012,SBLO,2020-12-11T19:00:00Z,-23.33,-51.12,27.0,19.0,250,5,,6.21,29.88189,,,,,,,,,,TS VCSH,SCT,4000,FEW,5000,,,,,VFR,,,,,,,,,,,,METAR,563.0
SBKP 111900Z 00000KT 9999 VCSH FEW030 FEW035TCU BKN100 25/16 Q1015,SBKP,2020-12-11T19:00:00Z,-23.0,-47.13,25.0,16.0,0,0,,6.21,29.970472,,,,,,,,,,VCSH,FEW,3000,FEW,3500,BKN,10000,,,VFR,,,,,,,,,,,,METAR,659.0
SBKG 111900Z 09015KT CAVOK 31/16 Q1013,SBKG,2020-12-11T19:00:00Z,-7.27,-35.88,31.0,16.0,90,15,,6.21,29.911417,,,,,,,,,,,CAVOK,,,,,,,,VFR,,,,,,,,,,,,METAR,499.0
SBJR 111900Z 13007KT 9999 FEW020 SCT040 29/21 Q1012,SBJR,2020-12-11T19:00:00Z,-22.98,-43.37,29.0,21.0,130,7,,6.21,29.88189,,,,,,,,,,,FEW,2000,SCT,4000,,,,,VFR,,,,,,,,,,,,METAR,5.0
SBJP 111900Z 11014KT 9999 SCT030 29/21 Q1012,SBJP,2020-12-11T19:00:00Z,-7.15,-34.95,29.0,21.0,110,14,,6.21,29.88189,,,,,,,,,,,SCT,3000,,,,,,,VFR,,,,,,,,,,,,METAR,66.0
SBJE 111900Z 05014KT 9999 FEW020 34/23 Q1008,SBJE,2020-12-11T19:00:00Z,-2.9,-40.35,34.0,23.0,50,14,,6.21,29.763779,,,,,,,,,,,FEW,2000,,,,,,,VFR,,,,,,,,,,,,METAR,25.0
SBIZ 111900Z 12007KT 9999 SCT030 34/22 Q1008,SBIZ,2020-12-11T19:00:00Z,-5.52,-47.45,34.0,22.0,120,7,,6.21,29.763779,,,,,,,,,,,SCT,3000,,,,,,,VFR,,,,,,,,,,,,METAR,131.0
SBIL 111900Z 06008KT CAVOK 29/24 Q1013,SBIL,2020-12-11T19:00:00Z,-14.8,-39.02,29.0,24.0,60,8,,6.21,29.911417,,,,,,,,,,,CAVOK,,,,,,,,VFR,,,,,,,,,,,,METAR,9.0
SBIH 111900Z 09009KT 9999 FEW024 FEW026TCU 34/23 Q1007,SBIH,2020-12-11T19:00:00Z,-4.25,-56.0,34.0,23.0,90,9,,6.21,29.734253,,,,,,,,,,,FEW,2400,FEW,2600,,,,,VFR,,,,,,,,,,,,METAR,30.0
SBHT 111900Z 09004KT 9999 BKN035 31/22 Q1008,SBHT,2020-12-11T19:00:00Z,-3.25,-52.27,31.0,22.0,90,4,,6.21,29.763779,,,,,,,,,,,BKN,3500,,,,,,,VFR,,,,,,,,,,,,METAR,105.0
SBGW 111900Z 33005KT 300V360 4000 -RA BR SCT030 BKN080 22/20 Q1015,SBGW,2020-12-11T19:00:00Z,-22.78,-45.2,22.0,20.0,330,5,,2.49,29.970472,,,,,,,,,,-RA BR,SCT,3000,BKN,8000,,,,,IFR,,,,,,,,,,,,METAR,539.0
SBGR 111900Z 36005KT 9999 FEW030 OVC100 25/18 Q1016,SBGR,2020-12-11T19:00:00Z,-23.42,-46.47,25.0,18.0,360,5,,6.21,30.0,,,,,,,,,,,FEW,3000,OVC,10000,,,,,VFR,,,,,,,,,,,,METAR,745.0
SBGO 111900Z 33005KT 9999 -TSRA FEW008 FEW045CB OVC100 21/20 Q1015,SBGO,2020-12-11T19:00:00Z,-16.62,-49.22,21.0,20.0,330,5,,6.21,29.970472,,,,,,,,,,-TSRA,FEW,800,FEW,4500,OVC,10000,,,VFR,,,,,,,,,,,,METAR,740.0
SBGM 111900Z 32012KT 9999 FEW033 31/22 Q1008,SBGM,2020-12-11T19:00:00Z,-10.78,-65.28,31.0,22.0,320,12,,6.21,29.763779,,,,,,,,,,,FEW,3300,,,,,,,VFR,,,,,,,,,,,,METAR,147.0
SBGL 111900Z 14011KT 9999 FEW030 27/20 Q1011,SBGL,2020-12-11T19:00:00Z,-22.82,-43.25,27.0,20.0,140,11,,6.21,29.852362,,,,,,,,,,,FEW,3000,,,,,,,VFR,,,,,,,,,,,,METAR,3.0
SBFZ 111900Z 07013KT 9999 FEW030 30/22 Q1009,SBFZ,2020-12-11T19:00:00Z,-3.77,-38.52,30.0,22.0,70,13,,6.21,29.793306,,,,,,,,,,,FEW,3000,,,,,,,VFR,,,,,,,,,,,,METAR,32.0
SBFN 111900Z 14013KT 9999 FEW020 28/23 Q1011,SBFN,2020-12-11T19:00:00Z,-3.85,-32.42,28.0,23.0,140,13,,6.21,29.852362,,,,,,,,,,,FEW,2000,,,,,,,VFR,,,,,,,,,,,,METAR,52.0
SBFL 111900Z 35014KT CAVOK 28/21 Q1009,SBFL,2020-12-11T19:00:00Z,-27.67,-48.53,28.0,21.0,350,14,,6.21,29.793306,,,,,,,,,,,CAVOK,,,,,,,,VFR,,,,,,,,,,,,METAR,5.0
SBFI 111900Z 34009KT 9999 FEW040TCU 34/19 Q1009,SBFI,2020-12-11T19:00:00Z,-25.6,-54.48,34.0,19.0,340,9,,6.21,29.793306,,,,,,,,,,,FEW,4000,,,,,,,VFR,,,,,,,,,,,,METAR,233.0
SBES 111900Z 09010KT 060V120 9999 FEW020 26/25 Q1012,SBES,2020-12-11T19:00:00Z,-22.82,-42.1,26.0,25.0,90,10,,6.21,29.88189,,,,,,,,,,,FEW,2000,,,,,,,VFR,,,,,,,,,,,,METAR,16.0
SBEK 111900Z 24005KT 9999 FEW025TCU 34/24 Q1007,SBEK,2020-12-11T19:00:00Z,-6.23,-57.78,34.0,24.0,240,5,,6.21,29.734253,,,,,,,,,,,FEW,2500,,,,,,,VFR,,,,,,,,,,,,METAR,98.0
SBEG 111900Z 03007KT 9999 SCT020 BKN100 29/23 Q1008,SBEG,2020-12-11T19:00:00Z,-3.03,-60.03,29.0,23.0,30,7,,6.21,29.763779,,,,,,,,,,,SCT,2000,BKN,10000,,,,,VFR,,,,,,,,,,,,METAR,69.0
SBCY 111900Z 33006KT 9999 SCT020 BKN100 27/22 Q1009,SBCY,2020-12-11T19:00:00Z,-15.65,-56.12,27.0,22.0,330,6,,6.21,29.793306,,,,,,,,,,,SCT,2000,BKN,10000,,,,,VFR,,,,,,,,,,,,METAR,182.0
SBCT 111900Z 06012KT 9999 SCT020 FEW040TCU 25/17 Q1015,SBCT,2020-12-11T19:00:00Z,-25.52,-49.17,25.0,17.0,60,12,,6.21,29.970472,,,,,,,,,,,SCT,2000,FEW,4000,,,,,VFR,,,,,,,,,,,,METAR,914.0
SBCR 111900Z 03009KT 350V060 9999 SCT045 FEW050TCU 35/19 Q1005,SBCR,2020-12-11T19:00:00Z,-19.0,-57.67,35.0,19.0,30,9,,6.21,29.675198,,,,,,,,,,,SCT,4500,FEW,5000,,,,,VFR,,,,,,,,,,,,METAR,142.0
SBCP 111900Z 07012KT 9999 SCT030 27/22 Q1012,SBCP,2020-12-11T19:00:00Z,-21.7,-41.3,27.0,22.0,70,12,,6.21,29.88189,,,,,,,,,,,SCT,3000,,,,,,,VFR,,,,,,,,,,,,METAR,15.0
SBCO 111900Z 25010KT 220V300 9999 SCT040 38/18 Q1005,SBCO,2020-12-11T19:00:00Z,-29.95,-51.15,38.0,18.0,250,10,,6.21,29.675198,,,,,,,,,,,SCT,4000,,,,,,,VFR,,,,,,,,,,,,METAR,8.0
SBCJ 111900Z 07004KT 9999 SCT025 29/21 Q1012,SBCJ,2020-12-11T19:00:00Z,-6.12,-50.0,29.0,21.0,70,4,,6.21,29.88189,,,,,,,,,,,SCT,2500,,,,,,,VFR,,,,,,,,,,,,METAR,634.0
SBCH 111900Z 35010G20KT 9999 BKN025 FEW035TCU 32/17 Q1011,SBCH,2020-12-11T19:00:00Z,-27.13,-52.67,32.0,17.0,350,10,20,6.21,29.852362,,,,,,,,,,,BKN,2500,FEW,3500,,,,,MVFR,,,,,,,,,,,,METAR,639.0
SBCG 111900Z 35007KT 270V050 9999 SCT045 FEW050TCU 31/18 Q1010,SBCG,2020-12-11T19:00:00Z,-20.47,-54.67,31.0,18.0,350,7,,6.21,29.822834,,,,,,,,,,,SCT,4500,FEW,5000,,,,,VFR,,,,,,,,,,,,METAR,556.0
SBCF 111900Z 02001KT 9999 BKN035 BKN100 27/19 Q1016,SBCF,2020-12-11T19:00:00Z,-19.63,-43.97,27.0,19.0,20,1,,6.21,30.0,,,,,,,,,,,BKN,3500,BKN,10000,,,,,VFR,,,,,,,,,,,,METAR,825.0
SBCC 111900Z 12006KT 9999 BKN040 FEW045TCU SCT100 25/21 Q1010,SBCC,2020-12-11T19:00:00Z,-9.33,-54.95,25.0,21.0,120,6,,6.21,29.822834,,,,,,,,,,,BKN,4000,FEW,4500,SCT,10000,,,VFR,,,,,,,,,,,,METAR,540.0
SBCB 111900Z 06013KT 9999 SCT030 26/21 Q1013,SBCB,2020-12-11T19:00:00Z,-22.92,-42.08,26.0,21.0,60,13,,6.21,29.911417,,,,,,,,,,,SCT,3000,,,,,,,VFR,,,,,,,,,,,,METAR,3.0
SBBV 111900Z 15008KT 9999 VCSH SCT030 FEW035TCU SCT080 31/20 Q1008,SBBV,2020-12-11T19:00:00Z,2.85,-60.7,31.0,20.0,150,8,,6.21,29.763779,,,,,,,,,,VCSH,SCT,3000,FEW,3500,SCT,8000,,,VFR,,,,,,,,,,,,METAR,80.0
SBBR 111900Z 34002KT 9999 BKN030 FEW035TCU 22/19 Q1017,SBBR,2020-12-11T19:00:00Z,-15.87,-47.92,22.0,19.0,340,2,,6.21,30.029528,,,,,,,,,,,BKN,3000,FEW,3500,,,,,MVFR,,,,,,,,,,,,METAR,1051.0
SBBQ 111900Z 30003KT 9999 BKN030 24/17 Q1019,SBBQ,2020-12-11T19:00:00Z,-21.25,-43.77,24.0,17.0,300,3,,6.21,30.088583,,,,,,,,,,,BKN,3000,,,,,,,MVFR,,,,,,,,,,,,METAR,1106.0
SBBH 111900Z 36004KT 9999 SCT040 29/16 Q1015,SBBH,2020-12-11T19:00:00Z,-19.85,-43.95,29.0,16.0,360,4,,6.21,29.970472,,,,,,,,,,,SCT,4000,,,,,,,VFR,,,,,,,,,,,,METAR,799.0
SBBG 111900Z 25009KT 9999 FEW043 36/17 Q1006,SBBG,2020-12-11T19:00:00Z,-31.38,-54.12,36.0,17.0,250,9,,6.21,29.704725,,,,,,,,,,,FEW,4300,,,,,,,VFR,,,,,,,,,,,,METAR,182.0
SBBE 111900Z 35008KT 9999 BKN040 FEW045TCU 30/25 Q1008,SBBE,2020-12-11T19:00:00Z,-1.37,-48.47,30.0,25.0,350,8,,6.21,29.763779,,,,,,,,,,,BKN,4000,FEW,4500,,,,,VFR,,,,,,,,,,,,METAR,16.0
SBAT 111900Z 35003KT 9999 SCT033 FEW035TCU SCT070 30/22 Q1009,SBAT,2020-12-11T19:00:00Z,-9.87,-56.1,30.0,22.0,350,3,,6.21,29.793306,,,,,,,,,,,SCT,3300,FEW,3500,SCT,7000,,,VFR,,,,,,,,,,,,METAR,287.0
SBAR 111900Z 08011KT 9999 FEW020 28/21 Q1012,SBAR,2020-12-11T19:00:00Z,-10.98,-37.07,28.0,21.0,80,11,,6.21,29.88189,,,,,,,,,,,FEW,2000,,,,,,,VFR,,,,,,,,,,,,METAR,4.0
SBAN 111900Z 32005KT 3000 -RA BKN005 SCT015 FEW020TCU 18/18 Q1017 RETS RERA,SBAN,2020-12-11T19:00:00Z,-16.22,-48.97,18.0,18.0,320,5,,1.86,30.029528,,,,,,,,,,-RA RA,BKN,500,SCT,1500,FEW,2000,,,IFR,,,,,,,,,,,,METAR,1131.0
SBAF 111900Z 22008KT 9999 FEW020 SCT045 28/21 Q1012,SBAF,2020-12-11T19:00:00Z,-22.87,-43.38,28.0,21.0,220,8,,6.21,29.88189,,,,,,,,,,,FEW,2000,SCT,4500,,,,,VFR,,,,,,,,,,,,METAR,34.0
SAZS 111900Z 30031KT 9000 VCSH FEW025 SCT042 11/03 Q1008,SAZS,2020-12-11T19:00:00Z,-41.15,-71.17,11.0,3.0,300,31,,5.59,29.763779,,,,,,,,,,VCSH,FEW,2500,SCT,4200,,,,,VFR,,,,,,,,,,,,METAR,843.0
SAZN 111900Z 27008KT CAVOK 26/03 Q1005,SAZN,2020-12-11T19:00:00Z,-38.95,-68.15,26.0,3.0,270,8,,6.21,29.675198,,,,,,,,,,,CAVOK,,,,,,,,VFR,,,,,,,,,,,,METAR,273.0
SAZM 111900Z 23010KT 9999 FEW040 24/12 Q1004,SAZM,2020-12-11T19:00:00Z,-37.92,-57.57,24.0,12.0,230,10,,6.21,29.64567,,,,,,,,,,,FEW,4000,,,,,,,VFR,,,,,,,,,,,,METAR,17.0
SAWH 111900Z 34013KT 9999 SCT048 BKN080 14/03 Q0979,SAWH,2020-12-11T19:00:00Z,-54.85,-68.3,14.0,3.0,340,13,,6.21,28.90748,,,,,,,,,,,SCT,4800,BKN,8000,,,,,VFR,,,,,,,,,,,,METAR,22.0
SAWG 111900Z 29008KT 9999 -RA SCT025 SCT060 18/01 Q0982,SAWG,2020-12-11T19:00:00Z,-51.62,-69.27,18.0,1.0,290,8,,6.21,28.996063,,,,,,,,,,-RA,SCT,2500,SCT,6000,,,,,VFR,,,,,,,,,,,,METAR,15.0
SAWE 111900Z 32020KT 5000 -RA SCT008 BKN012 OVC070 15/11 Q0982,SAWE,2020-12-11T19:00:00Z,-53.78,-67.75,15.0,11.0,320,20,,3.11,28.996063,,,,,,,,,,-RA,SCT,800,BKN,1200,OVC,7000,,,MVFR,,,,,,,,,,,,METAR,22.0
SAVC 111900Z 28016G30KT 250V320 9999 SCT040 BKN100 21/04 Q0993,SAVC,2020-12-11T19:00:00Z,-45.78,-67.47,21.0,4.0,280,16,30,6.21,29.320866,,,,,,,,,,,SCT,4000,BKN,10000,,,,,VFR,,,,,,,,,,,,METAR,58.0
SARP 111900Z 32010KT CAVOK 37/17 Q1006,SARP,2020-12-11T19:00:00Z,-27.38,-55.97,37.0,17.0,320,10,,6.21,29.704725,,,,,,,,,,,CAVOK,,,,,,,,VFR,,,,,,,,,,,,METAR,123.0
SARL 111900Z 27010KT 9999 SCT015 SCT028TCU 38/21 Q1004,SARL,2020-12-11T19:00:00Z,-29.68,-57.15,38.0,21.0,270,10,,6.21,29.64567,,,,,,,,,,,SCT,1500,SCT,2800,,,,,VFR,,,,,,,,,,,,METAR,70.0
SARI 111900Z 36007KT 9999 FEW030 34/19 Q1009,SARI,2020-12-11T19:00:00Z,-25.73,-54.47,34.0,19.0,360,7,,6.21,29.793306,,,,,,,,,,,FEW,3000,,,,,,,VFR,,,,,,,,,,,,METAR,268.0
SARF 111900Z 02009KT 9999 FEW030 37/20 Q1005,SARF,2020-12-11T19:00:00Z,-26.22,-58.22,37.0,20.0,20,9,,6.21,29.675198,,,,,,,,,,,FEW,3000,,,,,,,VFR,,,,,,,,,,,,METAR,65.0
SARE 111900Z 34007KT 9999 FEW025 SCT200 39/18 Q1003,SARE,2020-12-11T19:00:00Z,-27.43,-59.05,39.0,18.0,340,7,,6.21,29.616142,,,,,,,,,,,FEW,2500,SCT,20000,,,,,VFR,,,,,,,,,,,,METAR,52.0
SARC 111900Z 36013KT 9999 FEW020 39/15 Q1003,SARC,2020-12-11T19:00:00Z,-27.43,-58.77,39.0,15.0,360,13,,6.21,29.616142,,,,,,,,,,,FEW,2000,,,,,,,VFR,,,,,,,,,,,,METAR,60.0
SAOC 111900Z 09004KT CAVOK 24/01 Q1010,SAOC,2020-12-11T19:00:00Z,-33.08,-64.27,24.0,1.0,90,4,,6.21,29.822834,,,,,,,,,,,CAVOK,,,,,,,,VFR,,,,,,,,,,,,METAR,422.0
SANT 111900Z 18009KT 9000 FEW040 FEW050CB 33/18 Q1006,SANT,2020-12-11T19:00:00Z,-26.85,-65.1,33.0,18.0,180,9,,5.59,29.704725,,,,,,,,,,,FEW,4000,FEW,5000,,,,,VFR,,,,,,,,,,,,METAR,446.0
SAME 111900Z 09005KT 8000 NSC 26/M00 Q1009,SAME,2020-12-11T19:00:00Z,-32.82,-68.78,26.0,0.0,90,5,,4.97,29.793306,,,,,,,,,,,CLR,,,,,,,,MVFR,,,,,,,,,,,,METAR,709.0
SAEZ 111900Z 24010KT CAVOK 27/03 Q1007 NOSIG,SAEZ,2020-12-11T19:00:00Z,-34.82,-58.53,27.0,3.0,240,10,,6.21,29.734253,,,,,,TRUE,,,,,CAVOK,,,,,,,,VFR,,,,,,,,,,,,METAR,16.0
SADF 111900Z 23010KT CAVOK 27/05 Q1007,SADF,2020-12-11T19:00:00Z,-34.45,-58.58,27.0,5.0,230,10,,6.21,29.734253,,,,,,,,,,,CAVOK,,,,,,,,VFR,,,,,,,,,,,,METAR,4.0
SACO 111900Z 13010KT 100V170 CAVOK 26/04 Q1011 NOSIG,SACO,2020-12-11T19:00:00Z,-31.32,-64.22,26.0,4.0,130,10,,6.21,29.852362,,,,,,TRUE,,,,,CAVOK,,,,,,,,VFR,,,,,,,,,,,,METAR,474.0
SABE 111900Z 24008KT 170V270 CAVOK 27/04 Q1007 NOSIG,SABE,2020-12-11T19:00:00Z,-34.57,-58.42,27.0,4.0,240,8,,6.21,29.734253,,,,,,TRUE,,,,,CAVOK,,,,,,,,VFR,,,,,,,,,,,,METAR,3.0
SAAR 111900Z 14008KT CAVOK 29/01 Q1008,SAAR,2020-12-11T19:00:00Z,-32.92,-60.77,29.0,1.0,140,8,,6.21,29.763779,,,,,,,,,,,CAVOK,,,,,,,,VFR,,,,,,,,,,,,METAR,24.0
RPVM 111900Z VRB02KT 9999 FEW020 26/24 Q1010 RMK A2983,RPVM,2020-12-11T19:00:00Z,10.32,123.98,26.0,24.0,0,2,,6.21,29.822834,,,,,,,,,,,FEW,2000,,,,,,,VFR,,,,,,,,,,,,METAR,9.0
RPMD 111900Z 33003KT 300V360 9999 FEW016 25/25 Q1009 RMK A2980,RPMD,2020-12-11T19:00:00Z,7.12,125.65,25.0,25.0,330,3,,6.21,29.793306,,,,,,,,,,,FEW,1600,,,,,,,VFR,,,,,,,,,,,,METAR,19.0
RPLL 111900Z 06004KT 9999 FEW025 26/24 Q1010 NOSIG RMK A2983,RPLL,2020-12-11T19:00:00Z,14.52,121.0,26.0,24.0,60,4,,6.21,29.822834,,,,,,TRUE,,,,,FEW,2500,,,,,,,VFR,,,,,,,,,,,,METAR,15.0
RPLC 111900Z 34006KT 9000 SCT020 BKN300 25/23 Q1011 NOSIG RMK A2985,RPLC,2020-12-11T19:00:00Z,15.18,120.55,25.0,23.0,340,6,,5.59,29.852362,,,,,,TRUE,,,,,SCT,2000,BKN,30000,,,,,VFR,,,,,,,,,,,,METAR,138.0
RPLB 111900Z 11003KT 9999 FEW018CB FEW020 25/24 Q1011 RMK A2985 CB/LTG OCNL W,RPLB,2020-12-11T19:00:00Z,14.8,120.27,25.0,24.0,110,3,,6.21,29.852362,,,,,,,,,,,FEW,1800,FEW,2000,,,,,VFR,,,,,,,,,,,,METAR,19.0
ROYN 111900Z AUTO 02025KT 9999 BKN019 BKN027 BKN037 22/19 Q1014,ROYN,2020-12-11T19:00:00Z,24.47,122.97,22.0,19.0,20,25,,6.21,29.940945,,,TRUE,,,,,,,,BKN,1900,BKN,2700,BKN,3700,,,MVFR,,,,,,,,,,,,METAR,21.0
RORY 111900Z AUTO 36012KT 9999 FEW015 SCT031 BKN050 20/18 Q1012,RORY,2020-12-11T19:00:00Z,27.05,128.4,20.0,18.0,360,12,,6.21,29.88189,,,TRUE,,,,,,,,FEW,1500,SCT,3100,BKN,5000,,,VFR,,,,,,,,,,,,METAR,13.0
RORK 111900Z AUTO 13018KT 9999 BKN006 OVC029 23/22 Q1008,RORK,2020-12-11T19:00:00Z,25.93,131.32,23.0,22.0,130,18,,6.21,29.763779,,,TRUE,,,,,,,,BKN,600,OVC,2900,,,,,IFR,,,,,,,,,,,,METAR,11.0
ROMD 111900Z AUTO 14008KT 080V170 9999 SCT005 BKN007 BKN011 23/23 Q1008,ROMD,2020-12-11T19:00:00Z,25.83,131.25,23.0,23.0,140,8,,6.21,29.763779,,,TRUE,,,,,,,,SCT,500,BKN,700,BKN,1100,,,IFR,,,,,,,,,,,,METAR,45.0
RKTU 111900Z 30007KT 8000 FEW030 BKN190 04/M01 Q1019,RKTU,2020-12-11T19:00:00Z,36.7,127.5,4.0,-1.0,300,7,,4.97,30.088583,,,,,,,,,,,FEW,3000,BKN,19000,,,,,MVFR,,,,,,,,,,,,METAR,46.0
RKTN 111900Z 32004KT 9000 SCT040 BKN180 04/00 Q1017,RKTN,2020-12-11T19:00:00Z,35.88,128.65,4.0,0.0,320,4,,5.59,30.029528,,,,,,,,,,,SCT,4000,BKN,18000,,,,,VFR,,,,,,,,,,,,METAR,25.0
RKSS 111900Z 36002KT 9000 NSC M01/M07 Q1020 NOSIG,RKSS,2020-12-11T19:00:00Z,37.55,126.78,-1.0,-7.0,360,2,,5.59,30.11811,,,,,,TRUE,,,,,CLR,,,,,,,,VFR,,,,,,,,,,,,METAR,18.0
RKSM 111900Z 31006KT 6000 HZ BKN200 03/M07 A3013,RKSM,2020-12-11T19:00:00Z,37.43,127.12,3.0,-7.0,310,6,,3.73,30.129921,,,,,,,,,,HZ,BKN,20000,,,,,,,MVFR,,,,,,,,,,,,METAR,18.0
RKPK 111900Z 34006KT 8000 NSC 06/00 Q1016,RKPK,2020-12-11T19:00:00Z,35.17,128.93,6.0,0.0,340,6,,4.97,30.0,,,,,,,,,,,CLR,,,,,,,,MVFR,,,,,,,,,,,,METAR,3.0
RKPC 111900Z 35005KT 300V030 9000 BKN040 OVC100 11/05 Q1019 NOSIG,RKPC,2020-12-11T19:00:00Z,33.5,126.48,11.0,5.0,350,5,,5.59,30.088583,,,,,,TRUE,,,,,BKN,4000,OVC,10000,,,,,VFR,,,,,,,,,,,,METAR,23.0
RKNY 111900Z AUTO 27008KT 7000 NCD 05/M03 Q1016,RKNY,2020-12-11T19:00:00Z,38.07,128.67,5.0,-3.0,270,8,,4.35,30.0,,,TRUE,,,,,,,,CLR,,,,,,,,MVFR,,,,,,,,,,,,METAR,76.0
RJSM 111900Z 27004KT 9999 FEW010 SCT045 BKN070 03/02 Q1010,RJSM,2020-12-11T19:00:00Z,40.7,141.37,3.0,2.0,270,4,,6.21,29.822834,,,,,,,,,,,FEW,1000,SCT,4500,BKN,7000,,,VFR,,,,,,,,,,,,METAR,31.0
RJOS 111900Z 32007KT 9999 FEW030 BKN060 13/06 Q1013,RJOS,2020-12-11T19:00:00Z,34.12,134.62,13.0,6.0,320,7,,6.21,29.911417,,,,,,,,,,,FEW,3000,BKN,6000,,,,,VFR,,,,,,,,,,,,METAR,3.0
RJOH 111900Z 20003KT 9999 FEW050 BKN060 BKN/// 08/07 Q1013,RJOH,2020-12-11T19:00:00Z,35.48,133.25,8.0,7.0,200,3,,6.21,29.911417,,,,,,,,,,,FEW,5000,BKN,6000,,,,,VFR,,,,,,,,,,,,METAR,6.0
RJNK 111900Z 19004KT 9999 -SHRA FEW020 BKN030 BKN050 09/09 Q1012,RJNK,2020-12-11T19:00:00Z,36.38,136.42,9.0,9.0,190,4,,6.21,29.88189,,,,,,,,,,-SHRA,FEW,2000,BKN,3000,BKN,5000,,,MVFR,,,,,,,,,,,,METAR,7.0
RJKI 111900Z AUTO 01012KT 6000 -RA FEW011 SCT023 BKN050 18/17 Q1012,RJKI,2020-12-11T19:00:00Z,28.32,129.92,18.0,17.0,10,12,,3.73,29.88189,,,TRUE,,,,,,,-RA,FEW,1100,SCT,2300,BKN,5000,,,MVFR,,,,,,,,,,,,METAR,6.0
RJFR 111900Z 23005KT 9999 FEW030 BKN045 12/06 Q1015,RJFR,2020-12-11T19:00:00Z,33.83,131.03,12.0,6.0,230,5,,6.21,29.970472,,,,,,,,,,,FEW,3000,BKN,4500,,,,,VFR,,,,,,,,,,,,METAR,9.0
RJAH 111900Z 30003KT 9999 FEW025 BKN030 BKN/// 07/05 Q1010,RJAH,2020-12-11T19:00:00Z,36.17,140.42,7.0,5.0,300,3,,6.21,29.822834,,,,,,,,,,,FEW,2500,BKN,3000,,,,,MVFR,,,,,,,,,,,,METAR,31.0
RCSS 111900Z 09003KT 050V120 9999 VCSH FEW010 BKN020 BKN040 20/19 Q1016 NOSIG RMK A3001,RCSS,2020-12-11T19:00:00Z,25.07,121.55,20.0,19.0,90,3,,6.21,30.0,,,,,,TRUE,,,,VCSH,FEW,1000,BKN,2000,BKN,4000,,,MVFR,,,,,,,,,,,,SPECI,8.0
RCNN 111900Z 01008KT 4000 BR FEW010 BKN030 19/17 Q1013 RMK A2993,RCNN,2020-12-11T19:00:00Z,22.93,120.2,19.0,17.0,10,8,,2.49,29.911417,,,,,,,,,,BR,FEW,1000,BKN,3000,,,,,IFR,,,,,,,,,,,,SPECI,15.0
RCKH 111900Z 36006KT 330V040 4500 BR FEW016 BKN070 23/20 Q1013 NOSIG RMK A2993,RCKH,2020-12-11T19:00:00Z,22.57,120.33,23.0,20.0,360,6,,2.8,29.911417,,,,,,TRUE,,,,BR,FEW,1600,BKN,7000,,,,,IFR,,,,,,,,,,,,METAR,6.0
PLCH 111900Z 10012KT 9999 FEW020 BKN040 27/21 Q1011,PLCH,2020-12-11T19:00:00Z,1.98,-157.35,27.0,21.0,100,12,,6.21,29.852362,,,,,,,,,,,FEW,2000,BKN,4000,,,,,VFR,,,,,,,,,,,,METAR,5.0
PAOT 111900Z 05005KT 7SM FEW002 M29/M31 A3039 RMK AO2 T12891306 VISNO E $,PAOT,2020-12-11T19:00:00Z,66.88,-162.6,-28.9,-30.6,50,5,,7.0,30.389763,,,,TRUE,TRUE,,,,,,FEW,200,,,,,,,VFR,,,,,,,,,,,,METAR,3.0
OTHH 111900Z AUTO 29006KT CAVOK 20/11 Q1019 NOSIG,OTHH,2020-12-11T19:00:00Z,25.27,51.6,20.0,11.0,290,6,,6.21,30.088583,,,TRUE,,,TRUE,,,,,CAVOK,,,,,,,,VFR,,,,,,,,,,,,METAR,3.0
OSLK 111900Z 09005KT 9999 FEW026 SCT030 14/07 Q1017,OSLK,2020-12-11T19:00:00Z,35.4,35.95,14.0,7.0,90,5,,6.21,30.029528,,,,,,,,,,,FEW,2600,SCT,3000,,,,,VFR,,,,,,,,,,,,METAR,47.0
OSDI 111900Z 00000KT CAVOK 07/03 Q1019,OSDI,2020-12-11T19:00:00Z,33.42,36.52,7.0,3.0,0,0,,6.21,30.088583,,,,,,,,,,,CAVOK,,,,,,,,VFR,,,,,,,,,,,,METAR,614.0
ORSU 111900Z 28005KT CAVOK 04/04 Q1023,ORSU,2020-12-11T19:00:00Z,35.57,45.32,4.0,4.0,280,5,,6.21,30.206694,,,,,,,,,,,CAVOK,,,,,,,,VFR,,,,,,,,,,,,METAR,760.0
ORNI 111900Z 00000KT 5000 HZ NSC 11/07 Q1022 NOSIG,ORNI,2020-12-11T19:00:00Z,31.98,44.4,11.0,7.0,0,0,,3.11,30.177166,,,,,,TRUE,,,,HZ,CLR,,,,,,,,MVFR,,,,,,,,,,,,METAR,33.0
ORMM 111900Z 28004KT CAVOK 13/10 Q1021 NOSIG,ORMM,2020-12-11T19:00:00Z,30.53,47.67,13.0,10.0,280,4,,6.21,30.147638,,,,,,TRUE,,,,,CAVOK,,,,,,,,VFR,,,,,,,,,,,,METAR,2.0
ORER 111900Z 14004KT 9000 NSC 07/02 Q1022 NOSIG,ORER,2020-12-11T19:00:00Z,36.23,43.97,7.0,2.0,140,4,,5.59,30.177166,,,,,,TRUE,,,,,CLR,,,,,,,,VFR,,,,,,,,,,,,METAR,397.0
ORBI 111900Z 00000KT CAVOK 10/04 Q1022 NOSIG,ORBI,2020-12-11T19:00:00Z,33.27,44.23,10.0,4.0,0,0,,6.21,30.177166,,,,,,TRUE,,,,,CAVOK,,,,,,,,VFR,,,,,,,,,,,,METAR,37.0
OPST 111900Z 31010KT 4000 TSRA FEW030CB SCT040 BKN100 13/11 Q1014 TEMPO 31010G25KT 3000 RH88,OPST,2020-12-11T19:00:00Z,32.53,74.37,13.0,11.0,310,10,,2.49,29.940945,,,,,,,,,,TSRA,FEW,3000,SCT,4000,BKN,10000,,,IFR,,,,,,,,,,,,METAR,234.0
OPSK 111900Z 00000KT 2000 BR NSC 15/12 Q1016 TEMPO 2000 BR,OPSK,2020-12-11T19:00:00Z,27.72,68.8,15.0,12.0,0,0,,1.24,30.0,,,,,,,,,,BR,CLR,,,,,,,,IFR,,,,,,,,,,,,SPECI,62.0
OPPS 111900Z 13006KT 4000 HZ SCT040 BKN100 13/08 Q1014,OPPS,2020-12-11T19:00:00Z,33.98,71.52,13.0,8.0,130,6,,2.49,29.940945,,,,,,,,,,HZ,SCT,4000,BKN,10000,,,,,IFR,,,,,,,,,,,,METAR,356.0
OMSJ 111900Z 15003KT 9999 FEW040 22/13 Q1018 NOSIG,OMSJ,2020-12-11T19:00:00Z,25.32,55.52,22.0,13.0,150,3,,6.21,30.059055,,,,,,TRUE,,,,,FEW,4000,,,,,,,VFR,,,,,,,,,,,,METAR,33.0
OMRK 111900Z 19004KT CAVOK 16/09 Q1018 A3008,OMRK,2020-12-11T19:00:00Z,25.62,55.93,16.0,9.0,190,4,,6.21,30.059055,,,,,,,,,,,CAVOK,,,,,,,,VFR,,,,,,,,,,,,METAR,18.0
OMFJ 111900Z 30004KT 8000 FEW030 21/09 Q1018 A3007,OMFJ,2020-12-11T19:00:00Z,25.1,56.32,21.0,9.0,300,4,,4.97,30.059055,,,,,,,,,,,FEW,3000,,,,,,,MVFR,,,,,,,,,,,,METAR,27.0
OMDW 111900Z 11007KT CAVOK 17/10 Q1019 NOSIG,OMDW,2020-12-11T19:00:00Z,24.9,55.17,17.0,10.0,110,7,,6.21,30.088583,,,,,,TRUE,,,,,CAVOK,,,,,,,,VFR,,,,,,,,,,,,METAR,34.0
OMDB 111900Z 15005KT CAVOK 22/13 Q1018 NOSIG,OMDB,2020-12-11T19:00:00Z,25.25,55.37,22.0,13.0,150,5,,6.21,30.059055,,,,,,TRUE,,,,,CAVOK,,,,,,,,VFR,,,,,,,,,,,,METAR,5.0
OMAL 111900Z 34006KT CAVOK 18/10 Q1019 NOSIG,OMAL,2020-12-11T19:00:00Z,24.25,55.6,18.0,10.0,340,6,,6.21,30.088583,,,,,,TRUE,,,,,CAVOK,,,,,,,,VFR,,,,,,,,,,,,METAR,247.0
OMAD 111900Z 32007KT 9999 FEW045 22/10 Q1018 NOSIG,OMAD,2020-12-11T19:00:00Z,24.42,54.47,22.0,10.0,320,7,,6.21,30.059055,,,,,,TRUE,,,,,FEW,4500,,,,,,,VFR,,,,,,,,,,,,METAR,9.0
OMAA 111900Z 30004KT CAVOK 22/12 Q1018 NOSIG,OMAA,2020-12-11T19:00:00Z,24.42,54.65,22.0,12.0,300,4,,6.21,30.059055,,,,,,TRUE,,,,,CAVOK,,,,,,,,VFR,,,,,,,,,,,,METAR,13.0
OLBA 111900Z 12006KT 070V140 9999 FEW026 18/11 Q1017 NOSIG,OLBA,2020-12-11T19:00:00Z,33.82,35.48,18.0,11.0,120,6,,6.21,30.029528,,,,,,TRUE,,,,,FEW,2600,,,,,,,VFR,,,,,,,,,,,,METAR,29.0
OKBK 111900Z 00000KT CAVOK 13/09 Q1021 NOSIG,OKBK,2020-12-11T19:00:00Z,29.22,47.97,13.0,9.0,0,0,,6.21,30.147638,,,,,,TRUE,,,,,CAVOK,,,,,,,,VFR,,,,,,,,,,,,METAR,55.0
OJAQ 111900Z 00000KT CAVOK 20/05 Q1016 NOSIG,OJAQ,2020-12-11T19:00:00Z,29.62,35.02,20.0,5.0,0,0,,6.21,30.0,,,,,,TRUE,,,,,CAVOK,,,,,,,,VFR,,,,,,,,,,,,METAR,45.0
OJAM 111900Z 00000KT 7000 NSC 12/02 Q1019 NOSIG,OJAM,2020-12-11T19:00:00Z,31.98,35.98,12.0,2.0,0,0,,4.35,30.088583,,,,,,TRUE,,,,,CLR,,,,,,,,MVFR,,,,,,,,,,,,METAR,765.0
OJAI 111900Z 10005KT 6000 NSC 09/M02 Q1019 NOSIG,OJAI,2020-12-11T19:00:00Z,31.72,36.0,9.0,-2.0,100,5,,3.73,30.088583,,,,,,TRUE,,,,,CLR,,,,,,,,MVFR,,,,,,,,,,,,METAR,723.0
OIZI 111900Z 06004KT CAVOK 11/M02 Q1020,OIZI,2020-12-11T19:00:00Z,27.23,60.72,11.0,-2.0,60,4,,6.21,30.11811,,,,,,,,,,,CAVOK,,,,,,,,VFR,,,,,,,,,,,,METAR,622.0
OIZH 111900Z 26004KT CAVOK 02/M02 Q1022 A3019,OIZH,2020-12-11T19:00:00Z,29.47,60.92,2.0,-2.0,260,4,,6.21,30.177166,,,,,,,,,,,CAVOK,,,,,,,,VFR,,,,,,,,,,,,METAR,1378.0
OIZC 111900Z 00000KT CAVOK 19/12 Q1016,OIZC,2020-12-11T19:00:00Z,25.45,60.38,19.0,12.0,0,0,,6.21,30.0,,,,,,,,,,,CAVOK,,,,,,,,VFR,,,,,,,,,,,,METAR,13.0
OIZB 111900Z 00000KT CAVOK 04/M03 Q1023,OIZB,2020-12-11T19:00:00Z,31.1,61.55,4.0,-3.0,0,0,,6.21,30.206694,,,,,,,,,,,CAVOK,,,,,,,,VFR,,,,,,,,,,,,METAR,483.0
OIYY 111900Z 29006KT 3000 BR NSC 05/02 Q1023,OIYY,2020-12-11T19:00:00Z,31.9,54.28,5.0,2.0,290,6,,1.86,30.206694,,,,,,,,,,BR,CLR,,,,,,,,IFR,,,,,,,,,,,,METAR,1226.0
OITR 111900Z 11002KT 8000 FEW030CB BKN035 02/M01 Q1022,OITR,2020-12-11T19:00:00Z,37.67,45.07,2.0,-1.0,110,2,,4.97,30.177166,,,,,,,,,,,FEW,3000,BKN,3500,,,,,MVFR,,,,,,,,,,,,METAR,1312.0
OITP 111900Z 00000KT 7000 BKN020 BKN035 OVC080 04/02 Q1029,OITP,2020-12-11T19:00:00Z,39.6,47.88,4.0,2.0,0,0,,4.35,30.383858,,,,,,,,,,,BKN,2000,BKN,3500,OVC,8000,,,MVFR,,,,,,,,,,,,METAR,72.0
OISY 111900Z 00000KT CAVOK 03/M04 Q1023,OISY,2020-12-11T19:00:00Z,30.7,51.55,3.0,-4.0,0,0,,6.21,30.206694,,,,,,,,,,,CAVOK,,,,,,,,VFR,,,,,,,,,,,,METAR,1800.0
OISL 111900Z 35004KT CAVOK 11/04 Q1018 A3007,OISL,2020-12-11T19:00:00Z,27.67,54.37,11.0,4.0,350,4,,6.21,30.059055,,,,,,,,,,,CAVOK,,,,,,,,VFR,,,,,,,,,,,,METAR,804.0
OISF 111900Z 00000KT CAVOK 04/02 Q1019 A3011,OISF,2020-12-11T19:00:00Z,28.9,53.72,4.0,2.0,0,0,,6.21,30.088583,,,,,,,,,,,CAVOK,,,,,,,,VFR,,,,,,,,,,,,METAR,1305.0
OINR 111900Z 15004KT 9999 FEW020CB SCT025 OVC080 08/05 Q1027,OINR,2020-12-11T19:00:00Z,36.9,50.67,8.0,5.0,150,4,,6.21,30.324802,,,,,,,,,,,FEW,2000,SCT,2500,OVC,8000,,,VFR,,,,,,,,,,,,METAR,-19.0
OINN 111900Z 00000KT 9999 BKN025 06/05 Q1029,OINN,2020-12-11T19:00:00Z,36.67,51.47,6.0,5.0,0,0,,6.21,30.383858,,,,,,,,,,,BKN,2500,,,,,,,MVFR,,,,,,,,,,,,METAR,-25.0
OING 111900Z 00000KT 9999 FEW025 M00/M01 Q1031,OING,2020-12-11T19:00:00Z,36.9,54.4,0.0,-1.0,0,0,,6.21,30.442913,,,,,,,,,,,FEW,2500,,,,,,,VFR,,,,,,,,,,,,METAR,0.0
OIMT 111900Z AUTO 06002KT //// // ////// 10/04 Q1021,OIMT,2020-12-11T19:00:00Z,33.67,56.88,10.0,4.0,60,2,,,30.147638,,,TRUE,,,,,,,,,,,,,,,,,,,,,,,,,,,,METAR,693.0
OIMQ 111900Z AUTO 00000KT //// // ////// 03/03 Q1022,OIMQ,2020-12-11T19:00:00Z,35.27,58.47,3.0,3.0,0,0,,,30.177166,,,TRUE,,,,,,,,,,,,,,,,,,,,,,,,,,,,METAR,1101.0
OIMN 111900Z VRB02KT 9999 FEW070 M08/M10 Q1023,OIMN,2020-12-11T19:00:00Z,37.48,57.3,-8.0,-10.0,0,2,,6.21,30.206694,,,,,,,,,,,FEW,7000,,,,,,,VFR,,,,,,,,,,,,METAR,1065.0
OIMD 111900Z AUTO 07002KT //// // ////// 04/01 Q1020,OIMD,2020-12-11T19:00:00Z,34.38,58.63,4.0,1.0,70,2,,,30.11811,,,TRUE,,,,,,,,,,,,,,,,,,,,,,,,,,,,METAR,1097.0
OIMC 111900Z AUTO 27002KT //// // ////// M01/M03 Q1029,OIMC,2020-12-11T19:00:00Z,36.5,61.07,-1.0,-3.0,270,2,,,30.383858,,,TRUE,,,,,,,,,,,,,,,,,,,,,,,,,,,,METAR,287.0
OIMB 111900Z 11004KT CAVOK M01/M03 Q1021,OIMB,2020-12-11T19:00:00Z,32.9,59.28,-1.0,-3.0,110,4,,6.21,30.147638,,,,,,,,,,,CAVOK,,,,,,,,VFR,,,,,,,,,,,,METAR,1512.0
OIKQ 111900Z 36004KT CAVOK 16/09 Q1017,OIKQ,2020-12-11T19:00:00Z,26.75,55.9,16.0,9.0,360,4,,6.21,30.029528,,,,,,,,,,,CAVOK,,,,,,,,VFR,,,,,,,,,,,,METAR,9.0
OIKK 111900Z 12004KT CAVOK 01/M03 Q1021 A3016,OIKK,2020-12-11T19:00:00Z,30.25,56.97,1.0,-3.0,120,4,,6.21,30.147638,,,,,,,,,,,CAVOK,,,,,,,,VFR,,,,,,,,,,,,METAR,1749.0
OIIP 111900Z 27008KT 8000 FEW040 SCT100 M01/M03 Q1021 A3015,OIIP,2020-12-11T19:00:00Z,35.78,50.83,-1.0,-3.0,270,8,,4.97,30.147638,,,,,,,,,,,FEW,4000,SCT,10000,,,,,MVFR,,,,,,,,,,,,METAR,1270.0
OIIK 111900Z 28002KT CAVOK M02/M04 Q1021,OIIK,2020-12-11T19:00:00Z,36.25,50.05,-2.0,-4.0,280,2,,6.21,30.147638,,,,,,,,,,,CAVOK,,,,,,,,VFR,,,,,,,,,,,,METAR,1278.0
OIIE 111900Z 30010KT CAVOK 02/M02 Q1022,OIIE,2020-12-11T19:00:00Z,35.42,51.15,2.0,-2.0,300,10,,6.21,30.177166,,,,,,,,,,,CAVOK,,,,,,,,VFR,,,,,,,,,,,,METAR,993.0
OIFS 111900Z 22002KT CAVOK M02/M07 Q1021,OIFS,2020-12-11T19:00:00Z,32.28,50.85,-2.0,-7.0,220,2,,6.21,30.147638,,,,,,,,,,,CAVOK,,,,,,,,VFR,,,,,,,,,,,,METAR,2042.0
OICI 111900Z 09004KT CAVOK 04/03 Q1023 A3022,OICI,2020-12-11T19:00:00Z,33.58,46.4,4.0,3.0,90,4,,6.21,30.206694,,,,,,,,,,,CAVOK,,,,,,,,VFR,,,,,,,,,,,,METAR,1323.0
OICC 111900Z 11008KT 9999 BKN090 03/M00 Q1022 A3019,OICC,2020-12-11T19:00:00Z,34.35,47.17,3.0,0.0,110,8,,6.21,30.177166,,,,,,,,,,,BKN,9000,,,,,,,VFR,,,,,,,,,,,,METAR,1310.0
OIBK 111900Z 31006KT CAVOK 20/11 Q1017 NOSIG,OIBK,2020-12-11T19:00:00Z,26.53,53.98,20.0,11.0,310,6,,6.21,30.029528,,,,,,TRUE,,,,,CAVOK,,,,,,,,VFR,,,,,,,,,,,,METAR,27.0
OIBB 111900Z 33010KT CAVOK 18/14 Q1019 A3010,OIBB,2020-12-11T19:00:00Z,28.93,50.83,18.0,14.0,330,10,,6.21,30.088583,,,,,,,,,,,CAVOK,,,,,,,,VFR,,,,,,,,,,,,METAR,15.0
OIAM 111900Z 00000KT 5000 HZ NSC 15/09 Q1019,OIAM,2020-12-11T19:00:00Z,30.55,49.15,15.0,9.0,0,0,,3.11,30.088583,,,,,,,,,,HZ,CLR,,,,,,,,MVFR,,,,,,,,,,,,METAR,7.0
OIAH 111900Z 00000KT CAVOK 10/09 Q1021,OIAH,2020-12-11T19:00:00Z,30.33,50.83,10.0,9.0,0,0,,6.21,30.147638,,,,,,,,,,,CAVOK,,,,,,,,VFR,,,,,,,,,,,,METAR,730.0
OIAA 111900Z 31004KT CAVOK 14/11 Q1020,OIAA,2020-12-11T19:00:00Z,30.35,48.22,14.0,11.0,310,4,,6.21,30.11811,,,,,,,,,,,CAVOK,,,,,,,,VFR,,,,,,,,,,,,METAR,4.0
OEYN 111900Z 32003KT CAVOK 22/10 Q1014 NOSIG,OEYN,2020-12-11T19:00:00Z,24.13,38.07,22.0,10.0,320,3,,6.21,29.940945,,,,,,TRUE,,,,,CAVOK,,,,,,,,VFR,,,,,,,,,,,,METAR,20.0
OEWJ 111900Z 02004KT CAVOK 21/13 Q1016 NOSIG,OEWJ,2020-12-11T19:00:00Z,26.18,36.47,21.0,13.0,20,4,,6.21,30.0,,,,,,TRUE,,,,,CAVOK,,,,,,,,VFR,,,,,,,,,,,,METAR,8.0
OEWD 111900Z 06010KT CAVOK 19/06 Q1019 NOSIG,OEWD,2020-12-11T19:00:00Z,20.5,45.2,19.0,6.0,60,10,,6.21,30.088583,,,,,,TRUE,,,,,CAVOK,,,,,,,,VFR,,,,,,,,,,,,METAR,629.0
OETR 111900Z 13005KT CAVOK 08/06 Q1020 NOSIG,OETR,2020-12-11T19:00:00Z,31.7,38.73,8.0,6.0,130,5,,6.21,30.11811,,,,,,TRUE,,,,,CAVOK,,,,,,,,VFR,,,,,,,,,,,,METAR,854.0
OETF 111900Z 26006KT CAVOK 15/M07 Q1024 NOSIG,OETF,2020-12-11T19:00:00Z,21.47,40.53,15.0,-7.0,260,6,,6.21,30.236221,,,,,,TRUE,,,,,CAVOK,,,,,,,,VFR,,,,,,,,,,,,METAR,1460.0
OETB 111900Z 13008KT CAVOK 13/M07 Q1020 NOSIG,OETB,2020-12-11T19:00:00Z,28.37,36.62,13.0,-7.0,130,8,,6.21,30.11811,,,,,,TRUE,,,,,CAVOK,,,,,,,,VFR,,,,,,,,,,,,METAR,770.0
OESK 111900Z 13007KT CAVOK 12/04 Q1023,OESK,2020-12-11T19:00:00Z,29.78,40.1,12.0,4.0,130,7,,6.21,30.206694,,,,,,,,,,,CAVOK,,,,,,,,VFR,,,,,,,,,,,,METAR,671.0
OESH 111900Z 08006KT CAVOK 21/M01 Q1020 NOSIG,OESH,2020-12-11T19:00:00Z,17.47,47.12,21.0,-1.0,80,6,,6.21,30.11811,,,,,,TRUE,,,,,CAVOK,,,,,,,,VFR,,,,,,,,,,,,METAR,720.0
OERY 111900Z 09004KT CAVOK 16/00 Q1022,OERY,2020-12-11T19:00:00Z,24.72,46.72,16.0,0.0,90,4,,6.21,30.177166,,,,,,,,,,,CAVOK,,,,,,,,VFR,,,,,,,,,,,,METAR,611.0
OERR 111900Z 12003KT CAVOK 12/05 Q1021 NOSIG,OERR,2020-12-11T19:00:00Z,30.9,41.13,12.0,5.0,120,3,,6.21,30.147638,,,,,,TRUE,,,,,CAVOK,,,,,,,,VFR,,,,,,,,,,,,METAR,554.0
OERK 111900Z 08003KT CAVOK 14/04 Q1022 NOSIG,OERK,2020-12-11T19:00:00Z,24.95,46.72,14.0,4.0,80,3,,6.21,30.177166,,,,,,TRUE,,,,,CAVOK,,,,,,,,VFR,,,,,,,,,,,,METAR,618.0
OERF 111900Z 16003KT CAVOK 09/02 Q1022,OERF,2020-12-11T19:00:00Z,29.62,43.48,9.0,2.0,160,3,,6.21,30.177166,,,,,,,,,,,CAVOK,,,,,,,,VFR,,,,,,,,,,,,METAR,441.0
OEPA 111900Z 00000KT CAVOK 13/07 Q1022 NOSIG,OEPA,2020-12-11T19:00:00Z,28.33,46.12,13.0,7.0,0,0,,6.21,30.177166,,,,,,TRUE,,,,,CAVOK,,,,,,,,VFR,,,,,,,,,,,,METAR,361.0
OENG 111900Z 00000KT CAVOK 16/M01 Q1022 NOSIG,OENG,2020-12-11T19:00:00Z,17.62,44.42,16.0,-1.0,0,0,,6.21,30.177166,,,,,,TRUE,,,,,CAVOK,,,,,,,,VFR,,,,,,,,,,,,METAR,1210.0
OEMA 111900Z 03006KT CAVOK 19/M10 Q1020 NOSIG,OEMA,2020-12-11T19:00:00Z,24.55,39.7,19.0,-10.0,30,6,,6.21,30.11811,,,,,,TRUE,,,,,CAVOK,,,,,,,,VFR,,,,,,,,,,,,METAR,639.0
OEKM 111900Z 22004KT CAVOK 14/12 Q1026 NOSIG,OEKM,2020-12-11T19:00:00Z,18.3,42.78,14.0,12.0,220,4,,6.21,30.295275,,,,,,TRUE,,,,,CAVOK,,,,,,,,VFR,,,,,,,,,,,,METAR,2038.0
OEKJ 111900Z 08004KT CAVOK 15/01 Q1024,OEKJ,2020-12-11T19:00:00Z,24.07,47.58,15.0,1.0,80,4,,6.21,30.236221,,,,,,,,,,,CAVOK,,,,,,,,VFR,,,,,,,,,,,,METAR,487.0
OEJN 111900Z 35004KT CAVOK 23/14 Q1016 NOSIG,OEJN,2020-12-11T19:00:00Z,21.68,39.15,23.0,14.0,350,4,,6.21,30.0,,,,,,TRUE,,,,,CAVOK,,,,,,,,VFR,,,,,,,,,,,,METAR,8.0
OEJB 111900Z AUTO 30006KT CAVOK 16/11 Q1021 NOSIG,OEJB,2020-12-11T19:00:00Z,27.05,49.4,16.0,11.0,300,6,,6.21,30.147638,,,TRUE,,,TRUE,,,,,CAVOK,,,,,,,,VFR,,,,,,,,,,,,METAR,6.0
OEHL 111900Z 03002KT CAVOK 14/05 Q1022 NOSIG,OEHL,2020-12-11T19:00:00Z,27.43,41.68,14.0,5.0,30,2,,6.21,30.177166,,,,,,TRUE,,,,,CAVOK,,,,,,,,VFR,,,,,,,,,,,,METAR,1002.0
OEGT 111900Z 07006KT CAVOK 10/00 Q1019 NOSIG,OEGT,2020-12-11T19:00:00Z,31.42,37.27,10.0,0.0,70,6,,6.21,30.088583,,,,,,TRUE,,,,,CAVOK,,,,,,,,VFR,,,,,,,,,,,,METAR,512.0
OEGS 111900Z 06006KT CAVOK 14/10 Q1021,OEGS,2020-12-11T19:00:00Z,26.3,43.77,14.0,10.0,60,6,,6.21,30.147638,,,,,,,,,,,CAVOK,,,,,,,,VFR,,,,,,,,,,,,METAR,647.0
OEGN 111900Z 31008KT 9999 FEW030 28/23 Q1016 NOSIG,OEGN,2020-12-11T19:00:00Z,16.9,42.58,28.0,23.0,310,8,,6.21,30.0,,,,,,TRUE,,,,,FEW,3000,,,,,,,VFR,,,,,,,,,,,,METAR,5.0
OEDR 111900Z 31007KT CAVOK 16/12 Q1019 NOSIG,OEDR,2020-12-11T19:00:00Z,26.27,50.17,16.0,12.0,310,7,,6.21,30.088583,,,,,,TRUE,,,,,CAVOK,,,,,,,,VFR,,,,,,,,,,,,METAR,17.0
OEDM 111900Z 06015KT CAVOK 19/M03 Q1020 NOSIG,OEDM,2020-12-11T19:00:00Z,24.45,44.12,19.0,-3.0,60,15,,6.21,30.11811,,,,,,TRUE,,,,,CAVOK,,,,,,,,VFR,,,,,,,,,,,,METAR,922.0
OEDF 111900Z 30004KT CAVOK 16/13 Q1020 NOSIG,OEDF,2020-12-11T19:00:00Z,26.43,49.82,16.0,13.0,300,4,,6.21,30.11811,,,,,,TRUE,,,,,CAVOK,,,,,,,,VFR,,,,,,,,,,,,METAR,15.0
OEBH 111900Z 00000KT CAVOK 19/07 Q1020 NOSIG,OEBH,2020-12-11T19:00:00Z,19.98,42.62,19.0,7.0,0,0,,6.21,30.11811,,,,,,TRUE,,,,,CAVOK,,,,,,,,VFR,,,,,,,,,,,,METAR,1167.0
OEBA 111900Z 23003KT CAVOK 17/11 Q1023 NOSIG,OEBA,2020-12-11T19:00:00Z,20.3,41.63,17.0,11.0,230,3,,6.21,30.206694,,,,,,TRUE,,,,,CAVOK,,,,,,,,VFR,,,,,,,,,,,,METAR,1659.0
OEAR 111900Z 00000KT CAVOK 24/08 Q1017,OEAR,2020-12-11T19:00:00Z,,,24.0,8.0,0,0,,6.21,30.029528,,,,,,,,,,,CAVOK,,,,,,,,VFR,,,,,,,,,,,,METAR,
OEAO 111900Z 00000KT CAVOK 16/M06 Q1020,OEAO,2020-12-11T19:00:00Z,26.48,38.12,16.0,-6.0,0,0,,6.21,30.11811,,,,,,,,,,,CAVOK,,,,,,,,VFR,,,,,,,,,,,,METAR,615.0
OEAH 111900Z 31006KT CAVOK 14/05 Q1020 NOSIG,OEAH,2020-12-11T19:00:00Z,25.28,49.48,14.0,5.0,310,6,,6.21,30.11811,,,,,,TRUE,,,,,CAVOK,,,,,,,,VFR,,,,,,,,,,,,METAR,180.0
OEAB 111900Z 00000KT CAVOK 13/11 Q1027 NOSIG,OEAB,2020-12-11T19:00:00Z,18.23,42.65,13.0,11.0,0,0,,6.21,30.324802,,,,,,TRUE,,,,,CAVOK,,,,,,,,VFR,,,,,,,,,,,,METAR,2092.0
NVVV 111900Z 10008KT 9999 -SHRA SCT018 OVC110 26/24 Q1006,NVVV,2020-12-11T19:00:00Z,-17.68,168.3,26.0,24.0,100,8,,6.21,29.704725,,,,,,,,,,-SHRA,SCT,1800,OVC,11000,,,,,VFR,,,,,,,,,,,,METAR,23.0
NVSS 111900Z 14002KT 9999 SCT018 BKN290 27/25 Q1005,NVSS,2020-12-11T19:00:00Z,-15.52,167.22,27.0,25.0,140,2,,6.21,29.675198,,,,,,,,,,,SCT,1800,BKN,29000,,,,,VFR,,,,,,,,,,,,METAR,47.0
NTAA 111900Z 24007KT 200V260 9999 FEW020 BKN260 29/23 Q1015 NOSIG,NTAA,2020-12-11T19:00:00Z,,,29.0,23.0,240,7,,6.21,29.970472,,,,,,TRUE,,,,,FEW,2000,BKN,26000,,,,,VFR,,,,,,,,,,,,METAR,
NSFA 111900Z 19004KT 9999FEW032 28/26 Q1010,NSFA,2020-12-11T19:00:00Z,,,28.0,26.0,190,4,,,29.822834,,,,,,,,,,,FEW,3200,,,,,,,,,,,,,,,,,,,METAR,
NIUE 111900Z AUTO 11011KT // 25/24 Q1012,NIUE,2020-12-11T19:00:00Z,-19.07,-169.92,25.0,24.0,110,11,,,29.88189,,,TRUE,,,,,,,,,,,,,,,,,,,,,,,,,,,,METAR,22.0
NGTA 111900Z 09007KT 9999 FEW020 BKN300 27/23 Q1007,NGTA,2020-12-11T19:00:00Z,1.37,173.13,27.0,23.0,90,7,,6.21,29.734253,,,,,,,,,,,FEW,2000,BKN,30000,,,,,VFR,,,,,,,,,,,,METAR,8.0
NGFU 111900Z 33009KT 9999 FEW018TCU SCT020 OVC110 29/25 Q1008,NGFU,2020-12-11T19:00:00Z,-8.52,179.18,29.0,25.0,330,9,,6.21,29.763779,,,,,,,,,,,FEW,1800,SCT,2000,OVC,11000,,,VFR,,,,,,,,,,,,METAR,2.0
NFTV 111900Z 10009KT 9999 SCT016 27/23 Q1013,NFTV,2020-12-11T19:00:00Z,-18.58,-173.97,27.0,23.0,100,9,,6.21,29.911417,,,,,,,,,,,SCT,1600,,,,,,,VFR,,,,,,,,,,,,METAR,71.0
NFTL 111900Z 09012KT 9999 SCT017TCU 28/23 Q1013,NFTL,2020-12-11T19:00:00Z,-19.78,-174.33,28.0,23.0,90,12,,6.21,29.911417,,,,,,,,,,,SCT,1700,,,,,,,VFR,,,,,,,,,,,,METAR,10.0
NFTF 111900Z 10009KT 9999 FEW016 26/23 Q1015,NFTF,2020-12-11T19:00:00Z,-21.23,-175.15,26.0,23.0,100,9,,6.21,29.970472,,,,,,,,,,,FEW,1600,,,,,,,VFR,,,,,,,,,,,,METAR,38.0
NFNA 111900Z 07008KT 9999 SCT018TCU 28/25 Q1010,NFNA,2020-12-11T19:00:00Z,-18.05,178.57,28.0,25.0,70,8,,6.21,29.822834,,,,,,,,,,,SCT,1800,,,,,,,VFR,,,,,,,,,,,,METAR,6.0
NFFN 111900Z 16003KT 9999 FEW030 SCT300 26/23 Q1009 NOSIG,NFFN,2020-12-11T19:00:00Z,-17.75,177.45,26.0,23.0,160,3,,6.21,29.793306,,,,,,TRUE,,,,,FEW,3000,SCT,30000,,,,,VFR,,,,,,,,,,,,METAR,14.0
NCSW 111900Z AUTO 08001KT //// ////// 25/22 Q1011,NCSW,2020-12-11T19:00:00Z,,,25.0,22.0,80,1,,,29.852362,,,TRUE,,,,,,,,,,,,,,,,,,,,,,,,,,,,METAR,
NCRK 111900Z AUTO 02003KT //// ////// 27/22 Q1011,NCRK,2020-12-11T19:00:00Z,,,27.0,22.0,20,3,,,29.852362,,,TRUE,,,,,,,,,,,,,,,,,,,,,,,,,,,,METAR,
NCPY 111900Z AUTO 05009KT //// ////// 28/22 Q1012,NCPY,2020-12-11T19:00:00Z,,,28.0,22.0,50,9,,,29.88189,,,TRUE,,,,,,,,,,,,,,,,,,,,,,,,,,,,METAR,
NCPL 111900Z AUTO 34003KT //// ////// 24/23 Q1012,NCPL,2020-12-11T19:00:00Z,,,24.0,23.0,340,3,,,29.88189,,,TRUE,,,,,,,,,,,,,,,,,,,,,,,,,,,,METAR,
NCPK 111900Z AUTO NIL,NCPK,2020-12-11T19:00:00Z,,,,,,,,,,,,TRUE,,,,,,,,,,,,,,,,,,,,,,,,,,,,METAR,
NCNS 111900Z AUTO 02005KT //// ////// 23/23 Q1011,NCNS,2020-12-11T19:00:00Z,,,23.0,23.0,20,5,,,29.852362,,,TRUE,,,,,,,,,,,,,,,,,,,,,,,,,,,,METAR,
NCMR 111900Z AUTO 02001KT //// ////// ///// Q1015,NCMR,2020-12-11T19:00:00Z,,,,,20,1,,,29.970472,,,TRUE,,,,,,,,,,,,,,,,,,,,,,,,,,,,METAR,
NCMK 111900Z AUTO 05002KT //// ////// ///// Q1014,NCMK,2020-12-11T19:00:00Z,,,,,50,2,,,29.940945,,,TRUE,,,,,,,,,,,,,,,,,,,,,,,,,,,,METAR,
NCMH 111900Z AUTO 04002KT //// ////// ///// Q1011,NCMH,2020-12-11T19:00:00Z,,,,,40,2,,,29.852362,,,TRUE,,,,,,,,,,,,,,,,,,,,,,,,,,,,METAR,
NCMG 111900Z AUTO 10002KT //// ////// ///// Q////,NCMG,2020-12-11T19:00:00Z,,,,,100,2,,,,,,TRUE,,,,,,,,,,,,,,,,,,,,,,,,,,,,METAR,
NCAT 111900Z AUTO 03002KT //// ////// ///// Q////,NCAT,2020-12-11T19:00:00Z,-19.97,-158.12,,,30,2,,,,,,TRUE,,,,,,,,,,,,,,,,,,,,,,,,,,,,METAR,11.0
NCAI 111900Z AUTO 01008KT 330V050 // 24/23 Q1015,NCAI,2020-12-11T19:00:00Z,-18.82,-159.77,24.0,23.0,10,8,,,29.970472,,,TRUE,,,,,,,,,,,,,,,,,,,,,,,,,,,,METAR,7.0
MZBZ 111900Z 09006KT 7000E 9999 -RA FEW018 OVC030 24/22 A2995 Q1014 NOSIG,MZBZ,2020-12-11T19:00:00Z,17.53,-88.3,24.0,22.0,90,6,,6.21,29.940945,,,,,,TRUE,,,,-RA,FEW,1800,OVC,3000,,,,,MVFR,,,,,,,,,,,,METAR,6.0
MYSM 111900Z AUTO 08011KT 9999 FEW044/// 27/17 A3005,MYSM,2020-12-11T19:00:00Z,24.05,-74.52,27.0,17.0,80,11,,6.21,30.050198,,,TRUE,,,,,,,,FEW,4400,,,,,,,VFR,,,,,,,,,,,,METAR,5.0
MYNN 111900Z 10012KT 9999 FEW037 26/16 A3007,MYNN,2020-12-11T19:00:00Z,25.03,-77.47,26.0,16.0,100,12,,6.21,30.070866,,,,,,,,,,,FEW,3700,,,,,,,VFR,,,,,,,,,,,,METAR,5.0
MYGF 111900Z 03011KT 9999 FEW035 22/15 A3009,MYGF,2020-12-11T19:00:00Z,26.55,-78.7,22.0,15.0,30,11,,6.21,30.088583,,,,,,,,,,,FEW,3500,,,,,,,VFR,,,,,,,,,,,,METAR,2.0
MYCB 111900Z AUTO 07014KT 9999 FEW042 26/17 A3005,MYCB,2020-12-11T19:00:00Z,,,26.0,17.0,70,14,,6.21,30.050198,,,TRUE,,,,,,,,FEW,4200,,,,,,,VFR,,,,,,,,,,,,METAR,
MWCR 111900Z 05010KT 9999 FEW018 28/23 Q1013,MWCR,2020-12-11T19:00:00Z,19.3,-81.37,28.0,23.0,50,10,,6.21,29.911417,,,,,,,,,,,FEW,1800,,,,,,,VFR,,,,,,,,,,,,METAR,4.0
MWCB 111900Z 08006KT 9999 FEW016 28/22 Q1014,MWCB,2020-12-11T19:00:00Z,19.68,-79.88,28.0,22.0,80,6,,6.21,29.940945,,,,,,,,,,,FEW,1600,,,,,,,VFR,,,,,,,,,,,,METAR,7.0
MRPV 111900Z 08016G26KT 9999 SCT030 23/15 A2997 NOSIG,MRPV,2020-12-11T19:00:00Z,9.95,-84.15,23.0,15.0,80,16,26,6.21,29.970472,,,,,,TRUE,,,,,SCT,3000,,,,,,,VFR,,,,,,,,,,,,METAR,998.0
MROC 111900Z 09015KT 9999 SCT035 27/16 A2993 NOSIG,MROC,2020-12-11T19:00:00Z,10.0,-84.22,27.0,16.0,90,15,,6.21,29.929134,,,,,,TRUE,,,,,SCT,3500,,,,,,,VFR,,,,,,,,,,,,METAR,900.0
MRLM 111900Z 23005KT 9999 FEW010 SCT120 25/23 A2988 REDZ,MRLM,2020-12-11T19:00:00Z,9.97,-83.03,25.0,23.0,230,5,,6.21,29.878937,,,,,,,,,,,FEW,1000,SCT,12000,,,,,VFR,,,,,,,,,,,,METAR,2.0
MRLB 111900Z 11008KT 9999 FEW030 31/20 A2980,MRLB,2020-12-11T19:00:00Z,10.6,-85.55,31.0,20.0,110,8,,6.21,29.799213,,,,,,,,,,,FEW,3000,,,,,,,VFR,,,,,,,,,,,,METAR,79.0
MPTO 111900Z 04011KT 360V090 9999 SCT020 31/20 Q1008 NOSIG,MPTO,2020-12-11T19:00:00Z,9.05,-79.38,31.0,20.0,40,11,,6.21,29.763779,,,,,,TRUE,,,,,SCT,2000,,,,,,,VFR,,,,,,,,,,,,METAR,7.0
MPSM 111900Z 20003KT 9999 FEW025 30/23 Q1008,MPSM,2020-12-11T19:00:00Z,8.38,-80.13,30.0,23.0,200,3,,6.21,29.763779,,,,,,,,,,,FEW,2500,,,,,,,VFR,,,,,,,,,,,,METAR,36.0
MPPA 111900Z 34007KT 9999 FEW020 33/23 Q1008,MPPA,2020-12-11T19:00:00Z,8.92,-79.6,33.0,23.0,340,7,,6.21,29.763779,,,,,,,,,,,FEW,2000,,,,,,,VFR,,,,,,,,,,,,METAR,1.0
MPMG 111900Z 01008KT 330V050 9999 SCT020 31/21 Q1008 NOSIG,MPMG,2020-12-11T19:00:00Z,8.98,-79.57,31.0,21.0,10,8,,6.21,29.763779,,,,,,TRUE,,,,,SCT,2000,,,,,,,VFR,,,,,,,,,,,,METAR,6.0
MPBO 111900Z 25007KT 9999 FEW018TCU Q1013,MPBO,2020-12-11T19:00:00Z,9.35,-82.25,,,250,7,,6.21,29.911417,,,,,,,,,,,FEW,1800,,,,,,,VFR,,,,,,,,,,,,METAR,2.0
MNRS 111900Z 09008KT 9999 FEW014 28/22 Q1010,MNRS,2020-12-11T19:00:00Z,11.42,-85.82,28.0,22.0,90,8,,6.21,29.822834,,,,,,,,,,,FEW,1400,,,,,,,VFR,,,,,,,,,,,,METAR,53.0
MNPC 111900Z 36008KT 7000 SCT016 28/25 Q1011 HZ,MNPC,2020-12-11T19:00:00Z,14.05,-83.38,28.0,25.0,360,8,,4.35,29.852362,,,,,,,,,,HZ,SCT,1600,,,,,,,MVFR,,,,,,,,,,,,METAR,10.0
MNMG 111900Z 07010KT 9999 FEW024 30/20 Q1010 A2983 NOSIG,MNMG,2020-12-11T19:00:00Z,12.15,-86.17,30.0,20.0,70,10,,6.21,29.822834,,,,,,TRUE,,,,,FEW,2400,,,,,,,VFR,,,,,,,,,,,,METAR,59.0
MNJU 111900Z 09010KT 9999 SCT020 29/22 Q1011,MNJU,2020-12-11T19:00:00Z,12.08,-85.37,29.0,22.0,90,10,,6.21,29.852362,,,,,,,,,,,SCT,2000,,,,,,,VFR,,,,,,,,,,,,METAR,85.0
MNJG 111900Z 36016KT 9999 BKN019 20/17 Q1012,MNJG,2020-12-11T19:00:00Z,13.13,-86.02,20.0,17.0,360,16,,6.21,29.88189,,,,,,,,,,,BKN,1900,,,,,,,MVFR,,,,,,,,,,,,METAR,981.0
MNCH 111900Z 13004KT 9999 FEW025 31/21 Q1010,MNCH,2020-12-11T19:00:00Z,12.63,-87.13,31.0,21.0,130,4,,6.21,29.822834,,,,,,,,,,,FEW,2500,,,,,,,VFR,,,,,,,,,,,,METAR,70.0
MNBL 111900Z 04004KT 9999 SCT020 30/23 Q1011,MNBL,2020-12-11T19:00:00Z,12.0,-83.77,30.0,23.0,40,4,,6.21,29.852362,,,,,,,,,,,SCT,2000,,,,,,,VFR,,,,,,,,,,,,METAR,10.0
MKJS 111900Z 08013KT 9999 FEW022 SCT040 28/22 Q1012,MKJS,2020-12-11T19:00:00Z,18.5,-77.92,28.0,22.0,80,13,,6.21,29.88189,,,,,,,,,,,FEW,2200,SCT,4000,,,,,VFR,,,,,,,,,,,,METAR,3.0
MKJP 111900Z 16015KT 9999 SCT020 30/23 Q1012,MKJP,2020-12-11T19:00:00Z,17.93,-76.78,30.0,23.0,160,15,,6.21,29.88189,,,,,,,,,,,SCT,2000,,,,,,,VFR,,,,,,,,,,,,METAR,3.0
MHYR 111900Z 25004KT 9999 SCT023TCU 27/22,MHYR,2020-12-11T19:00:00Z,15.13,-87.13,27.0,22.0,250,4,,6.21,,,,,,,,,,,,SCT,2300,,,,,,,VFR,,,,,,,,,,,,METAR,682.0
MHTR 111900Z VRB02KT 9999 SCT025TCU 26/21,MHTR,2020-12-11T19:00:00Z,15.93,-85.93,26.0,21.0,0,2,,6.21,,,,,,,,,,,,SCT,2500,,,,,,,VFR,,,,,,,,,,,,METAR,3.0
MHTG 111900Z 09006KT 9999 SCT034 26/15 Q1017 A3003 NOSIG,MHTG,2020-12-11T19:00:00Z,14.07,-87.22,26.0,15.0,90,6,,6.21,30.029528,,,,,,TRUE,,,,,SCT,3400,,,,,,,VFR,,,,,,,,,,,,METAR,1001.0
MHTE 111900Z 36008KT 9999 FEW024 27/22 Q1013,MHTE,2020-12-11T19:00:00Z,15.78,-87.48,27.0,22.0,360,8,,6.21,29.911417,,,,,,,,,,,FEW,2400,,,,,,,VFR,,,,,,,,,,,,METAR,7.0
MHSR 111900Z VRB02KT 9999 FEW030 25/16,MHSR,2020-12-11T19:00:00Z,14.78,-88.78,25.0,16.0,0,2,,6.21,,,,,,,,,,,,FEW,3000,,,,,,,VFR,,,,,,,,,,,,METAR,1087.0
MHRO 111900Z 09012KT 9999 SCT020 FEW022CB SCT080 26/22 Q1014 A2995 TEMPO 6000 RA,MHRO,2020-12-11T19:00:00Z,16.32,-86.53,26.0,22.0,90,12,,6.21,29.940945,,,,,,,,,,,SCT,2000,FEW,2200,SCT,8000,,,VFR,,,,,,,,,,,,METAR,6.0
MHPL 111900Z 36008KT 9999 SCT028 BKN080 ///// Q1014,MHPL,2020-12-11T19:00:00Z,15.27,-83.78,,,360,8,,6.21,29.940945,,,,,,,,,,,SCT,2800,BKN,8000,,,,,VFR,,,,,,,,,,,,METAR,13.0
MHNO 111900Z 36004KT 9999 FEW040 27/19,MHNO,2020-12-11T19:00:00Z,14.43,-89.18,27.0,19.0,360,4,,6.21,,,,,,,,,,,,FEW,4000,,,,,,,VFR,,,,,,,,,,,,METAR,790.0
MHLE 111900Z 15004KT 9999 FEW024 24/12,MHLE,2020-12-11T19:00:00Z,14.28,-88.17,24.0,12.0,150,4,,6.21,,,,,,,,,,,,FEW,2400,,,,,,,VFR,,,,,,,,,,,,METAR,1688.0
MHLC 111900Z 06006KT 9999 SCT025 BKN070 26/21 Q1013 A2992 NOSIG,MHLC,2020-12-11T19:00:00Z,15.75,-86.85,26.0,21.0,60,6,,6.21,29.911417,,,,,,TRUE,,,,,SCT,2500,BKN,7000,,,,,VFR,,,,,,,,,,,,METAR,13.0
MHGS 111900Z 03004KT 9999 FEW040 23/16,MHGS,2020-12-11T19:00:00Z,14.57,-88.6,23.0,16.0,30,4,,6.21,,,,,,,,,,,,FEW,4000,,,,,,,VFR,,,,,,,,,,,,METAR,913.0
MHCH 111900Z 01025KT 9999 FEW034 32/23,MHCH,2020-12-11T19:00:00Z,13.32,-87.15,32.0,23.0,10,25,,6.21,,,,,,,,,,,,FEW,3400,,,,,,,VFR,,,,,,,,,,,,METAR,58.0
MHCA 111900Z 12003KT 9999 FEW028 SCT080 28/19,MHCA,2020-12-11T19:00:00Z,14.87,-85.78,28.0,19.0,120,3,,6.21,,,,,,,,,,,,FEW,2800,SCT,8000,,,,,VFR,,,,,,,,,,,,METAR,386.0
MGZA 111900Z 09010KT CAVOK 30/18 QFE 987/4,MGZA,2020-12-11T19:00:00Z,14.97,-89.53,30.0,18.0,90,10,,6.21,,,,,,,,,,,,CAVOK,,,,,,,,VFR,,,,,,,,,,,,METAR,195.0
MGTU 111900Z 12004KT CAVOK 33/22 SCT200,MGTU,2020-12-11T19:00:00Z,,,33.0,22.0,120,4,,6.21,,,,,,,,,,,,SCT,20000,,,,,,,VFR,,,,,,,,,,,,METAR,
MGSJ 111900Z 15008KT 9000 SKC 31/18 Q1011 A2985 FU,MGSJ,2020-12-11T19:00:00Z,13.93,-90.83,31.0,18.0,150,8,,5.59,29.852362,,,,,,,,,,FU,SKC,,,,,,,,VFR,,,,,,,,,,,,METAR,7.0
MGRT 111900Z 22010KT 9999 SCT020 32/22 Q1013 2991 VOL,SANTA MARIA Y SANTIAGUITO EN ACTIVIDAD,MGRT,2020-12-11T19:00:00Z,14.53,-91.7,32.0,22.0,220,10,,6.21,29.911417,,,,,,,,,,SA SA,SCT,2000,,,,,,,VFR,,,,,,,,,,,,METAR,209.0
MGQZ 111900Z 14012KT CAVOK 22/10 QFE 771/9,MGQZ,2020-12-11T19:00:00Z,14.87,-91.5,22.0,10.0,140,12,,6.21,,,,,,,,,,,,CAVOK,,,,,,,,VFR,,,,,,,,,,,,METAR,2378.0
MGPB 111900Z 30004KT 9999 SCT020 26/21 Q1014 A2994,MGPB,2020-12-11T19:00:00Z,15.73,-88.58,26.0,21.0,300,4,,6.21,29.940945,,,,,,,,,,,SCT,2000,,,,,,,VFR,,,,,,,,,,,,METAR,6.0
MGMT 111900Z 18004KT CAVOK 33/22,MGMT,2020-12-11T19:00:00Z,,,33.0,22.0,180,4,,6.21,,,,,,,,,,,,CAVOK,,,,,,,,VFR,,,,,,,,,,,,METAR,
MGMM 111900Z 12006KT 9999 BKN020 28/20 Q1014 A2994,MGMM,2020-12-11T19:00:00Z,16.9,-89.87,28.0,20.0,120,6,,6.21,29.940945,,,,,,,,,,,BKN,2000,,,,,,,MVFR,,,,,,,,,,,,METAR,105.0
MGHT 111900Z 00000KT 9999 FEW030 26/12,MGHT,2020-12-11T19:00:00Z,15.32,-91.5,26.0,12.0,0,0,,6.21,,,,,,,,,,,,FEW,3000,,,,,,,VFR,,,,,,,,,,,,METAR,1875.0
MGGT 111900Z 06004KT CAVOK 26/13 Q1023 A3021,MGGT,2020-12-11T19:00:00Z,14.58,-90.53,26.0,13.0,60,4,,6.21,30.206694,,,,,,,,,,,CAVOK,,,,,,,,VFR,,,,,,,,,,,,METAR,1497.0
MGES 111900Z 00000KT CAVOK 26/16 QFE 908.6,MGES,2020-12-11T19:00:00Z,14.57,-89.32,26.0,16.0,0,0,,6.21,,,,,,,,,,,,CAVOK,,,,,,,,VFR,,,,,,,,,,,,METAR,948.0
MGCB 111900Z 02006KT CAVOK 27/19 QFE 869.5,MGCB,2020-12-11T19:00:00Z,15.48,-90.42,27.0,19.0,20,6,,6.21,,,,,,,,,,,,CAVOK,,,,,,,,VFR,,,,,,,,,,,,METAR,1323.0
MDST 111900Z 08008KT 9999 BKN020 26/21 Q1013,MDST,2020-12-11T19:00:00Z,19.4,-70.6,26.0,21.0,80,8,,6.21,29.911417,,,,,,,,,,,BKN,2000,,,,,,,MVFR,,,,,,,,,,,,METAR,175.0
MDSD 111900Z 13004KT 9999 BKN020 SCT070 30/22 Q1013,MDSD,2020-12-11T19:00:00Z,18.42,-69.67,30.0,22.0,130,4,,6.21,29.911417,,,,,,,,,,,BKN,2000,SCT,7000,,,,,MVFR,,,,,,,,,,,,METAR,18.0
MDPP 111900Z 00000JT 9999 SCT018 BKN070 24/23 Q1015,MDPP,2020-12-11T19:00:00Z,19.75,-70.57,24.0,23.0,,,,6.21,29.970472,,,,,,,,,,,SCT,1800,BKN,7000,,,,,VFR,,,,,,,,,,,,SPECI,9.0
MDPC 111900Z 12009KT 9999 SCT022 28/22 Q1013 NOSIG,MDPC,2020-12-11T19:00:00Z,18.57,-68.37,28.0,22.0,120,9,,6.21,29.911417,,,,,,TRUE,,,,,SCT,2200,,,,,,,VFR,,,,,,,,,,,,METAR,10.0
MDLR 111900Z 09007KT 9999 SCT020 29/22 Q1012,MDLR,2020-12-11T19:00:00Z,18.45,-68.92,29.0,22.0,90,7,,6.21,29.88189,,,,,,,,,,,SCT,2000,,,,,,,VFR,,,,,,,,,,,,METAR,66.0
MDJB 111900Z 36010KT 9999 SCT018 BKN080 29/24 Q1013 NOSIG,MDJB,2020-12-11T19:00:00Z,18.57,-69.98,29.0,24.0,360,10,,6.21,29.911417,,,,,,TRUE,,,,,SCT,1800,BKN,8000,,,,,VFR,,,,,,,,,,,,METAR,24.0
MDCY 111900Z 36004KT 9999 FEW018 SCT080 26/25 Q1013,MDCY,2020-12-11T19:00:00Z,19.27,-69.73,26.0,25.0,360,4,,6.21,29.911417,,,,,,,,,,,FEW,1800,SCT,8000,,,,,VFR,,,,,,,,,,,,METAR,4.0
MDBH 111900Z 13010KT 9999 FEW022 BKN100 30/23 Q1013,MDBH,2020-12-11T19:00:00Z,18.25,-71.12,30.0,23.0,130,10,,6.21,29.911417,,,,,,,,,,,FEW,2200,BKN,10000,,,,,VFR,,,,,,,,,,,,METAR,7.0
MDAB 111900Z 36004KT 9999 SCT016 BKN070 26/24 Q1014,MDAB,2020-12-11T19:00:00Z,19.2,-69.43,26.0,24.0,360,4,,6.21,29.940945,,,,,,,,,,,SCT,1600,BKN,7000,,,,,VFR,,,,,,,,,,,,METAR,28.0
MBPV 111900Z 07010KT 9999 SCT014CB BKN025 26/19 Q1014,MBPV,2020-12-11T19:00:00Z,21.77,-72.27,26.0,19.0,70,10,,6.21,29.940945,,,,,,,,,,,SCT,1400,BKN,2500,,,,,MVFR,,,,,,,,,,,,METAR,7.0
MBGT 111900Z 05015G28KT 9999 SCT020TCU BKN060 26/19 Q1015,MBGT,2020-12-11T19:00:00Z,21.43,-71.15,26.0,19.0,50,15,28,6.21,29.970472,,,,,,,,,,,SCT,2000,BKN,6000,,,,,VFR,,,,,,,,,,,,METAR,6.0
LWSK 111900Z 00000KT 7000 OVC050 06/05 Q1006 NOSIG,LWSK,2020-12-11T19:00:00Z,41.97,21.63,6.0,5.0,0,0,,4.35,29.704725,,,,,,TRUE,,,,,OVC,5000,,,,,,,MVFR,,,,,,,,,,,,METAR,232.0
LRTZ 111900Z VRB03KT 6000 SCT010 SCT090 06/05 Q1007 WHT YLO,LRTZ,2020-12-11T19:00:00Z,43.98,28.62,6.0,5.0,0,3,,3.73,29.734253,,,,,,,,,,,SCT,1000,SCT,9000,,,,,MVFR,,,,,,,,,,,,METAR,45.0
LRFT 111900Z 27004KT 2500 BR OVC003 04/04 Q1008 YLO YLO,LRFT,2020-12-11T19:00:00Z,44.38,27.72,4.0,4.0,270,4,,1.55,29.763779,,,,,,,,,,BR,OVC,300,,,,,,,LIFR,,,,,,,,,,,,METAR,54.0
LRCT 111900Z VRB01KT 0800 FG BKN002 OVC006 05/05 Q1007 AMB AMB,LRCT,2020-12-11T19:00:00Z,46.5,23.88,5.0,5.0,0,1,,0.5,29.734253,,,,,,,,,,FG,BKN,200,OVC,600,,,,,LIFR,,,,,,,,,,,,METAR,324.0
LRBO 111900Z 03018KT 4000 BR OVC008 05/04 Q1009 GRN GRN,LRBO,2020-12-11T19:00:00Z,45.22,26.97,5.0,4.0,30,18,,2.49,29.793306,,,,,,,,,,BR,OVC,800,,,,,,,IFR,,,,,,,,,,,,METAR,104.0
LQTZ 111900Z 09005KT 6000 BKN008 OVC020 04/03 Q1005,LQTZ,2020-12-11T19:00:00Z,44.47,18.73,4.0,3.0,90,5,,3.73,29.675198,,,,,,,,,,,BKN,800,OVC,2000,,,,,IFR,,,,,,,,,,,,METAR,242.0
LQSA 111900Z VRB01KT 4000 BR BKN040 04/04 Q1003,LQSA,2020-12-11T19:00:00Z,43.82,18.32,4.0,4.0,0,1,,2.49,29.616142,,,,,,,,,,BR,BKN,4000,,,,,,,IFR,,,,,,,,,,,,METAR,505.0
LQBK 111900Z 09002KT 3000 -DZ BR OVC007 04/03 Q1005 NOSIG,LQBK,2020-12-11T19:00:00Z,44.93,17.3,4.0,3.0,90,2,,1.86,29.675198,,,,,,TRUE,,,,-DZ BR,OVC,700,,,,,,,IFR,,,,,,,,,,,,METAR,114.0
LPMT 111900Z 26007KT 230V290 9999 SCT009 OVC016 16/15 Q1018,LPMT,2020-12-11T19:00:00Z,38.7,-9.05,16.0,15.0,260,7,,6.21,30.059055,,,,,,,,,,,SCT,900,OVC,1600,,,,,MVFR,,,,,,,,,,,,METAR,4.0
LPMR 111900Z 28011KT 3000 -DZRA BR OVC003 16/16 Q1017,LPMR,2020-12-11T19:00:00Z,39.82,-8.88,16.0,16.0,280,11,,1.86,30.029528,,,,,,,,,,-DZ -RA BR,OVC,300,,,,,,,LIFR,,,,,,,,,,,,METAR,50.0
LPLA 111900Z /////KT 9999 FEW016 18/14 Q1022,LPLA,2020-12-11T19:00:00Z,38.77,-27.1,18.0,14.0,,,,6.21,30.177166,,,,,,,,,,,FEW,1600,,,,,,,VFR,,,,,,,,,,,,METAR,60.0
LPCS 111900Z 29014KT 250V310 2000 -DZ BR FEW004 BKN006 16/15 Q1018,LPCS,2020-12-11T19:00:00Z,38.73,-9.35,16.0,15.0,290,14,,1.24,30.059055,,,,,,,,,,-DZ BR,FEW,400,BKN,600,,,,,IFR,,,,,,,,,,,,METAR,99.0
LPBJ 111900Z 28012KT 2000 -DZ BR OVC003 15/15 Q1019,LPBJ,2020-12-11T19:00:00Z,38.08,-7.93,15.0,15.0,280,12,,1.24,30.088583,,,,,,,,,,-DZ BR,OVC,300,,,,,,,LIFR,,,,,,,,,,,,METAR,196.0
LKKV 111900Z 12010KT 9999 OVC005 M01/M01 Q0998,LKKV,2020-12-11T19:00:00Z,50.2,12.92,-1.0,-1.0,120,10,,6.21,29.468504,,,,,,,,,,,OVC,500,,,,,,,IFR,,,,,,,,,,,,METAR,600.0
LFVP 111900Z 31017KT 280V340 9999 BKN023 04/00 Q1012 NOSIG,LFVP,2020-12-11T19:00:00Z,46.77,-56.18,4.0,0.0,310,17,,6.21,29.88189,,,,,,TRUE,,,,,BKN,2300,,,,,,,MVFR,,,,,,,,,,,,METAR,5.0
LFHP 111900Z AUTO 10003KT 050V170 9999 FEW040 OVC110 03/02 Q0997,LFHP,2020-12-11T19:00:00Z,45.07,3.77,3.0,2.0,100,3,,6.21,29.438976,,,TRUE,,,,,,,,FEW,4000,OVC,11000,,,,,VFR,,,,,,,,,,,,METAR,829.0
LEAO 111900Z 27018KT 9999 OVC010 14/12 Q1013,LEAO,2020-12-11T19:00:00Z,38.95,-3.73,14.0,12.0,270,18,,6.21,29.911417,,,,,,,,,,,OVC,1000,,,,,,,MVFR,,,,,,,,,,,,METAR,621.0
LBPL 111900Z 00000KT 0100 +FG VV/// 04/04 Q1008,LBPL,2020-12-11T19:00:00Z,43.45,24.5,4.0,4.0,0,0,,0.06,29.763779,,,,,,,,,,+FG,OVX,0,,,,,,,LIFR,,,,,,,,,,,,METAR,93.0
LBPG 111900Z 28004KT 9999 BKN200 04/04 Q1007,LBPG,2020-12-11T19:00:00Z,42.28,24.72,4.0,4.0,280,4,,6.21,29.734253,,,,,,,,,,,BKN,20000,,,,,,,VFR,,,,,,,,,,,,METAR,198.0
LBIA 111900Z 06004KT 9999 BKN200 07/06 Q1007,LBIA,2020-12-11T19:00:00Z,42.45,26.35,7.0,6.0,60,4,,6.21,29.734253,,,,,,,,,,,BKN,20000,,,,,,,VFR,,,,,,,,,,,,METAR,155.0
KSTP 111900Z 02006KT 10SM BKN022 03/M03 A3011 RMK AO2 T00281028,KSTP,2020-12-11T19:00:00Z,44.93,-93.05,2.8,-2.8,20,6,,10.0,30.109253,,,,TRUE,,,,,,,BKN,2200,,,,,,,MVFR,,,,,,,,,,,,SPECI,213.0
KNEL 111900Z 22012KT 10SM CLR 14/05 A3010 RMK AO2 SLP191 T01440050 $,KNEL,2020-12-11T19:00:00Z,40.03,-74.33,14.4,5.0,220,12,,10.0,30.100393,1019.1,,,TRUE,TRUE,,,,,,CLR,,,,,,,,VFR,,,,,,,,,,,,METAR,26.0
HUEN 111900Z 17006KT 9999 FEW021 FEW023CB 23/18 Q1017,HUEN,2020-12-11T19:00:00Z,0.03,32.45,23.0,18.0,170,6,,6.21,30.029528,,,,,,,,,,,FEW,2100,FEW,2300,,,,,VFR,,,,,,,,,,,,METAR,1147.0
HTZA 111900Z 00000KT 9999 FEW016 27/24 Q1012 NOSIG,HTZA,2020-12-11T19:00:00Z,-6.22,39.22,27.0,24.0,0,0,,6.21,29.88189,,,,,,TRUE,,,,,FEW,1600,,,,,,,VFR,,,,,,,,,,,,METAR,19.0
HTTB 111900Z 00000KT 9999 TS SCT017 FEW018CB BKN080 20/16 Q1020 NOSIG,HTTB,2020-12-11T19:00:00Z,-5.07,32.82,20.0,16.0,0,0,,6.21,30.11811,,,,,,TRUE,,,,TS,SCT,1700,FEW,1800,BKN,8000,,,VFR,,,,,,,,,,,,METAR,1185.0
HTSU 111900Z 00000KT 9999 FEW018 FEW020CB 17/17 Q1025,HTSU,2020-12-11T19:00:00Z,-7.95,31.6,17.0,17.0,0,0,,6.21,30.265747,,,,,,,,,,,FEW,1800,FEW,2000,,,,,VFR,,,,,,,,,,,,METAR,1820.0
HTSO 111900Z 13008KT 9999 FEW021 23/19 Q1017,HTSO,2020-12-11T19:00:00Z,-10.67,35.58,23.0,19.0,130,8,,6.21,30.029528,,,,,,,,,,,FEW,2100,,,,,,,VFR,,,,,,,,,,,,METAR,1058.0
HTMW 111900Z 12010KT 9999 SCT021 FEW022CB BKN090 22/20 Q1017 NOSIG,HTMW,2020-12-11T19:00:00Z,-2.43,32.92,22.0,20.0,120,10,,6.21,30.029528,,,,,,TRUE,,,,,SCT,2100,FEW,2200,BKN,9000,,,VFR,,,,,,,,,,,,METAR,1144.0
HTMU 111900Z 00000KT 9999 FEW018CB SCT090 22/19 Q1018,HTMU,2020-12-11T19:00:00Z,-1.5,33.8,22.0,19.0,0,0,,6.21,30.059055,,,,,,,,,,,FEW,1800,SCT,9000,,,,,VFR,,,,,,,,,,,,METAR,1154.0
HTMT 111900Z 02012KT 9999 SCT022 27/24 Q1012,HTMT,2020-12-11T19:00:00Z,-10.33,40.18,27.0,24.0,20,12,,6.21,29.88189,,,,,,,,,,,SCT,2200,,,,,,,VFR,,,,,,,,,,,,METAR,114.0
HTMG 111900Z 06015KT 9999 FEW025 25/22 Q1014,HTMG,2020-12-11T19:00:00Z,-6.78,37.65,25.0,22.0,60,15,,6.21,29.940945,,,,,,,,,,,FEW,2500,,,,,,,VFR,,,,,,,,,,,,METAR,512.0
HTKJ 111900Z 08010KT 9999 FEW027CB 23/17 Q1017 NOSIG,HTKJ,2020-12-11T19:00:00Z,-3.42,37.07,23.0,17.0,80,10,,6.21,30.029528,,,,,,TRUE,,,,,FEW,2700,,,,,,,VFR,,,,,,,,,,,,METAR,893.0
HTKA 111900Z 00000KT 9999 FEW018 FEW019CB BKN080 20/19 Q1016 NOSIG,HTKA,2020-12-11T19:00:00Z,-4.88,29.67,20.0,19.0,0,0,,6.21,30.0,,,,,,TRUE,,,,,FEW,1800,FEW,1900,BKN,8000,,,VFR,,,,,,,,,,,,METAR,819.0
HTIR 111900Z 00000KT 9999 FEW020 18/17 Q1021,HTIR,2020-12-11T19:00:00Z,-7.67,35.75,18.0,17.0,0,0,,6.21,30.147638,,,,,,,,,,,FEW,2000,,,,,,,VFR,,,,,,,,,,,,METAR,1432.0
HTIB 111900Z 00000KT 9999 VCTS FEW017 FEW018 BKN080CB 19/19 Q1017,HTIB,2020-12-11T19:00:00Z,,,19.0,19.0,0,0,,6.21,30.029528,,,,,,,,,,VCTS,FEW,1700,FEW,1800,BKN,8000,,,VFR,,,,,,,,,,,,METAR,
HTDO 111900Z 18010KT 9999 DZ SCT019 FEW020CB OVC070 20/18 Q1020,HTDO,2020-12-11T19:00:00Z,-6.17,35.77,20.0,18.0,180,10,,6.21,30.11811,,,,,,,,,,DZ,SCT,1900,FEW,2000,OVC,7000,,,VFR,,,,,,,,,,,,METAR,1119.0
HTDA 111900Z 07006KT 9999 SCT013 28/24 Q1013 NOSIG,HTDA,2020-12-11T19:00:00Z,-6.88,39.2,28.0,24.0,70,6,,6.21,29.911417,,,,,,TRUE,,,,,SCT,1300,,,,,,,VFR,,,,,,,,,,,,METAR,53.0
HTBU 111900Z 00000KT 9999 FEW018 20/18 Q1017,HTBU,2020-12-11T19:00:00Z,-1.32,31.82,20.0,18.0,0,0,,6.21,30.029528,,,,,,,,,,,FEW,1800,,,,,,,VFR,,,,,,,,,,,,METAR,1144.0
HTAR 111900Z 00000KT 9999 FEW025 18/15 Q1020 NOSIG,HTAR,2020-12-11T19:00:00Z,-3.37,36.63,18.0,15.0,0,0,,6.21,30.11811,,,,,,TRUE,,,,,FEW,2500,,,,,,,VFR,,,,,,,,,,,,METAR,1386.0
HKNW 111900Z 06005KT CAVOK 1914 Q1022,HKNW,2020-12-11T19:00:00Z,-1.32,36.82,,,60,5,,6.21,30.177166,,,,,,,,,,,CAVOK,,,,,,,,VFR,,,,,,,,,,,,METAR,1666.0
HKMO 111900Z 05007KT 9999 FEW023 27/24 Q1012 NOSIG,HKMO,2020-12-11T19:00:00Z,-4.02,39.62,27.0,24.0,50,7,,6.21,29.88189,,,,,,TRUE,,,,,FEW,2300,,,,,,,VFR,,,,,,,,,,,,METAR,55.0
HKKI 111900Z 07010KT CAVOK 18/16 Q1018,HKKI,2020-12-11T19:00:00Z,-0.1,34.75,18.0,16.0,70,10,,6.21,30.059055,,,,,,,,,,,CAVOK,,,,,,,,VFR,,,,,,,,,,,,METAR,1152.0
HKJK 111900Z 03006KT CAVOK 18/14 Q1023 NOSIG,HKJK,2020-12-11T19:00:00Z,-1.32,36.92,18.0,14.0,30,6,,6.21,30.206694,,,,,,TRUE,,,,,CAVOK,,,,,,,,VFR,,,,,,,,,,,,METAR,1615.0
HKEL 111900Z VRB02KT CAVOK 13/12 Q1025,HKEL,2020-12-11T19:00:00Z,0.4,35.23,13.0,12.0,0,2,,6.21,30.265747,,,,,,,,,,,CAVOK,,,,,,,,VFR,,,,,,,,,,,,METAR,2116.0
HESH 111900Z 24002KT CAVOK 20/11 Q1016 NOSIG,HESH,2020-12-11T19:00:00Z,27.97,34.38,20.0,11.0,240,2,,6.21,30.0,,,,,,TRUE,,,,,CAVOK,,,,,,,,VFR,,,,,,,,,,,,METAR,50.0
HESG 111900Z 21004KT CAVOK 20/07 Q1015 NOSIG,HESG,2020-12-11T19:00:00Z,26.33,31.75,20.0,7.0,210,4,,6.21,29.970472,,,,,,TRUE,,,,,CAVOK,,,,,,,,VFR,,,,,,,,,,,,METAR,70.0
HESC 111900Z 00000KT CAVOK 14/M02 Q1025 NOSIG,HESC,2020-12-11T19:00:00Z,28.68,34.07,14.0,-2.0,0,0,,6.21,30.265747,,,,,,TRUE,,,,,CAVOK,,,,,,,,VFR,,,,,,,,,,,,METAR,1332.0
HEPS 111900Z 15002KT CAVOK 19/15 Q1015 NOSIG,HEPS,2020-12-11T19:00:00Z,31.28,32.25,19.0,15.0,150,2,,6.21,29.970472,,,,,,TRUE,,,,,CAVOK,,,,,,,,VFR,,,,,,,,,,,,METAR,2.0
HELX 111900Z 00000KT 6000 NSC 19/06 Q1016 NOSIG,HELX,2020-12-11T19:00:00Z,25.67,32.7,19.0,6.0,0,0,,3.73,30.0,,,,,,TRUE,,,,,CLR,,,,,,,,MVFR,,,,,,,,,,,,METAR,86.0
HEGN 111900Z 00000KT CAVOK 21/14 Q1016 NOSIG,HEGN,2020-12-11T19:00:00Z,27.18,33.8,21.0,14.0,0,0,,6.21,30.0,,,,,,TRUE,,,,,CAVOK,,,,,,,,VFR,,,,,,,,,,,,METAR,14.0
HEBL 111900Z 00000KT CAVOK 24/07 Q1016 NOSIG,HEBL,2020-12-11T19:00:00Z,22.38,31.62,24.0,7.0,0,0,,6.21,30.0,,,,,,TRUE,,,,,CAVOK,,,,,,,,VFR,,,,,,,,,,,,METAR,184.0
HEBA 111900Z 00000KT CAVOK 15/13 Q1015 NOSIG,HEBA,2020-12-11T19:00:00Z,30.92,29.7,15.0,13.0,0,0,,6.21,29.970472,,,,,,TRUE,,,,,CAVOK,,,,,,,,VFR,,,,,,,,,,,,METAR,41.0
HEAX 111900Z 22005KT CAVOK 15/12 Q1015 NOSIG,HEAX,2020-12-11T19:00:00Z,31.18,29.93,15.0,12.0,220,5,,6.21,29.970472,,,,,,TRUE,,,,,CAVOK,,,,,,,,VFR,,,,,,,,,,,,METAR,-2.0
HEAT 111900Z 00000KT CAVOK 21/06 Q1018 NOSIG,HEAT,2020-12-11T19:00:00Z,27.05,31.02,21.0,6.0,0,0,,6.21,30.059055,,,,,,TRUE,,,,,CAVOK,,,,,,,,VFR,,,,,,,,,,,,METAR,229.0
GVSV 111900Z 06013KT 9999 FEW020 24/16 Q1015 NOSIG,GVSV,2020-12-11T19:00:00Z,16.83,-25.07,24.0,16.0,60,13,,6.21,29.970472,,,,,,TRUE,,,,,FEW,2000,,,,,,,VFR,,,,,,,,,,,,METAR,16.0
GVNP 111900Z 04010KT 9999 FEW023 24/18 Q1015 NOSIG,GVNP,2020-12-11T19:00:00Z,14.95,-23.48,24.0,18.0,40,10,,6.21,29.970472,,,,,,TRUE,,,,,FEW,2300,,,,,,,VFR,,,,,,,,,,,,METAR,70.0
GVBA 111900Z 06011KT 9999 FEW015 24/17 Q1015 NOSIG,GVBA,2020-12-11T19:00:00Z,16.13,-22.88,24.0,17.0,60,11,,6.21,29.970472,,,,,,TRUE,,,,,FEW,1500,,,,,,,VFR,,,,,,,,,,,,METAR,23.0
GVAC 111900Z 07012KT 9999 SCT014 23/18 Q1015 NOSIG,GVAC,2020-12-11T19:00:00Z,16.73,-22.93,23.0,18.0,70,12,,6.21,29.970472,,,,,,TRUE,,,,,SCT,1400,,,,,,,VFR,,,,,,,,,,,,METAR,54.0
GQPP 111900Z 33006KT 310V010 7000 NSC 21/13 Q1017 NOSIG,GQPP,2020-12-11T19:00:00Z,20.92,-17.02,21.0,13.0,330,6,,4.35,30.029528,,,,,,TRUE,,,,,CLR,,,,,,,,MVFR,,,,,,,,,,,,METAR,5.0
GOSS 111900Z 35004KT 310V040 CAVOK 26/10 Q1012,GOSS,2020-12-11T19:00:00Z,16.05,-16.45,26.0,10.0,350,4,,6.21,29.88189,,,,,,,,,,,CAVOK,,,,,,,,VFR,,,,,,,,,,,,METAR,3.0
GOSP 111900Z 00000KT CAVOK 30/10 Q1012,GOSP,2020-12-11T19:00:00Z,16.68,-14.97,30.0,10.0,0,0,,6.21,29.88189,,,,,,,,,,,CAVOK,,,,,,,,VFR,,,,,,,,,,,,METAR,10.0
GOSM 111900Z 08002KT CAVOK 29/12 Q1012,GOSM,2020-12-11T19:00:00Z,15.6,-13.33,29.0,12.0,80,2,,6.21,29.88189,,,,,,,,,,,CAVOK,,,,,,,,VFR,,,,,,,,,,,,METAR,28.0
GOOY 111900Z 02008KT CAVOK 25/18 Q1012,GOOY,2020-12-11T19:00:00Z,14.73,-17.5,25.0,18.0,20,8,,6.21,29.88189,,,,,,,,,,,CAVOK,,,,,,,,VFR,,,,,,,,,,,,METAR,21.0
GOOK 111900Z 00000KT CAVOK 33/12 Q1011,GOOK,2020-12-11T19:00:00Z,14.15,-16.07,33.0,12.0,0,0,,6.21,29.852362,,,,,,,,,,,CAVOK,,,,,,,,VFR,,,,,,,,,,,,METAR,8.0
GOOD 111900Z 00000KT CAVOK 32/14 Q1012,GOOD,2020-12-11T19:00:00Z,14.65,-16.22,32.0,14.0,0,0,,6.21,29.88189,,,,,,,,,,,CAVOK,,,,,,,,VFR,,,,,,,,,,,,METAR,9.0
GOGS 111900Z 08006KT CAVOK 27/21 Q1011,GOGS,2020-12-11T19:00:00Z,12.4,-16.75,27.0,21.0,80,6,,6.21,29.852362,,,,,,,,,,,CAVOK,,,,,,,,VFR,,,,,,,,,,,,METAR,13.0
GOGG 111900Z VRB02KT CAVOK 27/19 Q1012,GOGG,2020-12-11T19:00:00Z,12.55,-16.27,27.0,19.0,0,2,,6.21,29.88189,,,,,,,,,,,CAVOK,,,,,,,,VFR,,,,,,,,,,,,METAR,24.0
GMTN 111900Z 27022G35KT 9999 BKN016 18/15 Q1019 NOSIG,GMTN,2020-12-11T19:00:00Z,35.58,-5.32,18.0,15.0,270,22,35,6.21,30.088583,,,,,,TRUE,,,,,BKN,1600,,,,,,,MVFR,,,,,,,,,,,,METAR,10.0
GMTA 111900Z 27003KT 240V310 9999 FEW020 SCT200 18/14 Q1017 NOSIG,GMTA,2020-12-11T19:00:00Z,35.17,-3.85,18.0,14.0,270,3,,6.21,30.029528,,,,,,TRUE,,,,,FEW,2000,SCT,20000,,,,,VFR,,,,,,,,,,,,METAR,14.0
GMMZ 111900Z 27010KT CAVOK 19/00 Q1022 NOSIG,GMMZ,2020-12-11T19:00:00Z,30.93,-6.9,19.0,0.0,270,10,,6.21,30.177166,,,,,,TRUE,,,,,CAVOK,,,,,,,,VFR,,,,,,,,,,,,METAR,1139.0
GMMX 111900Z 03004KT CAVOK 19/10 Q1023 NOSIG,GMMX,2020-12-11T19:00:00Z,31.62,-8.03,19.0,10.0,30,4,,6.21,30.206694,,,,,,TRUE,,,,,CAVOK,,,,,,,,VFR,,,,,,,,,,,,METAR,465.0
GMMW 111900Z 32007KT 9999 SCT010 BKN200 17/13 Q1017 NOSIG,GMMW,2020-12-11T19:00:00Z,34.98,-3.02,17.0,13.0,320,7,,6.21,30.029528,,,,,,TRUE,,,,,SCT,1000,BKN,20000,,,,,VFR,,,,,,,,,,,,METAR,174.0
GMML 111900Z 02016KT 9999 BKN016 19/17 Q1022 NOSIG,GMML,2020-12-11T19:00:00Z,27.13,-13.23,19.0,17.0,20,16,,6.21,30.177166,,,,,,TRUE,,,,,BKN,1600,,,,,,,MVFR,,,,,,,,,,,,METAR,63.0
GMMI 111900Z AUTO 03009KT //// ////// 17/15 Q1022 NOSIG,GMMI,2020-12-11T19:00:00Z,31.4,-9.68,17.0,15.0,30,9,,,30.177166,,,TRUE,,,TRUE,,,,,,,,,,,,,,,,,,,,,,,,,METAR,102.0
GMMH 111900Z 01018KT 010V070 8000 NSC 19/15 Q1019 NOSIG,GMMH,2020-12-11T19:00:00Z,23.72,-15.93,19.0,15.0,10,18,,4.97,30.088583,,,,,,TRUE,,,,,CLR,,,,,,,,MVFR,,,,,,,,,,,,METAR,11.0
GMMD 111900Z 14006KT CAVOK 14/10 Q1024 NOSIG,GMMD,2020-12-11T19:00:00Z,32.4,-6.32,14.0,10.0,140,6,,6.21,30.236221,,,,,,TRUE,,,,,CAVOK,,,,,,,,VFR,,,,,,,,,,,,METAR,515.0
GMMC 111900Z 30006KT 6000 SCT016 BKN026 17/17 Q1024 REDZ,GMMC,2020-12-11T19:00:00Z,33.57,-7.67,17.0,17.0,300,6,,3.73,30.236221,,,,,,,,,,,SCT,1600,BKN,2600,,,,,MVFR,,,,,,,,,,,,SPECI,62.0
GMMB 111900Z AUTO 28005KT 220V320 2200NDV ////// 16/16 Q1025 NOSIG,GMMB,2020-12-11T19:00:00Z,33.65,-7.22,16.0,16.0,280,5,,,30.265747,,,TRUE,,,TRUE,,,,,,,,,,,,,,,,,,,,,,,,,METAR,191.0
GMFM 111900Z 27010KT 6000 BKN020 15/13 Q1024 NOSIG,GMFM,2020-12-11T19:00:00Z,33.87,-5.52,15.0,13.0,270,10,,3.73,30.236221,,,,,,TRUE,,,,,BKN,2000,,,,,,,MVFR,,,,,,,,,,,,METAR,569.0
GMFK 111900Z VRB02KT 9999 FEW026 SCT200 17/02 Q1023 NOSIG,GMFK,2020-12-11T19:00:00Z,31.95,-4.4,17.0,2.0,0,2,,6.21,30.206694,,,,,,TRUE,,,,,FEW,2600,SCT,20000,,,,,VFR,,,,,,,,,,,,METAR,1033.0
GGOV 111900Z 19005KT CAVOK 27/22 Q1012 NOSIG,GGOV,2020-12-11T19:00:00Z,11.88,-15.65,27.0,22.0,190,5,,6.21,29.88189,,,,,,TRUE,,,,,CAVOK,,,,,,,,VFR,,,,,,,,,,,,METAR,31.0
GFLL 111900Z 24007KT 9999 BKN012 FEW026CB 29/24 Q1010 RMK CB-NE,GFLL,2020-12-11T19:00:00Z,8.62,-13.18,29.0,24.0,240,7,,6.21,29.822834,,,,,,,,,,,BKN,1200,FEW,2600,,,,,MVFR,,,,,,,,,,,,METAR,28.0
GBYD 111900Z 00000KT CAVOK 26/16 Q1011,GBYD,2020-12-11T19:00:00Z,13.33,-16.65,26.0,16.0,0,0,,6.21,29.852362,,,,,,,,,,,CAVOK,,,,,,,,VFR,,,,,,,,,,,,METAR,29.0
FZAA 111900Z 24004KT 8000 SCT018 FEW028CB BKN080 27/22 Q1013 NOSIG,FZAA,2020-12-11T19:00:00Z,-4.38,15.45,27.0,22.0,240,4,,4.97,29.911417,,,,,,TRUE,,,,,SCT,1800,FEW,2800,BKN,8000,,,MVFR,,,,,,,,,,,,METAR,309.0
FTTJ 111900Z 32004KT 6000 NSC 27/06 Q1010 NOSIG,FTTJ,2020-12-11T19:00:00Z,12.13,15.03,27.0,6.0,320,4,,3.73,29.822834,,,,,,TRUE,,,,,CLR,,,,,,,,MVFR,,,,,,,,,,,,METAR,295.0
FTTA 111900Z 00000KT CAVOK 26/09 Q1011,FTTA,2020-12-11T19:00:00Z,9.15,18.37,26.0,9.0,0,0,,6.21,29.852362,,,,,,,,,,,CAVOK,,,,,,,,VFR,,,,,,,,,,,,METAR,361.0
FSIA 111900Z 32004KT 270V010 9999 FEW022 27/24 Q1012 NOSIG,FSIA,2020-12-11T19:00:00Z,-4.67,55.52,27.0,24.0,320,4,,6.21,29.88189,,,,,,TRUE,,,,,FEW,2200,,,,,,,VFR,,,,,,,,,,,,METAR,3.0
FQQL 111900Z 10006KT 050V120 9999 FEW020 FEW025CB 28/25 Q1011 RMK DIDT LIT TO NW,FQQL,2020-12-11T19:00:00Z,-17.87,36.87,28.0,25.0,100,6,,6.21,29.852362,,,,,,,,,,,FEW,2000,FEW,2500,,,,,VFR,,,,,,,,,,,,SPECI,5.0
FQPB 111900Z 04008KT 9999 FEW020 FEW025CB BKN/// 28/25 Q1012 RMK CB TO SW/W/NW,FQPB,2020-12-11T19:00:00Z,-12.98,40.52,28.0,25.0,40,8,,6.21,29.88189,,,,,,,,,,,FEW,2000,FEW,2500,,,,,VFR,,,,,,,,,,,,SPECI,101.0
FQNP 111900Z 01005KT 9999 SCT020 25/22 Q1014,FQNP,2020-12-11T19:00:00Z,-15.1,39.27,25.0,22.0,10,5,,6.21,29.940945,,,,,,,,,,,SCT,2000,,,,,,,VFR,,,,,,,,,,,,METAR,434.0
FQMA 111900Z 06016KT 9999 TS FEW020 FEW030CB 27/23 Q1007 RMK DIST LIT TO S/SW/W,FQMA,2020-12-11T19:00:00Z,-25.92,32.57,27.0,23.0,60,16,,6.21,29.734253,,,,,,,,,,TS,FEW,2000,FEW,3000,,,,,VFR,,,,,,,,,,,,SPECI,34.0
FQLC 111900Z 13006KT 9999 FEW012 OVC016 FEW020CB 19/18 Q1020 RMK CB TO E/S/SW,FQLC,2020-12-11T19:00:00Z,-13.27,35.25,19.0,18.0,130,6,,6.21,30.11811,,,,,,,,,,,FEW,1200,OVC,1600,FEW,2000,,,MVFR,,,,,,,,,,,,SPECI,1362.0
FQIN 111900Z 06010KT 9999 FEW020 25/22 Q1011,FQIN,2020-12-11T19:00:00Z,-23.87,35.38,25.0,22.0,60,10,,6.21,29.852362,,,,,,,,,,,FEW,2000,,,,,,,VFR,,,,,,,,,,,,METAR,10.0
FQCH 111900Z 14010KT 9999 FEW015 24/24 Q1016,FQCH,2020-12-11T19:00:00Z,-19.15,33.43,24.0,24.0,140,10,,6.21,30.0,,,,,,,,,,,FEW,1500,,,,,,,VFR,,,,,,,,,,,,METAR,695.0
FQBR 111900Z 08009KT 9999 FEW020 27/25 Q1010,FQBR,2020-12-11T19:00:00Z,-19.8,34.9,27.0,25.0,80,9,,6.21,29.822834,,,,,,,,,,,FEW,2000,,,,,,,VFR,,,,,,,,,,,,METAR,14.0
FPST 111900Z 21004KT 9999 FEW020CB 28/23 Q1011 NOSIG,FPST,2020-12-11T19:00:00Z,0.37,6.72,28.0,23.0,210,4,,6.21,29.852362,,,,,,TRUE,,,,,FEW,2000,,,,,,,VFR,,,,,,,,,,,,METAR,11.0
FOOG 111900Z 16004KT 9999 FEW010 24/23 Q1011,FOOG,2020-12-11T19:00:00Z,-0.7,8.75,24.0,23.0,160,4,,6.21,29.852362,,,,,,,,,,,FEW,1000,,,,,,,VFR,,,,,,,,,,,,METAR,4.0
FNLU 111900Z 119007KT 9999 SCT020 BKN070 26/21 Q1011 NOSIG,FNLU,2020-12-11T19:00:00Z,-8.85,13.22,26.0,21.0,119,7,,6.21,29.852362,,,,,,TRUE,,,,,SCT,2000,BKN,7000,,,,,VFR,,,,,,,,,,,,METAR,75.0
FMSD 111900Z 08019KT 9999 FEW016 24/21 Q1015,FMSD,2020-12-11T19:00:00Z,-25.03,46.95,24.0,21.0,80,19,,6.21,29.970472,,,,,,,,,,,FEW,1600,,,,,,,VFR,,,,,,,,,,,,METAR,7.0
FMNM 111900Z 13004KT 9999 SCT020CB 25/24 Q1013 NOSIG,FMNM,2020-12-11T19:00:00Z,-15.67,46.35,25.0,24.0,130,4,,6.21,29.911417,,,,,,TRUE,,,,,SCT,2000,,,,,,,VFR,,,,,,,,,,,,METAR,18.0
FMMT 111900Z 27005KT 6000 -RA FEW007 SCT017 OVC033 23/22 Q1017 NOSIG,FMMT,2020-12-11T19:00:00Z,-18.12,49.38,23.0,22.0,270,5,,3.73,30.029528,,,,,,TRUE,,,,-RA,FEW,700,SCT,1700,OVC,3300,,,MVFR,,,,,,,,,,,,METAR,13.0
FKYS 111900Z VRB01KT 9999 TS FEW006 FEW020CB 20/20 Q1017 BECMG NSW,FKYS,2020-12-11T19:00:00Z,3.82,11.52,20.0,20.0,0,1,,6.21,30.029528,,,,,,,,,,TS,FEW,600,FEW,2000,,,,,VFR,,,,,,,,,,,,METAR,694.0
FKKR 111900Z 34002KT CAVOK 28/11 Q1010 NOSIG,FKKR,2020-12-11T19:00:00Z,9.33,13.37,28.0,11.0,340,2,,6.21,29.822834,,,,,,TRUE,,,,,CAVOK,,,,,,,,VFR,,,,,,,,,,,,METAR,223.0
FKKD 111900Z VRB01KT 9999 BKN013 FEW016CB 28/27 Q1011 NOSIG,FKKD,2020-12-11T19:00:00Z,4.0,9.72,28.0,27.0,0,1,,6.21,29.852362,,,,,,TRUE,,,,,BKN,1300,FEW,1600,,,,,MVFR,,,,,,,,,,,,METAR,10.0
FIMP 111900Z 13008KT 9999 FEW018 24/19 Q1018,FIMP,2020-12-11T19:00:00Z,-20.43,57.68,24.0,19.0,130,8,,6.21,30.059055,,,,,,,,,,,FEW,1800,,,,,,,VFR,,,,,,,,,,,,METAR,57.0
FGSL 111900Z 23007KT 9999 FEW010 27/27 Q1012 NOSIG,FGSL,2020-12-11T19:00:00Z,3.75,8.72,27.0,27.0,230,7,,6.21,29.88189,,,,,,TRUE,,,,,FEW,1000,,,,,,,VFR,,,,,,,,,,,,METAR,23.0
FGBT 111900Z 00000KT 9999 FEW010 26/25 Q1012,FGBT,2020-12-11T19:00:00Z,1.9,9.8,26.0,25.0,0,0,,6.21,29.88189,,,,,,,,,,,FEW,1000,,,,,,,VFR,,,,,,,,,,,,METAR,2.0
FEFF 111900Z VRB02KT 4000 HZFU FEW013 27/23 Q1011 BECMG 6000 NSW,FEFF,2020-12-11T19:00:00Z,4.4,18.52,27.0,23.0,0,2,,2.49,29.852362,,,,,,,,,,FU HZ,FEW,1300,,,,,,,IFR,,,,,,,,,,,,METAR,364.0
FDBB 111900Z AUTO 20007KT //// // ////// 27/22 Q1008,FDBB,2020-12-11T19:00:00Z,-26.8,31.93,27.0,22.0,200,7,,,29.763779,,,TRUE,,,,,,,,,,,,,,,,,,,,,,,,,,,,METAR,106.0
FCPP 111900Z 20006KT 9999 FEW010 SCT019 FEW030CB 26/24 Q1011 NOSIG,FCPP,2020-12-11T19:00:00Z,-4.82,11.9,26.0,24.0,200,6,,6.21,29.852362,,,,,,TRUE,,,,,FEW,1000,SCT,1900,FEW,3000,,,VFR,,,,,,,,,,,,METAR,18.0
FCBB 111900Z VRB02KT 8000 TS FEW020 FEW028CB 27/22 Q1013 NOSIG,FCBB,2020-12-11T19:00:00Z,-4.25,15.25,27.0,22.0,0,2,,4.97,29.911417,,,,,,TRUE,,,,TS,FEW,2000,FEW,2800,,,,,MVFR,,,,,,,,,,,,METAR,316.0
FBSK 111900Z 36003KT CAVOK 26/17 Q1013 NOSIG,FBSK,2020-12-11T19:00:00Z,-24.55,25.92,26.0,17.0,360,3,,6.21,29.911417,,,,,,TRUE,,,,,CAVOK,,,,,,,,VFR,,,,,,,,,,,,METAR,1007.0
FBMN 111900Z 02010KT 9999 SCT025 FEW030CB SCT070 27/21 Q1013,FBMN,2020-12-11T19:00:00Z,-19.97,23.42,27.0,21.0,20,10,,6.21,29.911417,,,,,,,,,,,SCT,2500,FEW,3000,SCT,7000,,,VFR,,,,,,,,,,,,METAR,946.0
FBFT 111900Z 08004KT 020V140 9999 FEW025 FEW030CB 27/16 Q1014,FBFT,2020-12-11T19:00:00Z,-21.17,27.48,27.0,16.0,80,4,,6.21,29.940945,,,,,,,,,,,FEW,2500,FEW,3000,,,,,VFR,,,,,,,,,,,,METAR,1000.0
FAVV 111900Z AUTO 32005KT //// // ////// 23/15 Q1020,FAVV,2020-12-11T19:00:00Z,-26.57,27.97,23.0,15.0,320,5,,,30.11811,,,TRUE,,,,,,,,,,,,,,,,,,,,,,,,,,,,SPECI,1480.0
FAUT 111900Z AUTO 10007KT //// // ////// 19/17 Q1015,FAUT,2020-12-11T19:00:00Z,-31.53,28.67,19.0,17.0,100,7,,,29.970472,,,TRUE,,,,,,,,,,,,,,,,,,,,,,,,,,,,METAR,735.0
FAUP 111900Z AUTO 23007KT //// // ////// 27/M00 Q1013,FAUP,2020-12-11T19:00:00Z,-28.38,21.27,27.0,0.0,230,7,,,29.911417,,,TRUE,,,,,,,,,,,,,,,,,,,,,,,,,,,,METAR,845.0
FASI 111900Z AUTO 01001KT //// // ////// 22/15 Q1023,FASI,2020-12-11T19:00:00Z,-26.25,28.4,22.0,15.0,10,1,,,30.206694,,,TRUE,,,,,,,,,,,,,,,,,,,,,,,,,,,,SPECI,1628.0
FAPP 111900Z AUTO 09002KT //// // ////// 27/14 Q1016,FAPP,2020-12-11T19:00:00Z,-23.83,29.45,27.0,14.0,90,2,,,30.0,,,TRUE,,,,,,,,,,,,,,,,,,,,,,,,,,,,SPECI,1238.0
FAPE 111900Z AUTO 24014KT 9999 FEW025/// BKN050/// OVC057/// 19/17 Q1014 NOSIG,FAPE,2020-12-11T19:00:00Z,-33.98,25.6,19.0,17.0,240,14,,6.21,29.940945,,,TRUE,,,TRUE,,,,,FEW,2500,BKN,5000,OVC,5700,,,VFR,,,,,,,,,,,,METAR,58.0
FAOB 111900Z AUTO 29003KT //// // ////// 17/13 Q1015,FAOB,2020-12-11T19:00:00Z,-34.55,20.23,17.0,13.0,290,3,,,29.970472,,,TRUE,,,,,,,,,,,,,,,,,,,,,,,,,,,,METAR,15.0
FAMM 111900Z AUTO 03006KT //// // ////// 22/16 Q1015,FAMM,2020-12-11T19:00:00Z,-25.8,25.53,22.0,16.0,30,6,,,29.970472,,,TRUE,,,,,,,,,,,,,,,,,,,,,,,,,,,,SPECI,1280.0
FALW 111900Z AUTO 26002KT //// // ////// 18/14 Q1016,FALW,2020-12-11T19:00:00Z,-32.97,18.17,18.0,14.0,260,2,,,30.0,,,TRUE,,,,,,,,,,,,,,,,,,,,,,,,,,,,METAR,31.0
FALE 111900Z VRB01KT 9999 BKN045 23/20 Q1010 NOSIG,FALE,2020-12-11T19:00:00Z,-29.62,31.12,23.0,20.0,0,1,,6.21,29.822834,,,,,,TRUE,,,,,BKN,4500,,,,,,,VFR,,,,,,,,,,,,METAR,109.0
FALA 111900Z AUTO VRB01KT //// // ////// 25/14 Q1018,FALA,2020-12-11T19:00:00Z,-25.93,27.92,25.0,14.0,0,1,,,30.059055,,,TRUE,,,,,,,,,,,,,,,,,,,,,,,,,,,,METAR,1365.0
FAKN 111900Z AUTO 23002KT //// // ////// 23/17 Q1017,FAKN,2020-12-11T19:00:00Z,-25.38,31.1,23.0,17.0,230,2,,,30.029528,,,TRUE,,,,,,,,,,,,,,,,,,,,,,,,,,,,METAR,864.0
FAKM 111900Z AUTO 19003KT //// // ////// 23/13 Q1014,FAKM,2020-12-11T19:00:00Z,-28.8,24.77,23.0,13.0,190,3,,,29.940945,,,TRUE,,,,,,,,,,,,,,,,,,,,,,,,,,,,METAR,1203.0
FAJB 111900Z AUTO /////KT //// // ////// 22/13 Q1019,FAJB,2020-12-11T19:00:00Z,-26.15,28.0,22.0,13.0,,,,,30.088583,,,TRUE,,,,,,,,,,,,,,,,,,,,,,,,,,,,METAR,1626.0
FAHS 111900Z AUTO 10003KT //// // ////// 30/17 Q1012,FAHS,2020-12-11T19:00:00Z,-24.37,31.03,30.0,17.0,100,3,,,29.88189,,,TRUE,,,,,,,,,,,,,,,,,,,,,,,,,,,,METAR,532.0
FAGG 111900Z AUTO 01006KT 9999 -RA FEW012/// BKN017/// OVC020/// 16/15 Q1016 RERA,FAGG,2020-12-11T19:00:00Z,-34.0,22.37,16.0,15.0,10,6,,6.21,30.0,,,TRUE,,,,,,,-RA,FEW,1200,BKN,1700,OVC,2000,,,MVFR,,,,,,,,,,,,METAR,196.0
FACT 111900Z 05005KT 9999 FEW040 15/13 Q1016 NOSIG,FACT,2020-12-11T19:00:00Z,-33.97,18.6,15.0,13.0,50,5,,6.21,30.0,,,,,,TRUE,,,,,FEW,4000,,,,,,,VFR,,,,,,,,,,,,METAR,48.0
FABL 111900Z AUTO 07004KT 050V140 9999 ///////// 19/16 Q1015,FABL,2020-12-11T19:00:00Z,-29.1,26.3,19.0,16.0,70,4,,6.21,29.970472,,,TRUE,,,,,,,,,,,,,,,,,,,,,,,,,,,,METAR,1348.0
EIME 111900Z 27012KT 8000 -DZ BKN007 BKN014 07/07 Q0988,EIME,2020-12-11T19:00:00Z,53.3,-6.45,7.0,7.0,270,12,,4.97,29.17323,,,,,,,,,,-DZ,BKN,700,BKN,1400,,,,,IFR,,,,,,,,,,,,METAR,90.0
DXXX 111900Z 22010KT 9999 TS FEW013 FEW020CB 28/25 Q1012 NOSIG,DXXX,2020-12-11T19:00:00Z,6.17,1.25,28.0,25.0,220,10,,6.21,29.88189,,,,,,TRUE,,,,TS,FEW,1300,FEW,2000,,,,,VFR,,,,,,,,,,,,METAR,22.0
DTTZ 111900Z 25005KT 9999 FEW033 17/07 Q1008,DTTZ,2020-12-11T19:00:00Z,33.93,8.1,17.0,7.0,250,5,,6.21,29.763779,,,,,,,,,,,FEW,3300,,,,,,,VFR,,,,,,,,,,,,METAR,87.0
DTTX 111900Z 24008KT 9999 SCT020 SCT030 16/08 Q1006,DTTX,2020-12-11T19:00:00Z,34.72,10.68,16.0,8.0,240,8,,6.21,29.704725,,,,,,,,,,,SCT,2000,SCT,3000,,,,,VFR,,,,,,,,,,,,METAR,17.0
DTTR 111900Z AUTO 20003KT NCD 15/07 Q1013,DTTR,2020-12-11T19:00:00Z,31.7,9.27,15.0,7.0,200,3,,,29.911417,,,TRUE,,,,,,,,CLR,,,,,,,,,,,,,,,,,,,,METAR,253.0
DTTN 111900Z 23004KT 8000 SCT020 SCT030 12/11 Q1004,DTTN,2020-12-11T19:00:00Z,36.47,8.8,12.0,11.0,230,4,,4.97,29.64567,,,,,,,,,,,SCT,2000,SCT,3000,,,,,MVFR,,,,,,,,,,,,METAR,145.0
DTTL 111900Z VRB02KT 9999 SCT016 SCT030 13/11 Q1005,DTTL,2020-12-11T19:00:00Z,36.85,11.07,13.0,11.0,0,2,,6.21,29.675198,,,,,,,,,,,SCT,1600,SCT,3000,,,,,VFR,,,,,,,,,,,,METAR,18.0
DTTK 111900Z VRB02KT 9999 SCT023 BKN030 16/07 Q1005,DTTK,2020-12-11T19:00:00Z,35.67,10.08,16.0,7.0,0,2,,6.21,29.675198,,,,,,,,,,,SCT,2300,BKN,3000,,,,,MVFR,,,,,,,,,,,,METAR,65.0
DTTG 111900Z 23014KT 8000 FEW030 16/08 Q1008 NOSIG,DTTG,2020-12-11T19:00:00Z,33.73,9.92,16.0,8.0,230,14,,4.97,29.763779,,,,,,TRUE,,,,,FEW,3000,,,,,,,MVFR,,,,,,,,,,,,METAR,120.0
DTTF 111900Z 20010KT 170V230 9999 SCT026 SCT030 15/07 Q1008 NOSIG,DTTF,2020-12-11T19:00:00Z,34.42,8.82,15.0,7.0,200,10,,6.21,29.763779,,,,,,TRUE,,,,,SCT,2600,SCT,3000,,,,,VFR,,,,,,,,,,,,METAR,314.0
DTTD 111900Z 24003KT 190V290 8000 NSC 15/06 Q1011,DTTD,2020-12-11T19:00:00Z,32.32,10.4,15.0,6.0,240,3,,4.97,29.852362,,,,,,,,,,,CLR,,,,,,,,MVFR,,,,,,,,,,,,METAR,306.0
DTTB 111900Z 18002KT 9999 RA BKN020TCU SCT030 12/11 Q1004,DTTB,2020-12-11T19:00:00Z,37.25,9.8,12.0,11.0,180,2,,6.21,29.64567,,,,,,,,,,RA,BKN,2000,SCT,3000,,,,,MVFR,,,,,,,,,,,,METAR,4.0
DTKA 111900Z 08009KT 8000 -RA SCT020 12/11 Q1003 NOSIG,DTKA,2020-12-11T19:00:00Z,36.98,8.88,12.0,11.0,80,9,,4.97,29.616142,,,,,,TRUE,,,,-RA,SCT,2000,,,,,,,MVFR,,,,,,,,,,,,METAR,70.0
DRRT 111900Z 10002KT CAVOK 29/04 Q1013,DRRT,2020-12-11T19:00:00Z,14.87,5.27,29.0,4.0,100,2,,6.21,29.911417,,,,,,,,,,,CAVOK,,,,,,,,VFR,,,,,,,,,,,,METAR,387.0
DRRN 111900Z 36004KT 8000 NSC 31/01 Q1012 NOSIG,DRRN,2020-12-11T19:00:00Z,13.47,2.17,31.0,1.0,360,4,,4.97,29.88189,,,,,,TRUE,,,,,CLR,,,,,,,,MVFR,,,,,,,,,,,,METAR,223.0
DNMM 111900Z 24004KT 9999 FEW012 28/25 Q1012 NOSIG,DNMM,2020-12-11T19:00:00Z,6.57,3.32,28.0,25.0,240,4,,6.21,29.88189,,,,,,TRUE,,,,,FEW,1200,,,,,,,VFR,,,,,,,,,,,,METAR,27.0
DNKN 111900Z VRB02KT CAVOK 24/11 Q1015 NOSIG,DNKN,2020-12-11T19:00:00Z,12.05,8.52,24.0,11.0,0,2,,6.21,29.970472,,,,,,TRUE,,,,,CAVOK,,,,,,,,VFR,,,,,,,,,,,,METAR,471.0
DNIB 111900Z 17009KT 9999 FEW013 30/22 Q1011,DNIB,2020-12-11T19:00:00Z,7.37,3.98,30.0,22.0,170,9,,6.21,29.852362,,,,,,,,,,,FEW,1300,,,,,,,VFR,,,,,,,,,,,,METAR,220.0
DNEN 111900Z 21003KT 9999 FEW011 30/24 Q1011 NOSIG,DNEN,2020-12-11T19:00:00Z,6.47,7.55,30.0,24.0,210,3,,6.21,29.852362,,,,,,TRUE,,,,,FEW,1100,,,,,,,VFR,,,,,,,,,,,,METAR,142.0
DNAA 111900Z 23002KT CAVOK 29/20 Q1012 NOSIG,DNAA,2020-12-11T19:00:00Z,9.0,7.27,29.0,20.0,230,2,,6.21,29.88189,,,,,,TRUE,,,,,CAVOK,,,,,,,,VFR,,,,,,,,,,,,METAR,338.0
DIBK 111900Z 24002KT 9999 FEW013 26/23 Q1014 NOSIG,DIBK,2020-12-11T19:00:00Z,7.73,-5.07,26.0,23.0,240,2,,6.21,29.940945,,,,,,TRUE,,,,,FEW,1300,,,,,,,VFR,,,,,,,,,,,,METAR,363.0
DGAA 111900Z 21011KT 9999 BKN016 BKN018 28/25 Q1011 NOSIG,DGAA,2020-12-11T19:00:00Z,5.58,-0.17,28.0,25.0,210,11,,6.21,29.852362,,,,,,TRUE,,,,,BKN,1600,BKN,1800,,,,,MVFR,,,,,,,,,,,,METAR,68.0
DFOO 111900Z 01004KT 6000 NSC 30/15 Q1012,DFOO,2020-12-11T19:00:00Z,11.17,-4.32,30.0,15.0,10,4,,3.73,29.88189,,,,,,,,,,,CLR,,,,,,,,MVFR,,,,,,,,,,,,METAR,461.0
DFFD 111900Z 02002KT CAVOK 28/06 Q1012 NOSIG,DFFD,2020-12-11T19:00:00Z,12.35,-1.52,28.0,6.0,20,2,,6.21,29.88189,,,,,,TRUE,,,,,CAVOK,,,,,,,,VFR,,,,,,,,,,,,METAR,309.0
DBBB 111900Z 21011KT 9999 FEW011 28/26 Q1011 NOSIG,DBBB,2020-12-11T19:00:00Z,6.35,2.38,28.0,26.0,210,11,,6.21,29.852362,,,,,,TRUE,,,,,FEW,1100,,,,,,,VFR,,,,,,,,,,,,METAR,4.0
DAUZ 111900Z 24006KT 8000 NSC 15/M00 Q1017,DAUZ,2020-12-11T19:00:00Z,28.05,9.63,15.0,0.0,240,6,,4.97,30.029528,,,,,,,,,,,CLR,,,,,,,,MVFR,,,,,,,,,,,,METAR,567.0
DAUU 111900Z 27008KT 9999 FEW046 SCT100 22/09 Q1011,DAUU,2020-12-11T19:00:00Z,31.92,5.4,22.0,9.0,270,8,,6.21,29.852362,,,,,,,,,,,FEW,4600,SCT,10000,,,,,VFR,,,,,,,,,,,,METAR,147.0
DAUT 111900Z 23005KT CAVOK 20/M04 Q1018,DAUT,2020-12-11T19:00:00Z,29.25,0.27,20.0,-4.0,230,5,,6.21,30.059055,,,,,,,,,,,CAVOK,,,,,,,,VFR,,,,,,,,,,,,METAR,307.0
DAUO 111900Z 23008KT 9999 FEW040 SCT100 20/10 Q1008,DAUO,2020-12-11T19:00:00Z,33.5,6.78,20.0,10.0,230,8,,6.21,29.763779,,,,,,,,,,,FEW,4000,SCT,10000,,,,,VFR,,,,,,,,,,,,METAR,55.0
DAUL 111900Z 26018KT 9999 SCT030 17/10 Q1014,DAUL,2020-12-11T19:00:00Z,33.77,2.92,17.0,10.0,260,18,,6.21,29.940945,,,,,,,,,,,SCT,3000,,,,,,,VFR,,,,,,,,,,,,METAR,755.0
DAUK 111900Z 24007KT 9999 BKN040 21/10 Q1010,DAUK,2020-12-11T19:00:00Z,33.08,6.08,21.0,10.0,240,7,,6.21,29.822834,,,,,,,,,,,BKN,4000,,,,,,,VFR,,,,,,,,,,,,METAR,83.0
DAUI 111900Z 04006KT CAVOK 19/M02 Q1018,DAUI,2020-12-11T19:00:00Z,27.25,2.52,19.0,-2.0,40,6,,6.21,30.059055,,,,,,,,,,,CAVOK,,,,,,,,VFR,,,,,,,,,,,,METAR,271.0
DAUE 111900Z 25004KT 9999 FEW040 SCT200 18/06 Q1017,DAUE,2020-12-11T19:00:00Z,30.57,2.87,18.0,6.0,250,4,,6.21,30.029528,,,,,,,,,,,FEW,4000,SCT,20000,,,,,VFR,,,,,,,,,,,,METAR,396.0
DAUB 111900Z 34004KT 9999 SCT040 BKN100 15/12 Q1008,DAUB,2020-12-11T19:00:00Z,34.78,5.73,15.0,12.0,340,4,,6.21,29.763779,,,,,,,,,,,SCT,4000,BKN,10000,,,,,VFR,,,,,,,,,,,,METAR,75.0
DAUA 111900Z 27008KT CAVOK 19/M05 Q1019,DAUA,2020-12-11T19:00:00Z,27.83,-0.18,19.0,-5.0,270,8,,6.21,30.088583,,,,,,,,,,,CAVOK,,,,,,,,VFR,,,,,,,,,,,,METAR,278.0
DAOY 111900Z 27019KT 6000 OVC010 11/10 Q1017,DAOY,2020-12-11T19:00:00Z,33.72,1.08,11.0,10.0,270,19,,3.73,30.029528,,,,,,,,,,,OVC,1000,,,,,,,MVFR,,,,,,,,,,,,METAR,1340.0
DAOV 111900Z 28034G52KT 9999 FEW020 SCT030 17/12 Q1014,DAOV,2020-12-11T19:00:00Z,35.2,0.15,17.0,12.0,280,34,52,6.21,29.940945,,,,,,,,,,,FEW,2000,SCT,3000,,,,,VFR,,,,,,,,,,,,METAR,506.0
DAOR 111900Z 23004KT 9999 FEW033 SCT100 16/05 Q1020,DAOR,2020-12-11T19:00:00Z,31.65,-2.27,16.0,5.0,230,4,,6.21,30.11811,,,,,,,,,,,FEW,3300,SCT,10000,,,,,VFR,,,,,,,,,,,,METAR,809.0
DAOL 111900Z 26024KT 8000 FEW020 BKN026 18/16 Q1014,DAOL,2020-12-11T19:00:00Z,35.53,-0.52,18.0,16.0,260,24,,4.97,29.940945,,,,,,,,,,,FEW,2000,BKN,2600,,,,,MVFR,,,,,,,,,,,,METAR,103.0
DAOI 111900Z 24017KT 9999 SCT026 BKN100 18/14 Q1010,DAOI,2020-12-11T19:00:00Z,36.22,1.32,18.0,14.0,240,17,,6.21,29.822834,,,,,,,,,,,SCT,2600,BKN,10000,,,,,VFR,,,,,,,,,,,,METAR,141.0
DAOF 111900Z 22004KT CAVOK 19/M02 Q1020,DAOF,2020-12-11T19:00:00Z,27.7,-8.17,19.0,-2.0,220,4,,6.21,30.11811,,,,,,,,,,,CAVOK,,,,,,,,VFR,,,,,,,,,,,,METAR,441.0
DAOB 111900Z 27028G41KT 8000 SCT016 BKN020 13/13 Q1013,DAOB,2020-12-11T19:00:00Z,35.33,1.47,13.0,13.0,270,28,41,4.97,29.911417,,,,,,,,,,,SCT,1600,BKN,2000,,,,,MVFR,,,,,,,,,,,,METAR,984.0
DABT 111900Z 27011KT 9999 FEW010 SCT020 BKN026 13/10 Q1007,DABT,2020-12-11T19:00:00Z,35.75,6.32,13.0,10.0,270,11,,6.21,29.734253,,,,,,,,,,,FEW,1000,SCT,2000,BKN,2600,,,MVFR,,,,,,,,,,,,METAR,813.0
DABS 111900Z 24014KT 9999 FEW026 BKN033 13/08 Q1006,DABS,2020-12-11T19:00:00Z,35.43,8.12,13.0,8.0,240,14,,6.21,29.704725,,,,,,,,,,,FEW,2600,BKN,3300,,,,,VFR,,,,,,,,,,,,METAR,806.0
DABC 111900Z 27011KT 8000 -RA FEW010 BKN020 FEW023CB 12/11 Q1007,DABC,2020-12-11T19:00:00Z,36.27,6.62,12.0,11.0,270,11,,4.97,29.734253,,,,,,,,,,-RA,FEW,1000,BKN,2000,FEW,2300,,,MVFR,,,,,,,,,,,,METAR,700.0
DABB 111900Z 21004KT 6000 FEW013 BKN033 13/13 Q1003,DABB,2020-12-11T19:00:00Z,36.82,7.82,13.0,13.0,210,4,,3.73,29.616142,,,,,,,,,,,FEW,1300,BKN,3300,,,,,MVFR,,,,,,,,,,,,METAR,3.0
DAAY 111900Z 27032KT 6000 SCT013 SCT026 14/10 Q1020,DAAY,2020-12-11T19:00:00Z,33.53,-0.25,14.0,10.0,270,32,,3.73,30.11811,,,,,,,,,,,SCT,1300,SCT,2600,,,,,MVFR,,,,,,,,,,,,METAR,1116.0
DAAV 111900Z 25014G24KT 220V280 7000 -RA SCT016 BKN030 17/14 Q1006,DAAV,2020-12-11T19:00:00Z,36.8,5.88,17.0,14.0,250,14,24,4.35,29.704725,,,,,,,,,,-RA,SCT,1600,BKN,3000,,,,,MVFR,,,,,,,,,,,,METAR,11.0
DAAS 111900Z 27007KT 6000 SCT010 BKN026 11/10 Q1008 RERA,DAAS,2020-12-11T19:00:00Z,36.18,5.33,11.0,10.0,270,7,,3.73,29.763779,,,,,,,,,,,SCT,1000,BKN,2600,,,,,MVFR,,,,,,,,,,,,METAR,1012.0
DAAP 111900Z 25006KT 7000 NSC 15/M02 Q1019,DAAP,2020-12-11T19:00:00Z,26.72,8.62,15.0,-2.0,250,6,,4.35,30.088583,,,,,,,,,,,CLR,,,,,,,,MVFR,,,,,,,,,,,,METAR,542.0
DAAJ 111900Z 32003KT CAVOK 17/M05 Q1019,DAAJ,2020-12-11T19:00:00Z,24.28,9.47,17.0,-5.0,320,3,,6.21,30.088583,,,,,,,,,,,CAVOK,,,,,,,,VFR,,,,,,,,,,,,METAR,962.0
DAAE 111900Z 27004KT 9999 -RA FEW023 SCT046 BKN090 16/15 Q1006,DAAE,2020-12-11T19:00:00Z,36.72,5.07,16.0,15.0,270,4,,6.21,29.704725,,,,,,,,,,-RA,FEW,2300,SCT,4600,BKN,9000,,,VFR,,,,,,,,,,,,METAR,1.0
CZZJ 111900Z AUTO 18002KT M10/M12 RMK AO1 SOG 02 8004 SLP233 T11021115,CZZJ,2020-12-11T19:00:00Z,53.58,-116.47,-10.2,-11.5,180,2,,,,1023.3,,TRUE,TRUE,,,,,,,,,,,,,,,,,,,,,,,,,,,METAR,927.0
CZUM 111900Z AUTO VRB02KT 9SM BKN070 M08/M10 A2981 RMK SLP135,CZUM,2020-12-11T19:00:00Z,53.55,-64.1,-8.0,-10.0,0,2,,9.0,29.811024,1013.5,,TRUE,,,,,,,,BKN,7000,,,,,,,VFR,,,,,,,,,,,,SPECI,431.0
CZTB 111900Z AUTO 02005KT M02/M08 RMK AO1 SOG 01 8002 SLP240 T10241082,CZTB,2020-12-11T19:00:00Z,48.37,-89.32,-2.4,-8.2,20,5,,,,1024.0,,TRUE,TRUE,,,,,,,,,,,,,,,,,,,,,,,,,,,METAR,197.0
CZST 111900Z 00000KT 15SM FEW002 SCT075 M02/M02 A3015 RMK SC2AC1 SLP212,CZST,2020-12-11T19:00:00Z,55.93,-129.98,-2.0,-2.0,0,0,,15.0,30.15059,1021.2,,,,,,,,,,FEW,200,SCT,7500,,,,,VFR,,,,,,,,,,,,SPECI,10.0
CZSM 111900Z AUTO 15003KT M14/M16 RMK AO1 SOG 33 8004 SLP264 T11381155,CZSM,2020-12-11T19:00:00Z,60.03,-111.93,-13.8,-15.5,150,3,,,,1026.4,,TRUE,TRUE,,,,,,,,,,,,,,,,,,,,,,,,,,,METAR,203.0
CZSJ 111900Z AUTO VRB02KT 9SM CLR M16/M19 A3028 RMK SLP282,CZSJ,2020-12-11T19:00:00Z,53.07,-93.35,-16.0,-19.0,0,2,,9.0,30.280512,1028.2,,TRUE,,,,,,,,CLR,,,,,,,,VFR,,,,,,,,,,,,METAR,286.0
CZRP 111900Z AUTO 33027G34KT M22/M24 RMK AO1 PK WND 33034/1848 SLP131 T12181239 58009,CZRP,2020-12-11T19:00:00Z,75.37,-105.72,-21.8,-23.9,330,27,34,,,1013.1,,TRUE,TRUE,,,,,,,,,,,,,,,,-0.9,,,,,,,,,,,METAR,6.0
CZPS 111900Z AUTO 15006KT M08/M08 RMK AO1 T10771078,CZPS,2020-12-11T19:00:00Z,52.43,-113.6,-7.7,-7.8,150,6,,,,,,TRUE,TRUE,,,,,,,,,,,,,,,,,,,,,,,,,,,METAR,953.0
CZPC 111900Z AUTO 06002KT 4SM BR M08/M09 A3002 RMK CLD MISG SLP247,CZPC,2020-12-11T19:00:00Z,49.52,-114.0,-8.0,-9.0,60,2,,4.0,30.02067,1024.7,,TRUE,,,,,,,BR,,,,,,,,,,,,,,,,,,,,,SPECI,1187.0
CZOL 111900Z AUTO 18002KT M10/M10 RMK AO1 T10971097,CZOL,2020-12-11T19:00:00Z,53.65,-113.35,-9.7,-9.7,180,2,,,,,,TRUE,TRUE,,,,,,,,,,,,,,,,,,,,,,,,,,,METAR,645.0
CZMU 111900Z AUTO 13003KT M12/M12 RMK AO1 SOG 07 T11181118,CZMU,2020-12-11T19:00:00Z,53.57,-112.3,-11.8,-11.8,130,3,,,,,,TRUE,TRUE,,,,,,,,,,,,,,,,,,,,,,,,,,,METAR,682.0
CZMT 111900Z VRB02KT 15SM FEW002 FEW006 01/01 A3011 RMK ST1CU1 ST TR CU TR SLP197,CZMT,2020-12-11T19:00:00Z,54.03,-132.13,1.0,1.0,0,2,,15.0,30.109253,1019.7,,,,,,,,,,FEW,200,FEW,600,,,,,VFR,,,,,,,,,,,,METAR,11.0
CZMJ 111900Z AUTO 31006KT M06/M07 RMK AO1 SOG 01 0000 SLP256 T10621068,CZMJ,2020-12-11T19:00:00Z,50.33,-105.53,-6.2,-6.8,310,6,,,,1025.6,,TRUE,TRUE,,,,,,,,,,,,,,,,,,,,,,,,,,,METAR,571.0
CZMD 111900Z AUTO 04004KT 9SM BKN008 OVC080 M18/M19 A3029 RMK SLP289,CZMD,2020-12-11T19:00:00Z,53.43,-91.77,-18.0,-19.0,40,4,,9.0,30.28937,1028.9,,TRUE,,,,,,,,BKN,800,OVC,8000,,,,,IFR,,,,,,,,,,,,METAR,276.0
CZHY 111900Z AUTO 11005KT M14/M16 RMK AO1 SOG 07 8014 SLP247 T11431163,CZHY,2020-12-11T19:00:00Z,60.83,-115.78,-14.3,-16.3,110,5,,,,1024.7,,TRUE,TRUE,,,,,,,,,,,,,,,,,,,,,,,,,,,METAR,159.0
CZFS 111900Z AUTO 36005KT M15/M16 RMK AO1 9PAST HR SOG 09 6006 SLP228 P0004 T11451164 50009,CZFS,2020-12-11T19:00:00Z,61.77,-121.23,-14.5,-16.4,360,5,,,,1022.8,,TRUE,TRUE,,,,,,,,,,,,,,,,0.9,,,,,0.04,,,,,,METAR,174.0
CZFN 111900Z 34003KT 2SM -SN OVC030 M18/M21 A3046 RMK SN5SC3 SLP329,CZFN,2020-12-11T19:00:00Z,64.92,-125.57,-18.0,-21.0,340,3,,2.0,30.46063,1032.9,,,,,,,,,-SN,OVC,3000,,,,,,,IFR,,,,,,,,,,,,SPECI,135.0
CZFM 111900Z 35004KT 300V010 15SM -SN BKN060 M25/M27 A3061 RMK SC8 SLP374,CZFM,2020-12-11T19:00:00Z,67.4,-134.87,-25.0,-27.0,350,4,,15.0,30.611221,1037.4,,,,,,,,,-SN,BKN,6000,,,,,,,VFR,,,,,,,,,,,,SPECI,33.0
CZEV 111900Z AUTO 08004KT M25/M28 RMK AO1 2PAST HR SOG 21 2019 SLP380 P0001 T12511284 50002,CZEV,2020-12-11T19:00:00Z,68.32,-133.48,-25.1,-28.4,80,4,,,,1038.0,,TRUE,TRUE,,,,,,,,,,,,,,,,0.2,,,,,0.01,,,,,,METAR,92.0
CZEL 111900Z AUTO 30003KT 07/03 RMK AO1 SLP158 T00670034 58004,CZEL,2020-12-11T19:00:00Z,43.65,-80.42,6.7,3.4,300,3,,,,1015.8,,TRUE,TRUE,,,,,,,,,,,,,,,,-0.4,,,,,,,,,,,METAR,370.0
CZDB 111900Z AUTO 26008KT 02/M02 RMK AO1 SLP199 T00171023 55005,CZDB,2020-12-11T19:00:00Z,45.42,-63.47,1.7,-2.3,260,8,,,,1019.9,,TRUE,TRUE,,,,,,,,,,,,,,,,-0.5,,,,,,,,,,,METAR,38.0
CZCR 111900Z AUTO 31003KT M02/M03 RMK AO1 2PAST HR SOG 17 6010 SLP176 P0001 T10241033 50002,CZCR,2020-12-11T19:00:00Z,47.98,-66.33,-2.4,-3.3,310,3,,,,1017.6,,TRUE,TRUE,,,,,,,,,,,,,,,,0.2,,,,,0.01,,,,,,METAR,39.0
CZCP 111900Z AUTO 32005KT 270V360 ////SM //// NCD M26/M28 A3059,CZCP,2020-12-11T19:00:00Z,70.17,-124.68,-26.0,-28.0,320,5,,,30.590551,,,TRUE,,,,,,,,CLR,,,,,,,,,,,,,,,,,,,,SPECI,23.0
CYZY 111900Z AUTO 15003KT 9SM OVC010 M05/M07 A3003 RMK SLP218,CYZY,2020-12-11T19:00:00Z,55.3,-123.13,-5.0,-7.0,150,3,,9.0,30.029528,1021.8,,TRUE,,,,,,,,OVC,1000,,,,,,,MVFR,,,,,,,,,,,,SPECI,694.0
CYZX 111900Z 25010KT 15SM BKN150 03/M01 A3013 RMK AC7 SLP206,CYZX,2020-12-11T19:00:00Z,44.98,-64.92,3.0,-1.0,250,10,,15.0,30.129921,1020.6,,,,,,,,,,BKN,15000,,,,,,,VFR,,,,,,,,,,,,SPECI,28.0
CYZW 111900Z VRB02KT 30SM FEW090 M18/M20 A3001 RMK AC2 SLP236,CYZW,2020-12-11T19:00:00Z,60.17,-132.75,-18.0,-20.0,0,2,,30.0,30.008858,1023.6,,,,,,,,,,FEW,9000,,,,,,,VFR,,,,,,,,,,,,SPECI,700.0
CYZU 111900Z 09005KT 2SM -SN BR OVC003 M12/M13 A3007 RMK SC8 FROIN SLP243,CYZU,2020-12-11T19:00:00Z,54.15,-115.78,-12.0,-13.0,90,5,,2.0,30.070866,1024.3,,,,,,,,,-SN BR,OVC,300,,,,,,,LIFR,,,,,,,,,,,,SPECI,785.0
CYZS 111900Z 34014KT 15SM DRSN SKC M31/M34 A2990 RMK SLP136,CYZS,2020-12-11T19:00:00Z,64.2,-83.35,-31.0,-34.0,340,14,,15.0,29.899607,1013.6,,,,,,,,,DRSN,SKC,,,,,,,,VFR,,,,,,,,,,,,SPECI,60.0
CYZP 111900Z AUTO 26011KT 9SM CLR 03/02 A3009 RMK SLP194,CYZP,2020-12-11T19:00:00Z,53.25,-131.82,3.0,2.0,260,11,,9.0,30.088583,1019.4,,TRUE,,,,,,,,CLR,,,,,,,,VFR,,,,,,,,,,,,SPECI,7.0
CYZF 111900Z 07009KT 15SM -SN FEW030 OVC080 M19/M22 A3028 RMK SC1AC7 SLP284,CYZF,2020-12-11T19:00:00Z,62.47,-114.45,-19.0,-22.0,70,9,,15.0,30.280512,1028.4,,,,,,,,,-SN,FEW,3000,OVC,8000,,,,,VFR,,,,,,,,,,,,SPECI,202.0
CYZE 111900Z AUTO 01009G15KT 9SM CLR 05/M01 A3002 RMK SLP177,CYZE,2020-12-11T19:00:00Z,45.88,-82.57,5.0,-1.0,10,9,15,9.0,30.02067,1017.7,,TRUE,,,,,,,,CLR,,,,,,,,VFR,,,,,,,,,,,,SPECI,189.0
CYYZ 111900Z 00000KT 10SM FEW120 BKN260 09/03 A2994 RMK AC2CI3 SLP144,CYYZ,2020-12-11T19:00:00Z,43.67,-79.62,9.0,3.0,0,0,,10.0,29.940945,1014.4,,,,,,,,,,FEW,12000,BKN,26000,,,,,VFR,,,,,,,,,,,,SPECI,171.0
CYYY 111900Z 20007KT 1SM R06/P6000FT/U -SN VV015 M01/M02 A2999 RMK SN8 SLP161,CYYY,2020-12-11T19:00:00Z,48.6,-68.22,-1.0,-2.0,200,7,,1.0,29.991142,1016.1,,,,,,,,,-SN,OVX,0,,,,,,,LIFR,,,,,,,,,,,1500,SPECI,43.0
CYYU 111900Z 34006KT 6SM -SN BKN014 BKN022 M11/M13 A3021 RMK SC5SC2 SLP250,CYYU,2020-12-11T19:00:00Z,49.42,-82.47,-11.0,-13.0,340,6,,6.0,30.209646,1025.0,,,,,,,,,-SN,BKN,1400,BKN,2200,,,,,MVFR,,,,,,,,,,,,SPECI,228.0
CYYT 111900Z 34017G23KT 15SM SCT017 BKN120 02/01 A2969 RMK SC4AC3 SLP062,CYYT,2020-12-11T19:00:00Z,47.62,-52.73,2.0,1.0,340,17,23,15.0,29.68996,1006.2,,,,,,,,,,SCT,1700,BKN,12000,,,,,VFR,,,,,,,,,,,,SPECI,128.0
CYYR 111900Z 22007KT 15SM FEW020 BKN070 BKN085 M04/M06 A2989 RMK SC1AC4AC1 SLP125,CYYR,2020-12-11T19:00:00Z,53.32,-60.42,-4.0,-6.0,220,7,,15.0,29.890747,1012.5,,,,,,,,,,FEW,2000,BKN,7000,BKN,8500,,,VFR,,,,,,,,,,,,SPECI,42.0
CYYQ 111900Z 27010KT 12SM BKN015 M23/M27 A3041 RMK SC7 WND ESTD SLP302,CYYQ,2020-12-11T19:00:00Z,58.75,-94.07,-23.0,-27.0,270,10,,12.0,30.410433,1030.2,,,,,,,,,,BKN,1500,,,,,,,MVFR,,,,,,,,,,,,SPECI,20.0
CYYN 111900Z AUTO 33004KT 8SM OVC018 M07/M07 A3010 RMK ICG SLP240,CYYN,2020-12-11T19:00:00Z,50.28,-107.68,-7.0,-7.0,330,4,,8.0,30.100393,1024.0,,TRUE,,,,,,,,OVC,1800,,,,,,,MVFR,,,,,,,,,,,,SPECI,814.0
CYYJ 111900Z 16004KT 30SM FEW028 SCT095 BKN250 07/04 A3006 RMK CU1AC2CI3 SLP181,CYYJ,2020-12-11T19:00:00Z,48.63,-123.42,7.0,4.0,160,4,,30.0,30.059055,1018.1,,,,,,,,,,FEW,2800,SCT,9500,BKN,25000,,,VFR,,,,,,,,,,,,SPECI,16.0
CYYH 111900Z 27011KT 12SM IC SCT011 M29/M33 A2987 RMK SC3 SLP123,CYYH,2020-12-11T19:00:00Z,69.53,-93.57,-29.0,-33.0,270,11,,12.0,29.870079,1012.3,,,,,,,,,IC,SCT,1100,,,,,,,VFR,,,,,,,,,,,,SPECI,19.0
CYYG 111900Z 26009KT 15SM FEW019 BKN160 BKN260 00/M04 A3008 RMK SC1AC5CI1 SLP192,CYYG,2020-12-11T19:00:00Z,46.28,-63.12,0.0,-4.0,260,9,,15.0,30.079725,1019.2,,,,,,,,,,FEW,1900,BKN,16000,BKN,26000,,,VFR,,,,,,,,,,,,SPECI,48.0
CYYF 111900Z 00000KT 6SM -RA BR BKN005 OVC015 02/01 A3006 RMK SF7SC1 VIS N 5 SLP193,CYYF,2020-12-11T19:00:00Z,49.47,-119.6,2.0,1.0,0,0,,6.0,30.059055,1019.3,,,,,,,,,-RA BR,BKN,500,OVC,1500,,,,,IFR,,,,,,,,,,,,SPECI,342.0
CYYE 111900Z 00000KT 20SM -SN BKN009 M18/M20 A3000 RMK SC7 SLP203,CYYE,2020-12-11T19:00:00Z,58.83,-122.58,-18.0,-20.0,0,0,,20.0,30.0,1020.3,,,,,,,,,-SN,BKN,900,,,,,,,IFR,,,,,,,,,,,,SPECI,379.0
CYYC 111900Z 17013KT 1 1/2SM -SG BR VV004 M08/M09 A3004 RMK FG8 PCPN VRY LGT SLP246,CYYC,2020-12-11T19:00:00Z,51.12,-114.02,-8.0,-9.0,170,13,,1.5,30.041338,1024.6,,,,,,,,,-SG BR,OVX,0,,,,,,,LIFR,,,,,,,,,,,400,SPECI,1085.0
CYYB 111900Z 01006G15KT 340V050 20SM OVC005 01/M00 A2998 RMK ST8 SLP168,CYYB,2020-12-11T19:00:00Z,46.35,-79.42,1.0,0.0,10,6,15,20.0,29.97933,1016.8,,,,,,,,,,OVC,500,,,,,,,IFR,,,,,,,,,,,,SPECI,360.0
CYXZ 111900Z 02008KT 15SM BKN018 BKN260 M04/M08 A3014 RMK SC6CI1 SLP223,CYXZ,2020-12-11T19:00:00Z,47.97,-84.77,-4.0,-8.0,20,8,,15.0,30.138779,1022.3,,,,,,,,,,BKN,1800,BKN,26000,,,,,MVFR,,,,,,,,,,,,SPECI,287.0
CYXX 111900Z 04003KT 030V100 10SM -SHRA FEW005 BKN020 BKN029 BKN062 BKN070 05/04 A3007 RMK CF1CU4SC1SC1AC1 AC TR VIS NE-E 5 SLP187,CYXX,2020-12-11T19:00:00Z,49.03,-122.38,5.0,4.0,40,3,,10.0,30.070866,1018.7,,,,,,,,,-SHRA,FEW,500,BKN,2000,BKN,2900,BKN,6200,MVFR,,,,,,,,,,,,SPECI,54.0
CYXU 111900Z 32003KT 12SM FEW160 OVC240 08/04 A2994 RMK AC1CI7 HZ SLP147,CYXU,2020-12-11T19:00:00Z,43.03,-81.15,8.0,4.0,320,3,,12.0,29.940945,1014.7,,,,,,,,,,FEW,16000,OVC,24000,,,,,VFR,,,,,,,,,,,,SPECI,278.0
CYXT 111900Z 33004KT 310V110 20SM FEW008 SCT045 01/M01 A3011 RMK SF1SC2 SLP207,CYXT,2020-12-11T19:00:00Z,54.47,-128.57,1.0,-1.0,330,4,,20.0,30.109253,1020.7,,,,,,,,,,FEW,800,SCT,4500,,,,,VFR,,,,,,,,,,,,SPECI,213.0
CYXQ 111900Z 22003KT 200V270 2 1/2SM BR OVC006 M20/M22 A3011 RMK FG4ST4 SLP271,CYXQ,2020-12-11T19:00:00Z,62.42,-140.87,-20.0,-22.0,220,3,,2.5,30.109253,1027.1,,,,,,,,,BR,OVC,600,,,,,,,IFR,,,,,,,,,,,,SPECI,663.0
CYXP 111900Z VRB02KT 15SM -SN OVC042 M05/M10 A2953 RMK SC8 SLP005,CYXP,2020-12-11T19:00:00Z,66.15,-65.72,-5.0,-10.0,0,2,,15.0,29.530512,1000.5,,,,,,,,,-SN,OVC,4200,,,,,,,VFR,,,,,,,,,,,,SPECI,29.0
CYXL 111900Z CCA 34004KT 300V070 15SM -SN OVC018 M07/M10 A3020 RMK SC8 SLP255,CYXL,2020-12-11T19:00:00Z,50.12,-91.9,-7.0,-10.0,340,4,,15.0,30.200787,1025.5,,,,,,,,,-SN,OVC,1800,,,,,,,MVFR,,,,,,,,,,,,SPECI,381.0
CYXE 111900Z 36009KT 15SM BKN012 OVC021 M05/M07 A3019 RMK SC7SC1 SLP260,CYXE,2020-12-11T19:00:00Z,52.17,-106.7,-5.0,-7.0,360,9,,15.0,30.188976,1026.0,,,,,,,,,,BKN,1200,OVC,2100,,,,,MVFR,,,,,,,,,,,,SPECI,504.0
CYXC 111900Z 00000KT 20SM -SN FEW010 OVC057 M04/M06 A3003 RMK SF1SC8 SF TR SLP212,CYXC,2020-12-11T19:00:00Z,49.6,-115.78,-4.0,-6.0,0,0,,20.0,30.029528,1021.2,,,,,,,,,-SN,FEW,1000,OVC,5700,,,,,VFR,,,,,,,,,,,,SPECI,928.0
CYWY 111900Z 32005KT 300V010 2SM -SN BR VV035 M16/M18 A3028 RMK SN8 SLP274,CYWY,2020-12-11T19:00:00Z,63.22,-123.43,-16.0,-18.0,320,5,,2.0,30.280512,1027.4,,,,,,,,,-SN BR,OVX,0,,,,,,,LIFR,,,,,,,,,,,3500,SPECI,135.0
CYWL 111900Z 36005KT 15SM BKN042 OVC073 M01/M02 A2998 RMK SC6AC2 WND ESTD SLP194,CYWL,2020-12-11T19:00:00Z,52.18,-122.07,-1.0,-2.0,360,5,,15.0,29.97933,1019.4,,,,,,,,,,BKN,4200,OVC,7300,,,,,VFR,,,,,,,,,,,,SPECI,942.0
CYWK 111900Z 20006KT 5SM -SHSN OVC048 M07/M09 A2981 RMK CU8 SLP135,CYWK,2020-12-11T19:00:00Z,52.92,-66.87,-7.0,-9.0,200,6,,5.0,29.811024,1013.5,,,,,,,,,-SHSN,OVC,4800,,,,,,,MVFR,,,,,,,,,,,,METAR,547.0
CYWH 111900Z CCA 23003KT 15SM FEW008 FEW013 SCT020 BKN090 BKN210 06/03 A3007 RMK SF1SC1CU2AC1CI2 SLP185,CYWH,2020-12-11T19:00:00Z,48.42,-123.38,6.0,3.0,230,3,,15.0,30.070866,1018.5,,,,,,,,,,FEW,800,FEW,1300,SCT,2000,BKN,9000,VFR,,,,,,,,,,,,SPECI,4.0
CYWG 111900Z 15007KT 9SM OVC012 M04/M06 A3021 RMK SC8 SLP248,CYWG,2020-12-11T19:00:00Z,49.9,-97.23,-4.0,-6.0,150,7,,9.0,30.209646,1024.8,,,,,,,,,,OVC,1200,,,,,,,MVFR,,,,,,,,,,,,SPECI,238.0
CYWE 111900Z AUTO 06009KT 9SM CLR M30/M32 A3028 RMK ICG SLP318,CYWE,2020-12-11T19:00:00Z,64.18,-114.08,-30.0,-32.0,60,9,,9.0,30.280512,1031.8,,TRUE,,,,,,,,CLR,,,,,,,,VFR,,,,,,,,,,,,METAR,374.0
CYVV 111900Z 02002KT 5SM BR OVC018 06/04 A2996 RMK SC8 SLP154,CYVV,2020-12-11T19:00:00Z,44.75,-81.1,6.0,4.0,20,2,,5.0,29.958662,1015.4,,,,,,,,,BR,OVC,1800,,,,,,,MVFR,,,,,,,,,,,,SPECI,221.0
CYVQ 111900Z 30007KT 3SM -SN OVC038 M18/M21 A3049 RMK SC8 SLP338,CYVQ,2020-12-11T19:00:00Z,65.27,-126.78,-18.0,-21.0,300,7,,3.0,30.490158,1033.8,,,,,,,,,-SN,OVC,3800,,,,,,,MVFR,,,,,,,,,,,,SPECI,63.0
CYVP 111900Z 24006KT 15SM -SN FEW030 BKN060 BKN098 M08/M09 A2976 RMK SC1SC5AC1 SLP082,CYVP,2020-12-11T19:00:00Z,58.12,-68.42,-8.0,-9.0,240,6,,15.0,29.760826,1008.2,,,,,,,,,-SN,FEW,3000,BKN,6000,BKN,9800,,,VFR,,,,,,,,,,,,SPECI,28.0
CYVO 111900Z 33009KT 10SM -SN OVC012 M02/M03 A3001 RMK SC8 SLP183,CYVO,2020-12-11T19:00:00Z,48.07,-77.77,-2.0,-3.0,330,9,,10.0,30.008858,1018.3,,,,,,,,,-SN,OVC,1200,,,,,,,MVFR,,,,,,,,,,,,SPECI,329.0
CYVM 111900Z 20008KT 15SM SCT017 SCT080 BKN150 M13/M14 A2953 RMK SC4AC1AC2 AC TR SLP003,CYVM,2020-12-11T19:00:00Z,67.55,-64.02,-13.0,-14.0,200,8,,15.0,29.530512,1000.3,,,,,,,,,,SCT,1700,SCT,8000,BKN,15000,,,VFR,,,,,,,,,,,,SPECI,3.0
CYVL 111900Z AUTO 36005KT 9SM FEW240 M30/M34 A3045 RMK SLP359,CYVL,2020-12-11T19:00:00Z,67.02,-126.13,-30.0,-34.0,360,5,,9.0,30.448818,1035.9,,TRUE,,,,,,,,FEW,24000,,,,,,,VFR,,,,,,,,,,,,METAR,261.0
CYVC 111900Z 32002KT 15SM BKN007 OVC015 M07/M09 A3024 RMK SC6SC2 SLP272,CYVC,2020-12-11T19:00:00Z,55.15,-105.27,-7.0,-9.0,320,2,,15.0,30.239174,1027.2,,,,,,,,,,BKN,700,OVC,1500,,,,,IFR,,,,,,,,,,,,SPECI,378.0
CYUY 111900Z 01009G16KT 15SM SCT012 OVC033 M04/M06 A3005 RMK SC4SC4 SLP195,CYUY,2020-12-11T19:00:00Z,48.2,-78.82,-4.0,-6.0,10,9,16,15.0,30.050198,1019.5,,,,,,,,,,SCT,1200,OVC,3300,,,,,VFR,,,,,,,,,,,,SPECI,304.0
CYUX 111900Z 31019KT 3SM IC BLSN FEW070 M30/M34 A2969 RMK AC2 SLP058,CYUX,2020-12-11T19:00:00Z,68.77,-81.22,-30.0,-34.0,310,19,,3.0,29.68996,1005.8,,,,,,,,,IC BLSN,FEW,7000,,,,,,,MVFR,,,,,,,,,,,,SPECI,8.0
CYUT 111900Z 31012G18KT 10SM DRSN FEW015 BKN240 M31/M35 A2994 RMK SC1CI4 SLP144,CYUT,2020-12-11T19:00:00Z,66.52,-86.22,-31.0,-35.0,310,12,18,10.0,29.940945,1014.4,,,,,,,,,DRSN,FEW,1500,BKN,24000,,,,,VFR,,,,,,,,,,,,SPECI,22.0
CYUL 111900Z 00000KT 30SM BKN095 BKN130 BKN240 05/M01 A2999 RMK AC5AC1CI1 SLP157,CYUL,2020-12-11T19:00:00Z,45.47,-73.73,5.0,-1.0,0,0,,30.0,29.991142,1015.7,,,,,,,,,,BKN,9500,BKN,13000,BKN,24000,,,VFR,,,,,,,,,,,,SPECI,31.0
CYUB 111900Z 10006KT 15SM FEW180 M31/M34 A3070 RMK AC1 AC TR SLP397,CYUB,2020-12-11T19:00:00Z,69.43,-133.02,-31.0,-34.0,100,6,,15.0,30.699802,1039.7,,,,,,,,,,FEW,18000,,,,,,,VFR,,,,,,,,,,,,SPECI,5.0
CYUA 111900Z AUTO 19005KT ////SM NCD M31/M36 A3062,CYUA,2020-12-11T19:00:00Z,68.92,-137.23,-31.0,-36.0,190,5,,,30.620079,,,TRUE,,,,,,,,CLR,,,,,,,,,,,,,,,,,,,,SPECI,25.0
CYTZ 111900Z AUTO 19007KT 6SM HZ FEW120 07/04 A2994 RMK SLP145,CYTZ,2020-12-11T19:00:00Z,43.63,-79.4,7.0,4.0,190,7,,6.0,29.940945,1014.5,,TRUE,,,,,,,HZ,FEW,12000,,,,,,,VFR,,,,,,,,,,,,METAR,76.0
CYTS 111900Z 35005KT 15SM SCT010 OVC018 M05/M07 A3013 RMK SC4SC4 SLP221,CYTS,2020-12-11T19:00:00Z,48.57,-81.37,-5.0,-7.0,350,5,,15.0,30.129921,1022.1,,,,,,,,,,SCT,1000,OVC,1800,,,,,MVFR,,,,,,,,,,,,SPECI,290.0
CYTR 111900Z 20006KT 15SM BKN130 08/03 A2996 RMK AC7 SLP149,CYTR,2020-12-11T19:00:00Z,44.12,-77.52,8.0,3.0,200,6,,15.0,29.958662,1014.9,,,,,,,,,,BKN,13000,,,,,,,VFR,,,,,,,,,,,,SPECI,80.0
CYTQ 111900Z 26016KT 6SM -SN DRSN OVC067 M07/M09 A2971 RMK AC8 SLP066,CYTQ,2020-12-11T19:00:00Z,58.67,-69.95,-7.0,-9.0,260,16,,6.0,29.71063,1006.6,,,,,,,,,-SN DRSN,OVC,6700,,,,,,,VFR,,,,,,,,,,,,SPECI,14.0
CYTL 111900Z AUTO 27005KT 9SM OVC010 M16/M17 A3031 RMK SLP293,CYTL,2020-12-11T19:00:00Z,53.82,-89.88,-16.0,-17.0,270,5,,9.0,30.31004,1029.3,,TRUE,,,,,,,,OVC,1000,,,,,,,MVFR,,,,,,,,,,,,SPECI,218.0
CYTH 111900Z 29002KT 15SM BKN087 BKN210 M18/M21 A3030 RMK AC5CI1 SLP290,CYTH,2020-12-11T19:00:00Z,55.8,-97.83,-18.0,-21.0,290,2,,15.0,30.301182,1029.0,,,,,,,,,,BKN,8700,BKN,21000,,,,,VFR,,,,,,,,,,,,SPECI,212.0
CYTE 111900Z 30017KT 4SM -SN DRSN OVC029 M17/M20 A2960 RMK SC8 SLP030,CYTE,2020-12-11T19:00:00Z,64.22,-76.52,-17.0,-20.0,300,17,,4.0,29.601377,1003.0,,,,,,,,,-SN DRSN,OVC,2900,,,,,,,MVFR,,,,,,,,,,,,SPECI,49.0
CYSY 111900Z 33023KT 2SM -SN BR DRSN FEW003 FEW230 M29/M32 A3057 RMK FG1ST1CI1 CI TR SLP371,CYSY,2020-12-11T19:00:00Z,72.0,-125.23,-29.0,-32.0,330,23,,2.0,30.569881,1037.1,,,,,,,,,-SN BR DRSN,FEW,300,FEW,23000,,,,,IFR,,,,,,,,,,,,SPECI,83.0
CYSP 111900Z 07005KT 15SM OVC017 M06/M09 A3017 RMK SC8 CIG RAG SLP239,CYSP,2020-12-11T19:00:00Z,48.75,-86.35,-6.0,-9.0,70,5,,15.0,30.171259,1023.9,,,,,,,,,,OVC,1700,,,,,,,MVFR,,,,,,,,,,,,METAR,312.0
CYSM 111900Z 16005KT 15SM -SN OVC010 M14/M16 A3025 RMK SC8 SLP267,CYSM,2020-12-11T19:00:00Z,60.03,-111.92,-14.0,-16.0,160,5,,15.0,30.250984,1026.7,,,,,,,,,-SN,OVC,1000,,,,,,,MVFR,,,,,,,,,,,,SPECI,203.0
CYSK 111900Z 30023KT 7SM DRSN BKN014 M13/M16 A3007 RMK SC7 SLP187,CYSK,2020-12-11T19:00:00Z,56.53,-79.25,-13.0,-16.0,300,23,,7.0,30.070866,1018.7,,,,,,,,,DRSN,BKN,1400,,,,,,,MVFR,,,,,,,,,,,,SPECI,28.0
CYSJ 111900Z 23004KT 15SM FEW015 SCT110 BKN150 02/M03 A3011 RMK SC1AC3AC3 SLP205,CYSJ,2020-12-11T19:00:00Z,45.32,-65.88,2.0,-3.0,230,4,,15.0,30.109253,1020.5,,,,,,,,,,FEW,1500,SCT,11000,BKN,15000,,,VFR,,,,,,,,,,,,SPECI,89.0
CYSF 111900Z AUTO /////KT M16/M19 A3030 RMK WND MISG CLD MISG WX MISG VIS MISG PCPN MISG ICG MISG SLP290,CYSF,2020-12-11T19:00:00Z,59.25,-105.83,-16.0,-19.0,,,,,30.301182,1029.0,,TRUE,,,,,,,,,,,,,,,,,,,,,,,,,,,,SPECI,238.0
CYSC 111900Z AUTO 02002KT 9SM BKN120 BKN240 02/M02 A2998 RMK SLP165,CYSC,2020-12-11T19:00:00Z,45.43,-71.68,2.0,-2.0,20,2,,9.0,29.97933,1016.5,,TRUE,,,,,,,,BKN,12000,BKN,24000,,,,,VFR,,,,,,,,,,,,SPECI,236.0
CYSB 111900Z 01011G17KT 20SM OVC016 01/M02 A3001 RMK SC8 SLP179,CYSB,2020-12-11T19:00:00Z,46.63,-80.8,1.0,-2.0,10,11,17,20.0,30.008858,1017.9,,,,,,,,,,OVC,1600,,,,,,,MVFR,,,,,,,,,,,,SPECI,349.0
CYRV 111900Z AUTO 16002KT 9SM OVC046 M01/M05 A3009 RMK SLP217,CYRV,2020-12-11T19:00:00Z,50.97,-118.17,-1.0,-5.0,160,2,,9.0,30.088583,1021.7,,TRUE,,,,,,,,OVC,4600,,,,,,,VFR,,,,,,,,,,,,SPECI,456.0
CYRT 111900Z 30014KT 10SM DRSN SKC M32/M36 A3027 RMK SLP259,CYRT,2020-12-11T19:00:00Z,62.82,-92.12,-32.0,-36.0,300,14,,10.0,30.268702,1025.9,,,,,,,,,DRSN,SKC,,,,,,,,VFR,,,,,,,,,,,,SPECI,29.0
CYRQ 111900Z AUTO 07003KT 9SM BKN016 OVC085 00/M01 A3000 RMK SLP163,CYRQ,2020-12-11T19:00:00Z,46.35,-72.68,0.0,-1.0,70,3,,9.0,30.0,1016.3,,TRUE,,,,,,,,BKN,1600,OVC,8500,,,,,MVFR,,,,,,,,,,,,METAR,58.0
CYRL 111900Z 00000KT 15SM FEW012 FEW120 SCT240 M11/M13 A3021 RMK SC2AC1CI1 AC TR SLP264,CYRL,2020-12-11T19:00:00Z,51.07,-93.78,-11.0,-13.0,0,0,,15.0,30.209646,1026.4,,,,,,,,,,FEW,1200,FEW,12000,SCT,24000,,,VFR,,,,,,,,,,,,SPECI,370.0
CYRB 111900Z 02017KT 9SM -SN DRSN SCT040 OVC082 M26/M30 A2958 RMK SC3AC5 SLP031,CYRB,2020-12-11T19:00:00Z,74.72,-94.97,-26.0,-30.0,20,17,,9.0,29.58071,1003.1,,,,,,,,,-SN DRSN,SCT,4000,OVC,8200,,,,,VFR,,,,,,,,,,,,SPECI,59.0
CYRA 111900Z 01005KT 340V050 15SM BKN083 M24/M27 A3034 RMK AS7 DIST -SN SE QUAD SLP309,CYRA,2020-12-11T19:00:00Z,64.12,-117.32,-24.0,-27.0,10,5,,15.0,30.339567,1030.9,,,,,,,,,,BKN,8300,,,,,,,VFR,,,,,,,,,,,,METAR,232.0
CYQZ 111900Z AUTO 30003KT 9SM OVC033 M01/M02 A3005 RMK SLP205,CYQZ,2020-12-11T19:00:00Z,53.02,-122.52,-1.0,-2.0,300,3,,9.0,30.050198,1020.5,,TRUE,,,,,,,,OVC,3300,,,,,,,VFR,,,,,,,,,,,,SPECI,548.0
CYQY 111900Z 28013KT 15SM BKN031 BKN240 02/M02 A3004 RMK SC6CI1 SLP175,CYQY,2020-12-11T19:00:00Z,46.17,-60.03,2.0,-2.0,280,13,,15.0,30.041338,1017.5,,,,,,,,,,BKN,3100,BKN,24000,,,,,VFR,,,,,,,,,,,,SPECI,58.0
CYQW 111900Z AUTO 05007KT 9SM OVC014 M06/M08 A3021 RMK SLP270,CYQW,2020-12-11T19:00:00Z,52.77,-108.25,-6.0,-8.0,50,7,,9.0,30.209646,1027.0,,TRUE,,,,,,,,OVC,1400,,,,,,,MVFR,,,,,,,,,,,,SPECI,545.0
CYQV 111900Z AUTO 33006KT 7SM BKN007 OVC012 M06/M07 A3010 RMK SLP238,CYQV,2020-12-11T19:00:00Z,51.27,-102.47,-6.0,-7.0,330,6,,7.0,30.100393,1023.8,,TRUE,,,,,,,,BKN,700,OVC,1200,,,,,IFR,,,,,,,,,,,,SPECI,493.0
CYQT 111900Z 30010KT 20SM BKN027 M02/M08 A3020 RMK SC7 SLP241,CYQT,2020-12-11T19:00:00Z,48.37,-89.32,-2.0,-8.0,300,10,,20.0,30.200787,1024.1,,,,,,,,,,BKN,2700,,,,,,,MVFR,,,,,,,,,,,,METAR,197.0
CYQM 111900Z 23005KT 15SM FEW025 FEW045 BKN080 BKN240 02/M04 A3008 RMK CU1SC1AC6CI1 CU TR SC TR WND ESTD SLP192,CYQM,2020-12-11T19:00:00Z,46.12,-64.67,2.0,-4.0,230,5,,15.0,30.079725,1019.2,,,,,,,,,,FEW,2500,FEW,4500,BKN,8000,BKN,24000,VFR,,,,,,,,,,,,SPECI,67.0
CYQK 111900Z 09003KT 040V150 20SM OVC008 M07/M09 A3019 RMK SC8 SLP254,CYQK,2020-12-11T19:00:00Z,49.78,-94.37,-7.0,-9.0,90,3,,20.0,30.188976,1025.4,,,,,,,,,,OVC,800,,,,,,,IFR,,,,,,,,,,,,SPECI,413.0
CYQI 111900Z 23008KT 15SM SCT027 OVC150 05/01 A3015 RMK SC4AC4 SLP214,CYQI,2020-12-11T19:00:00Z,43.83,-66.08,5.0,1.0,230,8,,15.0,30.15059,1021.4,,,,,,,,,,SCT,2700,OVC,15000,,,,,VFR,,,,,,,,,,,,SPECI,37.0
CYQH 111900Z 32004KT 40SM FEW035 FEW100 M18/M21 A2994 RMK SC1AC1 SLP206,CYQH,2020-12-11T19:00:00Z,60.12,-128.82,-18.0,-21.0,320,4,,40.0,29.940945,1020.6,,,,,,,,,,FEW,3500,FEW,10000,,,,,VFR,,,,,,,,,,,,SPECI,692.0
CYQG 111900Z AUTO 04010KT 7SM BKN170 09/03 A2994 RMK SLP145,CYQG,2020-12-11T19:00:00Z,42.27,-82.97,9.0,3.0,40,10,,7.0,29.940945,1014.5,,TRUE,,,,,,,,BKN,17000,,,,,,,VFR,,,,,,,,,,,,SPECI,189.0
CYQB 111900Z 00000KT 20SM OVC021 M00/M03 A3001 RMK SC8 SLP169,CYQB,2020-12-11T19:00:00Z,46.78,-71.38,0.0,-3.0,0,0,,20.0,30.008858,1016.9,,,,,,,,,,OVC,2100,,,,,,,MVFR,,,,,,,,,,,,SPECI,73.0
CYQA 111900Z AUTO 34004KT 5SM BR OVC021 03/02 A2994 RMK SLP155,CYQA,2020-12-11T19:00:00Z,44.97,-79.3,3.0,2.0,340,4,,5.0,29.940945,1015.5,,TRUE,,,,,,,BR,OVC,2100,,,,,,,MVFR,,,,,,,,,,,,SPECI,277.0
CYPY 111900Z AUTO 22003KT 170V260 9SM -SN OVC011 M12/M14 A3027 RMK SLP267,CYPY,2020-12-11T19:00:00Z,58.77,-111.12,-12.0,-14.0,220,3,,9.0,30.268702,1026.7,,TRUE,,,,,,,-SN,OVC,1100,,,,,,,MVFR,,,,,,,,,,,,SPECI,225.0
CYPX 111900Z AUTO 28021G27KT 3/4SM -SN OVC017 M12/M13 A2979 RMK SLP095,CYPX,2020-12-11T19:00:00Z,60.03,-77.27,-12.0,-13.0,280,21,27,0.75,29.790354,1009.5,,TRUE,,,,,,,-SN,OVC,1700,,,,,,,LIFR,,,,,,,,,,,,SPECI,10.0
CYPW 111900Z VRB02KT 15SM FEW008 FEW016 OVC022 04/04 A3007 RMK SF1SC2SC6 SF TR VIS LWR N-NE SLP187,CYPW,2020-12-11T19:00:00Z,49.83,-124.5,4.0,4.0,0,2,,15.0,30.070866,1018.7,,,,,,,,,,FEW,800,FEW,1600,OVC,2200,,,MVFR,,,,,,,,,,,,SPECI,122.0
CYPR 111900Z AUTO 02004KT 9SM CLR 03/01 A3008 RMK SLP193,CYPR,2020-12-11T19:00:00Z,54.28,-130.45,3.0,1.0,20,4,,9.0,30.079725,1019.3,,TRUE,,,,,,,,CLR,,,,,,,,VFR,,,,,,,,,,,,SPECI,30.0
CYPQ 111900Z AUTO 33006KT 8SM OVC090 07/03 A2995 RMK SLP153,CYPQ,2020-12-11T19:00:00Z,44.22,-78.37,7.0,3.0,330,6,,8.0,29.949802,1015.3,,TRUE,,,,,,,,OVC,9000,,,,,,,VFR,,,,,,,,,,,,SPECI,190.0
CYPL 111900Z AUTO VRB02KT 9SM OVC011 M14/M16 A3023 RMK SLP278,CYPL,2020-12-11T19:00:00Z,51.43,-90.22,-14.0,-16.0,0,2,,9.0,30.230314,1027.8,,TRUE,,,,,,,,OVC,1100,,,,,,,MVFR,,,,,,,,,,,,SPECI,390.0
CYPG 111900Z 11008KT 12SM OVC011 M03/M04 A3018 RMK SC8 SLP237,CYPG,2020-12-11T19:00:00Z,49.9,-98.28,-3.0,-4.0,110,8,,12.0,30.180119,1023.7,,,,,,,,,,OVC,1100,,,,,,,MVFR,,,,,,,,,,,,SPECI,270.0
CYPE 111900Z 34006KT 15SM BKN210 M10/M11 A3005 RMK CI5 SLP223,CYPE,2020-12-11T19:00:00Z,56.22,-117.45,-10.0,-11.0,340,6,,15.0,30.050198,1022.3,,,,,,,,,,BKN,21000,,,,,,,VFR,,,,,,,,,,,,SPECI,572.0
CYPD 111900Z AUTO 27013KT 9SM OVC015 00/M02 A3007 RMK SLP188,CYPD,2020-12-11T19:00:00Z,45.67,-61.37,0.0,-2.0,270,13,,9.0,30.070866,1018.8,,TRUE,,,,,,,,OVC,1500,,,,,,,MVFR,,,,,,,,,,,,METAR,106.0
CYPC 111900Z 24011KT 6SM BR FEW005 FEW009 M29/M33 A3066 RMK ST2ST1 ST TR SLP385,CYPC,2020-12-11T19:00:00Z,69.37,-124.07,-29.0,-33.0,240,11,,6.0,30.661417,1038.5,,,,,,,,,BR,FEW,500,FEW,900,,,,,VFR,,,,,,,,,,,,METAR,5.0
CYPA 111900Z 01007KT 15SM OVC013 M07/M10 A3023 RMK SC8 SLP274,CYPA,2020-12-11T19:00:00Z,53.22,-105.67,-7.0,-10.0,10,7,,15.0,30.230314,1027.4,,,,,,,,,,OVC,1300,,,,,,,MVFR,,,,,,,,,,,,SPECI,428.0
CYOY 111900Z AUTO 35002KT 7SM OVC018 M01/M03 A2999 RMK SLP167,CYOY,2020-12-11T19:00:00Z,46.88,-71.5,-1.0,-3.0,350,2,,7.0,29.991142,1016.7,,TRUE,,,,,,,,OVC,1800,,,,,,,MVFR,,,,,,,,,,,,SPECI,167.0
CYOW 111900Z 29003KT 15SM SCT040 BKN130 04/01 A2998 RMK SC3AC5 SLP158,CYOW,2020-12-11T19:00:00Z,45.32,-75.67,4.0,1.0,290,3,,15.0,29.97933,1015.8,,,,,,,,,,SCT,4000,BKN,13000,,,,,VFR,,,,,,,,,,,,SPECI,111.0
CYOO 111900Z AUTO 32002KT 7SM BKN130 07/05 A2994 RMK SLP148,CYOO,2020-12-11T19:00:00Z,43.92,-78.9,7.0,5.0,320,2,,7.0,29.940945,1014.8,,TRUE,,,,,,,,BKN,13000,,,,,,,VFR,,,,,,,,,,,,METAR,136.0
CYOJ 111900Z 14012KT 1 1/2SM -SN BR OVC003 M10/M11 A3010 RMK ST8 FROIN SLP228,CYOJ,2020-12-11T19:00:00Z,58.62,-117.17,-10.0,-11.0,140,12,,1.5,30.100393,1022.8,,,,,,,,,-SN BR,OVC,300,,,,,,,LIFR,,,,,,,,,,,,SPECI,339.0
CYOD 111900Z 11003KT 15SM OVC010 M06/M08 A3021 RMK ST8 SLP267,CYOD,2020-12-11T19:00:00Z,54.4,-110.28,-6.0,-8.0,110,3,,15.0,30.209646,1026.7,,,,,,,,,,OVC,1000,,,,,,,MVFR,,,,,,,,,,,,SPECI,540.0
CYOC 111900Z 10008KT 35SM FEW023 FEW035 M23/M26 A3044 RMK ST1SC1 ST TR SC TR SLP345,CYOC,2020-12-11T19:00:00Z,67.57,-139.83,-23.0,-26.0,100,8,,35.0,30.43996,1034.5,,,,,,,,,,FEW,2300,FEW,3500,,,,,VFR,,,,,,,,,,,,SPECI,253.0
CYNE 111900Z AUTO VRB03KT 9SM CLR M15/M17 A3027 RMK SLP280,CYNE,2020-12-11T19:00:00Z,53.97,-97.83,-15.0,-17.0,0,3,,9.0,30.268702,1028.0,,TRUE,,,,,,,,CLR,,,,,,,,VFR,,,,,,,,,,,,SPECI,220.0
CYND 111900Z 00000KT 15SM FEW014 BKN033 BKN140 03/M00 A2998 RMK SC2SC3AC2 SLP158,CYND,2020-12-11T19:00:00Z,45.52,-75.57,3.0,0.0,0,0,,15.0,29.97933,1015.8,,,,,,,,,,FEW,1400,BKN,3300,BKN,14000,,,VFR,,,,,,,,,,,,SPECI,57.0
CYNC 111900Z 31010KT 6SM -SHSN SCT014 OVC028 M06/M08 A3014 RMK SC4SC4 SF ASOCTD CVCTV CLD EMBD SLP211,CYNC,2020-12-11T19:00:00Z,53.02,-78.82,-6.0,-8.0,310,10,,6.0,30.138779,1021.1,,,,,,,,,-SHSN,SCT,1400,OVC,2800,,,,,MVFR,,,,,,,,,,,,SPECI,13.0
CYMX 111900Z 00000KT 25SM FEW040 BKN110 02/M01 A2999 RMK SC1AC6 SC TR SLP160,CYMX,2020-12-11T19:00:00Z,45.67,-74.03,2.0,-1.0,0,0,,25.0,29.991142,1016.0,,,,,,,,,,FEW,4000,BKN,11000,,,,,VFR,,,,,,,,,,,,SPECI,78.0
CYMU 111900Z 30020KT 10SM -SHSN DRSN BKN020 OVC035 M08/M12 A2995 RMK ST7SC1 CIG VRB 18-22 SLP152,CYMU,2020-12-11T19:00:00Z,56.53,-76.52,-8.0,-12.0,300,20,,10.0,29.949802,1015.2,,,,,,,,,-SHSN DRSN,BKN,2000,OVC,3500,,,,,MVFR,,,,,,,,,,,,SPECI,69.0
CYMM 111900Z AUTO 13006KT 100V170 9SM OVC020 M08/M11 A3021 RMK SLP262,CYMM,2020-12-11T19:00:00Z,56.65,-111.22,-8.0,-11.0,130,6,,9.0,30.209646,1026.2,,TRUE,,,,,,,,OVC,2000,,,,,,,MVFR,,,,,,,,,,,,SPECI,371.0
CYMA 111900Z 27003KT 20SM FEW025 M21/M24 A3008 RMK SC1 SLP240,CYMA,2020-12-11T19:00:00Z,63.62,-135.87,-21.0,-24.0,270,3,,20.0,30.079725,1024.0,,,,,,,,,,FEW,2500,,,,,,,VFR,,,,,,,,,,,,SPECI,519.0
CYLU 111900Z 15011G17KT 3SM -SN DRSN FEW012 OVC022 M07/M09 A2974 RMK ST1SC7 SLP078,CYLU,2020-12-11T19:00:00Z,58.72,-65.98,-7.0,-9.0,150,11,17,3.0,29.740158,1007.8,,,,,,,,,-SN DRSN,FEW,1200,OVC,2200,,,,,MVFR,,,,,,,,,,,,SPECI,61.0
CYLT 111900Z 29005KT 10SM BKN150 M29/M32 A3003 RMK AC7 SLP177,CYLT,2020-12-11T19:00:00Z,82.52,-62.32,-29.0,-32.0,290,5,,10.0,30.029528,1017.7,,,,,,,,,,BKN,15000,,,,,,,VFR,,,,,,,,,,,,SPECI,9.0
CYLL 111900Z 00000KT 15SM OVC005 M07/M08 A3017 RMK SC8 SLP262,CYLL,2020-12-11T19:00:00Z,53.32,-110.07,-7.0,-8.0,0,0,,15.0,30.171259,1026.2,,,,,,,,,,OVC,500,,,,,,,IFR,,,,,,,,,,,,SPECI,664.0
CYLK 111900Z 07004KT 10SM FEW025 BKN033 M20/M24 A3033 RMK SC1SC7 SC TR SLP297,CYLK,2020-12-11T19:00:00Z,62.42,-110.67,-20.0,-24.0,70,4,,10.0,30.33071,1029.7,,,,,,,,,,FEW,2500,BKN,3300,,,,,VFR,,,,,,,,,,,,SPECI,183.0
CYLJ 111900Z 07002KT 15SM OVC007 M07/M08 A3022 RMK ST8 SLP267,CYLJ,2020-12-11T19:00:00Z,54.12,-108.52,-7.0,-8.0,70,2,,15.0,30.221457,1026.7,,,,,,,,,,OVC,700,,,,,,,IFR,,,,,,,,,,,,SPECI,481.0
CYLD 111900Z 01009KT 8SM -SN OVC012 M04/M05 A3009 RMK SC8 SLP218,CYLD,2020-12-11T19:00:00Z,47.82,-83.35,-4.0,-5.0,10,9,,8.0,30.088583,1021.8,,,,,,,,,-SN,OVC,1200,,,,,,,MVFR,,,,,,,,,,,,SPECI,449.0
CYLC 111900Z 17008G16KT 15SM -SN DRSN SCT017 BKN023 M06/M10 A2949 RMK SC3SC4 SLP992,CYLC,2020-12-11T19:00:00Z,62.85,-69.87,-6.0,-10.0,170,8,16,15.0,29.489174,999.2,,,,,,,,,-SN DRSN,SCT,1700,BKN,2300,,,,,MVFR,,,,,,,,,,,,METAR,52.0
CYKY 111900Z 33007KT 290V030 15SM BKN015 OVC020 M06/M07 A3015 RMK SC5SC3 SLP261,CYKY,2020-12-11T19:00:00Z,51.52,-109.17,-6.0,-7.0,330,7,,15.0,30.15059,1026.1,,,,,,,,,,BKN,1500,OVC,2000,,,,,MVFR,,,,,,,,,,,,SPECI,692.0
CYKQ 111900Z 32009KT 2SM -SN BR SCT019 OVC032 M06/M09 A3018 RMK SF3SC4 SLP223,CYKQ,2020-12-11T19:00:00Z,51.47,-78.75,-6.0,-9.0,320,9,,2.0,30.180119,1022.3,,,,,,,,,-SN BR,SCT,1900,OVC,3200,,,,,IFR,,,,,,,,,,,,SPECI,28.0
CYKG 111900Z 27010G15KT 15SM FEW010 FEW025 BKN061 M07/M12 A2944 RMK ST1SC1SC6 ST TR SLP986,CYKG,2020-12-11T19:00:00Z,61.58,-71.92,-7.0,-12.0,270,10,15,15.0,29.438976,998.6,,,,,,,,,,FEW,1000,FEW,2500,BKN,6100,,,VFR,,,,,,,,,,,,SPECI,134.0
CYKF 111900Z AUTO 35005KT 6SM HZ CLR 08/04 A2994 RMK SLP147,CYKF,2020-12-11T19:00:00Z,43.47,-80.38,8.0,4.0,350,5,,6.0,29.940945,1014.7,,TRUE,,,,,,,HZ,CLR,,,,,,,,VFR,,,,,,,,,,,,METAR,312.0
CYKD 111900Z 32006KT 15SM FEW100 FEW230 M30/M33 A3065 RMK AC1CI1 SLP382,CYKD,2020-12-11T19:00:00Z,68.22,-135.0,-30.0,-33.0,320,6,,15.0,30.649607,1038.2,,,,,,,,,,FEW,10000,FEW,23000,,,,,VFR,,,,,,,,,,,,SPECI,7.0
CYKA 111900Z 13006KT 4SM -SN FEW006 OVC018 01/M00 A3006 RMK SF2SC6 SLP196,CYKA,2020-12-11T19:00:00Z,50.7,-120.45,1.0,0.0,130,6,,4.0,30.059055,1019.6,,,,,,,,,-SN,FEW,600,OVC,1800,,,,,MVFR,,,,,,,,,,,,SPECI,344.0
CYJT 111900Z 28007KT 15SM SCT008 OVC024 01/00 A2993 RMK SF3SC5 SLP138,CYJT,2020-12-11T19:00:00Z,48.55,-58.57,1.0,0.0,280,7,,15.0,29.929134,1013.8,,,,,,,,,,SCT,800,OVC,2400,,,,,MVFR,,,,,,,,,,,,SPECI,7.0
CYIV 111900Z 00000KT 15SM BKN030 M17/M21 A3029 RMK SC7 SLP288,CYIV,2020-12-11T19:00:00Z,53.85,-94.65,-17.0,-21.0,0,0,,15.0,30.28937,1028.8,,,,,,,,,,BKN,3000,,,,,,,MVFR,,,,,,,,,,,,SPECI,234.0
CYIO 111900Z 22010KT 15SM -SN FEW030 BKN100 OVC120 M22/M24 A2947 RMK SC1AC5CI2 SLP990,CYIO,2020-12-11T19:00:00Z,72.68,-77.97,-22.0,-24.0,220,10,,15.0,29.471457,999.0,,,,,,,,,-SN,FEW,3000,BKN,10000,OVC,12000,,,VFR,,,,,,,,,,,,SPECI,61.0
CYHZ 111900Z 28006KT 15SM FEW014 BKN150 01/M02 A3011 RMK SC1AC6 SLP206,CYHZ,2020-12-11T19:00:00Z,44.87,-63.5,1.0,-2.0,280,6,,15.0,30.109253,1020.6,,,,,,,,,,FEW,1400,BKN,15000,,,,,VFR,,,,,,,,,,,,SPECI,136.0
CYHY 111900Z 11007KT 15SM FEW008 BKN023 OVC033 M14/M16 A3021 RMK SC1SC5SC2 SLP252,CYHY,2020-12-11T19:00:00Z,60.83,-115.77,-14.0,-16.0,110,7,,15.0,30.209646,1025.2,,,,,,,,,,FEW,800,BKN,2300,OVC,3300,,,MVFR,,,,,,,,,,,,SPECI,159.0
CYHU 111900Z AUTO 17005KT 9SM OVC100 04/00 A2999 RMK SLP158,CYHU,2020-12-11T19:00:00Z,45.52,-73.42,4.0,0.0,170,5,,9.0,29.991142,1015.8,,TRUE,,,,,,,,OVC,10000,,,,,,,VFR,,,,,,,,,,,,SPECI,26.0
CYHM 111900Z VRB02KT 15SM FEW090 BKN110 BKN250 10/04 A2994 RMK AC1AC4CI2 SLP147,CYHM,2020-12-11T19:00:00Z,43.17,-79.93,10.0,4.0,0,2,,15.0,29.940945,1014.7,,,,,,,,,,FEW,9000,BKN,11000,BKN,25000,,,VFR,,,,,,,,,,,,METAR,237.0
CYHK 111900Z 27016KT 1SM IC BLSN SKC M31/M34 A3000 RMK BLSN1 SLP168,CYHK,2020-12-11T19:00:00Z,68.62,-95.85,-31.0,-34.0,270,16,,1.0,30.0,1016.8,,,,,,,,,IC BLSN,SKC,,,,,,,,IFR,,,,,,,,,,,,SPECI,36.0
CYHE 111900Z AUTO 00000KT 9SM -RA BKN014 OVC020 04/03 A3008 RMK SLP189,CYHE,2020-12-11T19:00:00Z,49.37,-121.5,4.0,3.0,0,0,,9.0,30.079725,1018.9,,TRUE,,,,,,,-RA,BKN,1400,OVC,2000,,,,,MVFR,,,,,,,,,,,,SPECI,43.0
CYHD 111900Z AUTO VRB04KT 9SM OVC014 M06/M10 A3017 RMK SLP253,CYHD,2020-12-11T19:00:00Z,49.82,-92.75,-6.0,-10.0,0,4,,9.0,30.171259,1025.3,,TRUE,,,,,,,,OVC,1400,,,,,,,MVFR,,,,,,,,,,,,SPECI,414.0
CYHA 111900Z 18016KT 15SM FEW025 BKN046 M09/M11 A2956 RMK SC2SC4 SLP014,CYHA,2020-12-11T19:00:00Z,61.03,-69.62,-9.0,-11.0,180,16,,15.0,29.56004,1001.4,,,,,,,,,,FEW,2500,BKN,4600,,,,,VFR,,,,,,,,,,,,SPECI,31.0
CYGX 111900Z 10004KT 060V140 15SM BKN029 BKN230 M15/M19 A3035 RMK SC6CI1 CI TR SLP298,CYGX,2020-12-11T19:00:00Z,56.35,-94.7,-15.0,-19.0,100,4,,15.0,30.351377,1029.8,,,,,,,,,,BKN,2900,BKN,23000,,,,,MVFR,,,,,,,,,,,,SPECI,145.0
CYGV 111900Z AUTO 27004KT 9SM BKN150 BKN170 M02/M04 A2995 RMK SLP149,CYGV,2020-12-11T19:00:00Z,50.28,-63.62,-2.0,-4.0,270,4,,9.0,29.949802,1014.9,,TRUE,,,,,,,,BKN,15000,BKN,17000,,,,,VFR,,,,,,,,,,,,SPECI,32.0
CYGT 111900Z 32025KT 5SM BLSN FEW034 SCT130 M28/M31 A2964 RMK SC1AC3 SLP046,CYGT,2020-12-11T19:00:00Z,69.37,-81.82,-28.0,-31.0,320,25,,5.0,29.639763,1004.6,,,,,,,,,BLSN,FEW,3400,SCT,13000,,,,,MVFR,,,,,,,,,,,,SPECI,49.0
CYGR 111900Z 29007KT 20SM BKN020 01/M03 A3003 RMK SC7 SLP171,CYGR,2020-12-11T19:00:00Z,47.42,-61.77,1.0,-3.0,290,7,,20.0,30.029528,1017.1,,,,,,,,,,BKN,2000,,,,,,,MVFR,,,,,,,,,,,,SPECI,4.0
CYGQ 111900Z 34007KT 320V030 6SM -SN OVC014 M08/M11 A3019 RMK SC8 SLP252,CYGQ,2020-12-11T19:00:00Z,49.77,-86.92,-8.0,-11.0,340,7,,6.0,30.188976,1025.2,,,,,,,,,-SN,OVC,1400,,,,,,,MVFR,,,,,,,,,,,,SPECI,340.0
CYGP 111900Z 27002KT 15SM FEW035 OVC100 M01/M05 A3002 RMK CU1AS8 CU TR SLP168,CYGP,2020-12-11T19:00:00Z,48.77,-64.47,-1.0,-5.0,270,2,,15.0,30.02067,1016.8,,,,,,,,,,FEW,3500,OVC,10000,,,,,VFR,,,,,,,,,,,,SPECI,31.0
CYGK 111900Z 19008KT 15SM BKN130 OVC270 07/05 A2996 RMK AC7CI1 SLP151,CYGK,2020-12-11T19:00:00Z,44.22,-76.58,7.0,5.0,190,8,,15.0,29.958662,1015.1,,,,,,,,,,BKN,13000,OVC,27000,,,,,VFR,,,,,,,,,,,,SPECI,91.0
CYGH 111900Z 04003KT 360V120 12SM -SN OVC074 M20/M23 A3052 RMK AS8 AC ASOCTD SLP350,CYGH,2020-12-11T19:00:00Z,66.23,-128.63,-20.0,-23.0,40,3,,12.0,30.519686,1035.0,,,,,,,,,-SN,OVC,7400,,,,,,,VFR,,,,,,,,,,,,SPECI,72.0
CYGE 111900Z 31008KT 290V360 20SM FEW024 BKN045 BKN180 M04/M08 A3008 RMK SC1SC5AC1 SLP225,CYGE,2020-12-11T19:00:00Z,51.3,-116.98,-4.0,-8.0,310,8,,20.0,30.079725,1022.5,,,,,,,,,,FEW,2400,BKN,4500,BKN,18000,,,VFR,,,,,,,,,,,,SPECI,786.0
CYFT 111900Z 27013KT 12SM -SN BKN014 OVC028 M04/M06 A2982 RMK ST5SC3 SLP104,CYFT,2020-12-11T19:00:00Z,55.07,-59.18,-4.0,-6.0,270,13,,12.0,29.819881,1010.4,,,,,,,,,-SN,BKN,1400,OVC,2800,,,,,MVFR,,,,,,,,,,,,SPECI,65.0
CYFO 111900Z 01003KT 15SM FEW100 M15/M16 A3024 RMK AC2 SLP273,CYFO,2020-12-11T19:00:00Z,54.67,-101.67,-15.0,-16.0,10,3,,15.0,30.239174,1027.3,,,,,,,,,,FEW,10000,,,,,,,VFR,,,,,,,,,,,,SPECI,303.0
CYFC 111900Z AUTO 18006KT 9SM BKN150 02/M04 A3008 RMK SLP192,CYFC,2020-12-11T19:00:00Z,45.87,-66.53,2.0,-4.0,180,6,,9.0,30.079725,1019.2,,TRUE,,,,,,,,BKN,15000,,,,,,,VFR,,,,,,,,,,,,SPECI,16.0
CYFB 111900Z 20010G16KT 20SM -SN DRSN BKN031 M05/M09 A2950 RMK SC7 SLP993,CYFB,2020-12-11T19:00:00Z,63.75,-68.55,-5.0,-9.0,200,10,16,20.0,29.500984,999.3,,,,,,,,,-SN DRSN,BKN,3100,,,,,,,VFR,,,,,,,,,,,,SPECI,23.0
CYEV 111900Z 08004KT 15SM FEW140 M27/M30 A3061 RMK AC2 SLP377,CYEV,2020-12-11T19:00:00Z,68.32,-133.5,-27.0,-30.0,80,4,,15.0,30.611221,1037.7,,,,,,,,,,FEW,14000,,,,,,,VFR,,,,,,,,,,,,SPECI,74.0
CYEK 111900Z 30009KT 15SM IC FEW260 M27/M31 A3041 RMK CI1 SLP300,CYEK,2020-12-11T19:00:00Z,61.1,-94.07,-27.0,-31.0,300,9,,15.0,30.410433,1030.0,,,,,,,,,IC,FEW,26000,,,,,,,VFR,,,,,,,,,,,,SPECI,7.0
CYEG 111900Z 16008KT 6SM BR FEW004 OVC006 M08/M09 A3013 RMK ST2ST6 SLP259,CYEG,2020-12-11T19:00:00Z,53.3,-113.58,-8.0,-9.0,160,8,,6.0,30.129921,1025.9,,,,,,,,,BR,FEW,400,OVC,600,,,,,IFR,,,,,,,,,,,,SPECI,710.0
CYDQ 111900Z AUTO 13007KT 9SM CLR M08/M10 A2999 RMK SLP206,CYDQ,2020-12-11T19:00:00Z,55.75,-120.18,-8.0,-10.0,130,7,,9.0,29.991142,1020.6,,TRUE,,,,,,,,CLR,,,,,,,,VFR,,,,,,,,,,,,SPECI,658.0
CYDP 111900Z 26011KT 15SM FEW032 BKN095 BKN210 M06/M11 A2978 RMK SC1AC4CI1 SLP087,CYDP,2020-12-11T19:00:00Z,56.53,-61.68,-6.0,-11.0,260,11,,15.0,29.778543,1008.7,,,,,,,,,,FEW,3200,BKN,9500,BKN,21000,,,VFR,,,,,,,,,,,,SPECI,14.0
CYDN 111900Z AUTO 26006KT 9SM OVC013 M02/ A3014 RMK TD MISG SLP226,CYDN,2020-12-11T19:00:00Z,51.1,-100.05,-2.0,,260,6,,9.0,30.138779,1022.6,,TRUE,,,,,,,,OVC,1300,,,,,,,MVFR,,,,,,,,,,,,SPECI,302.0
CYDF 111900Z 22005KT 15SM BKN023 BKN044 02/M00 A2989 RMK SC5SC2 SLP124,CYDF,2020-12-11T19:00:00Z,49.22,-57.4,2.0,0.0,220,5,,15.0,29.890747,1012.4,,,,,,,,,,BKN,2300,BKN,4400,,,,,MVFR,,,,,,,,,,,,SPECI,15.0
CYDC 111900Z 00000KT 3SM -SN FEW006 SCT029 BKN036 OVC044 M01/M01 A3001 RMK ST1SC3SC4SC1 ST TR SLP187,CYDC,2020-12-11T19:00:00Z,49.47,-120.52,-1.0,-1.0,0,0,,3.0,30.008858,1018.7,,,,,,,,,-SN,FEW,600,SCT,2900,BKN,3600,OVC,4400,MVFR,,,,,,,,,,,,SPECI,703.0
CYDB 111900Z AUTO 25002KT 9SM OVC004 M21/M24 A3005 RMK SLP260,CYDB,2020-12-11T19:00:00Z,61.37,-139.02,-21.0,-24.0,250,2,,9.0,30.050198,1026.0,,TRUE,,,,,,,,OVC,400,,,,,,,LIFR,,,,,,,,,,,,SPECI,807.0
CYDA 111900Z 00000KT 20SM FEW055 M28/M31 A3022 RMK SC1 SC TR SLP279,CYDA,2020-12-11T19:00:00Z,64.03,-139.12,-28.0,-31.0,0,0,,20.0,30.221457,1027.9,,,,,,,,,,FEW,5500,,,,,,,VFR,,,,,,,,,,,,SPECI,338.0
CYCX 111900Z 20004KT 15SM BKN130 01/M04 A3010 RMK AC7 DA-1616FT SLP195,CYCX,2020-12-11T19:00:00Z,45.83,-66.45,1.0,-4.0,200,4,,15.0,30.100393,1019.5,,,,,,,,,,BKN,13000,,,,,,,VFR,,,,,,,,,,,,SPECI,46.0
CYCQ 111900Z 23008KT 35SM FEW040 FEW110 FEW230 M07/M09 A3000 RMK SC1AC1CI1 SC TR AC TR CI TR GND FROST DIST FU VLY S+W SLP206,CYCQ,2020-12-11T19:00:00Z,55.7,-121.62,-7.0,-9.0,230,8,,35.0,30.0,1020.6,,,,,,,,,,FEW,4000,FEW,11000,FEW,23000,,,VFR,,,,,,,,,,,,SPECI,614.0
CYCP 111900Z VRB02KT 15SM FEW025 FEW065 BKN140 BKN210 M04/M06 A3006 RMK SC1CU1AC4CI1 SLP221,CYCP,2020-12-11T19:00:00Z,52.13,-119.28,-4.0,-6.0,0,2,,15.0,30.059055,1022.1,,,,,,,,,,FEW,2500,FEW,6500,BKN,14000,BKN,21000,VFR,,,,,,,,,,,,SPECI,677.0
CYCO 111900Z 25019KT 5SM BR DRSN FEW025 M29/M32 A3051 RMK SC1 SLP336,CYCO,2020-12-11T19:00:00Z,67.82,-115.15,-29.0,-32.0,250,19,,5.0,30.510826,1033.6,,,,,,,,,BR DRSN,FEW,2500,,,,,,,MVFR,,,,,,,,,,,,SPECI,20.0
CYCK 111900Z AUTO 36005KT 340V040 9SM CLR 09/05 A2994 RMK SLP145,CYCK,2020-12-11T19:00:00Z,42.3,-82.08,9.0,5.0,360,5,,9.0,29.940945,1014.5,,TRUE,,,,,,,,CLR,,,,,,,,VFR,,,,,,,,,,,,METAR,196.0
CYCG 111900Z 35005KT 15SM VCSH FEW020 SCT065 BKN180 OVC220 01/M02 A3006 RMK CF1SC4AC2CI1 CF TR SLP202,CYCG,2020-12-11T19:00:00Z,49.28,-117.63,1.0,-2.0,350,5,,15.0,30.059055,1020.2,,,,,,,,,VCSH,FEW,2000,SCT,6500,BKN,18000,OVC,22000,VFR,,,,,,,,,,,,SPECI,487.0
CYCD 111900Z VRB02KT 15SM FEW026 BKN053 BKN130 04/04 A3006 RMK CU2SC3AC2 SLP183,CYCD,2020-12-11T19:00:00Z,49.05,-123.87,4.0,4.0,0,2,,15.0,30.059055,1018.3,,,,,,,,,,FEW,2600,BKN,5300,BKN,13000,,,VFR,,,,,,,,,,,,SPECI,30.0
CYCB 111900Z 27012KT 2 1/2SM IC DRSN FEW016 M29/M32 A3018 RMK SC2 SLP227,CYCB,2020-12-11T19:00:00Z,69.1,-105.12,-29.0,-32.0,270,12,,2.5,30.180119,1022.7,,,,,,,,,IC DRSN,FEW,1600,,,,,,,IFR,,,,,,,,,,,,SPECI,19.0
CYBX 111900Z 25004KT 15SM FEW015 BKN110 M00/M01 A2986 RMK SC2AC5 SLP114,CYBX,2020-12-11T19:00:00Z,51.45,-57.18,0.0,-1.0,250,4,,15.0,29.861221,1011.4,,,,,,,,,,FEW,1500,BKN,11000,,,,,VFR,,,,,,,,,,,,SPECI,32.0
CYBN 111900Z AUTO 36004KT 340V040 7SM OVC020 06/03 A2995 RMK SLP151,CYBN,2020-12-11T19:00:00Z,44.27,-79.92,6.0,3.0,360,4,,7.0,29.949802,1015.1,,TRUE,,,,,,,,OVC,2000,,,,,,,MVFR,,,,,,,,,,,,SPECI,223.0
CYBK 111900Z 28020KT 20SM IC DRSN FEW013 M32/M36 A3030 RMK SC2 SLP264,CYBK,2020-12-11T19:00:00Z,64.3,-96.07,-32.0,-36.0,280,20,,20.0,30.301182,1026.4,,,,,,,,,IC DRSN,FEW,1300,,,,,,,VFR,,,,,,,,,,,,SPECI,14.0
CYBG 111900Z 09003KT 3SM -SN SCT018 OVC030 M02/M03 A2996 RMK SC4SC4 VIS VRB 2-4 SLP156,CYBG,2020-12-11T19:00:00Z,48.33,-70.98,-2.0,-3.0,90,3,,3.0,29.958662,1015.6,,,,,,,,,-SN,SCT,1800,OVC,3000,,,,,MVFR,,,,,,,,,,,,SPECI,151.0
CYBD 111900Z 00000KT 15SM MIFG FEW055 M01/M02 A3014 RMK SC2 MIFG E AND W FROIN SLP210,CYBD,2020-12-11T19:00:00Z,52.38,-126.58,-1.0,-2.0,0,0,,15.0,30.138779,1021.0,,,,,,,,,MIFG,FEW,5500,,,,,,,VFR,,,,,,,,,,,,SPECI,40.0
CYBC 111900Z AUTO 25003KT 3SM -SN OVC022 M02/M02 A2999 RMK SLP156,CYBC,2020-12-11T19:00:00Z,49.13,-68.2,-2.0,-2.0,250,3,,3.0,29.991142,1015.6,,TRUE,,,,,,,-SN,OVC,2200,,,,,,,MVFR,,,,,,,,,,,,SPECI,20.0
CYBB 111900Z 25012G20KT 2SM IC HZ DRSN VCBLSN FEW020 M30/M34 A2992 RMK HZ2SC1 SC TR SLP137,CYBB,2020-12-11T19:00:00Z,68.53,-89.78,-30.0,-34.0,250,12,20,2.0,29.920275,1013.7,,,,,,,,,IC HZ DRSN VCBLS,FEW,2000,,,,,,,IFR,,,,,,,,,,,,SPECI,13.0
CYAZ 111900Z 08004KT 15SM FEW042 SCT200 06/05 A3005 RMK SC2CI2 SLP179,CYAZ,2020-12-11T19:00:00Z,49.08,-125.77,6.0,5.0,80,4,,15.0,30.050198,1017.9,,,,,,,,,,FEW,4200,SCT,20000,,,,,VFR,,,,,,,,,,,,SPECI,26.0
CYAW 111900Z 26009G16KT 15SM FEW027 BKN150 BKN250 03/M03 A3014 RMK SC1AC6CI1 DA-1465FT LAST OBS/NEXT 141000 UTC SLP207,CYAW,2020-12-11T19:00:00Z,44.63,-63.5,3.0,-3.0,260,9,16,15.0,30.138779,1020.7,,,,,,,,,,FEW,2700,BKN,15000,BKN,25000,,,VFR,,,,,,,,,,,,METAR,50.0
CYAT 111900Z AUTO 29009KT 9SM -SN OVC018 M12/M14 A3028 RMK SLP255,CYAT,2020-12-11T19:00:00Z,52.93,-82.43,-12.0,-14.0,290,9,,9.0,30.280512,1025.5,,TRUE,,,,,,,-SN,OVC,1800,,,,,,,MVFR,,,,,,,,,,,,METAR,4.0
CYAS 111900Z 26013KT 13SM -SN DRSN OVC011 M07/M09 A2959 RMK ST8 SLP034,CYAS,2020-12-11T19:00:00Z,60.02,-70.0,-7.0,-9.0,260,13,,13.0,29.589567,1003.4,,,,,,,,,-SN DRSN,OVC,1100,,,,,,,MVFR,,,,,,,,,,,,SPECI,99.0
CYAM 111900Z 33006KT 25SM FEW017 BKN028 BKN220 03/M03 A3008 RMK CU1CU6CS1 CU TR SLP195,CYAM,2020-12-11T19:00:00Z,46.48,-84.52,3.0,-3.0,330,6,,25.0,30.079725,1019.5,,,,,,,,,,FEW,1700,BKN,2800,BKN,22000,,,MVFR,,,,,,,,,,,,SPECI,186.0
CYAB 111900Z 00000KT 25SM -SN FEW005 FEW015 FEW022 BKN033 M27/M30 A2958 RMK SC1SC1SC1SC6 SC TR SC TR SLP021,CYAB,2020-12-11T19:00:00Z,73.0,-85.02,-27.0,-30.0,0,0,,25.0,29.58071,1002.1,,,,,,,,,-SN,FEW,500,FEW,1500,FEW,2200,BKN,3300,VFR,,,,,,,,,,,,METAR,36.0
CXZV 111900Z AUTO 29002KT M02/M07 RMK AO1 SOG 25 6009 SLP156 T10161074,CXZV,2020-12-11T19:00:00Z,50.22,-66.25,-1.6,-7.4,290,2,,,,1015.6,,TRUE,TRUE,,,,,,,,,,,,,,,,,,,,,,,,,,,METAR,43.0
CXZC 111900Z AUTO 30005KT M09/M11 RMK AO1 2PAST HR SOG 23 3013 SLP248 P0001 T10891110 50002,CXZC,2020-12-11T19:00:00Z,51.3,-80.62,-8.9,-11.0,300,5,,,,1024.8,,TRUE,TRUE,,,,,,,,,,,,,,,,0.2,,,,,0.01,,,,,,METAR,8.0
CXYH 111900Z AUTO 36002KT M14/M16 RMK AO1 SLP213 T11351164 53009,CXYH,2020-12-11T19:00:00Z,61.25,-123.75,-13.5,-16.4,360,2,,,,1021.3,,TRUE,TRUE,,,,,,,,,,,,,,,,0.9,,,,,,,,,,,METAR,197.0
CXWN 111900Z AUTO 25001KT M04/M07 RMK AO1 SLP247 T10441070 57009,CXWN,2020-12-11T19:00:00Z,49.88,-97.13,-4.4,-7.0,250,1,,,,1024.7,,TRUE,TRUE,,,,,,,,,,,,,,,,-0.9,,,,,,,,,,,METAR,232.0
CXWM 111900Z AUTO 06003KT M06/M07 RMK AO1 T10641071,CXWM,2020-12-11T19:00:00Z,49.5,-112.12,-6.4,-7.1,60,3,,,,,,TRUE,TRUE,,,,,,,,,,,,,,,,,,,,,,,,,,,METAR,947.0
CXWB 111900Z AUTO 30014KT M30/M34 RMK AO1 PK WND 29023/1840 SLP197 T13001335 51016,CXWB,2020-12-11T19:00:00Z,65.88,-89.45,-30.0,-33.5,300,14,,,,1019.7,,TRUE,TRUE,,,,,,,,,,,,,,,,1.6,,,,,,,,,,,METAR,14.0
CXVW 111900Z AUTO 18009KT M09/M10 RMK AO1 T10861102,CXVW,2020-12-11T19:00:00Z,55.1,-117.2,-8.6,-10.2,180,9,,,,,,TRUE,TRUE,,,,,,,,,,,,,,,,,,,,,,,,,,,METAR,696.0
CXVN 111900Z AUTO 35003KT 08/03 RMK AO1 SLP148 T00810027 58002,CXVN,2020-12-11T19:00:00Z,43.18,-79.4,8.1,2.7,350,3,,,,1014.8,,TRUE,TRUE,,,,,,,,,,,,,,,,-0.2,,,,,,,,,,,METAR,86.0
CXVM 111900Z AUTO 15003KT M08/M08 RMK AO1 T10831084,CXVM,2020-12-11T19:00:00Z,53.35,-110.88,-8.3,-8.4,150,3,,,,,,TRUE,TRUE,,,,,,,,,,,,,,,,,,,,,,,,,,,METAR,622.0
CXTV 111900Z AUTO 31003KT M33/M36 RMK AO1 2PAST HR SOG 16 1018 SLP382 P0001 T13291360 50002,CXTV,2020-12-11T19:00:00Z,68.75,-133.5,-32.9,-36.0,310,3,,,,1038.2,,TRUE,TRUE,,,,,,,,,,,,,,,,0.2,,,,,0.01,,,,,,METAR,91.0
CXTP 111900Z AUTO 32005KT 01/01 RMK AO1 SOG 02 3021 SLP078 T00090007,CXTP,2020-12-11T19:00:00Z,48.55,-53.97,0.9,0.7,320,5,,,,1007.8,,TRUE,TRUE,,,,,,,,,,,,,,,,,,,,,,,,,,,METAR,104.0
CXTO 111900Z AUTO 09/03 RMK AO1 SLP146 T00910026 58009,CXTO,2020-12-11T19:00:00Z,43.67,-79.4,9.1,2.6,,,,,,1014.6,,TRUE,TRUE,,,,,,,,,,,,,,,,-0.9,,,,,,,,,,,METAR,115.0
CXTN 111900Z AUTO 00007KT M34/M37 RMK AO1 SOG 114 2006 SLP378 T13391371,CXTN,2020-12-11T19:00:00Z,69.2,-122.35,-33.9,-37.1,0,7,,,,1037.8,,TRUE,TRUE,,,,,,,,,,,,,,,,,,,,,,,,,,,METAR,564.0
CXTH 111900Z AUTO 15003KT M11/M11 RMK AO1 T11101111,CXTH,2020-12-11T19:00:00Z,53.63,-111.68,-11.0,-11.1,150,3,,,,,,TRUE,TRUE,,,,,,,,,,,,,,,,,,,,,,,,,,,METAR,679.0
CXTD 111900Z AUTO 26006KT 00/M04 RMK AO1 SLP203 T00001035 53007,CXTD,2020-12-11T19:00:00Z,45.62,-61.68,0.0,-3.5,260,6,,,,1020.3,,TRUE,TRUE,,,,,,,,,,,,,,,,0.7,,,,,,,,,,,METAR,58.0
CXSP 111900Z AUTO 18001KT M08/M08 RMK AO1 T10771081,CXSP,2020-12-11T19:00:00Z,54.02,-111.27,-7.7,-8.1,180,1,,,,,,TRUE,TRUE,,,,,,,,,,,,,,,,,,,,,,,,,,,METAR,652.0
CXSL 111900Z AUTO 14003KT M10/M11 RMK AO1 T11031114,CXSL,2020-12-11T19:00:00Z,54.28,-112.5,-10.3,-11.4,140,3,,,,,,TRUE,TRUE,,,,,,,,,,,,,,,,,,,,,,,,,,,METAR,680.0
CXSH 111900Z AUTO 05002KT M00/M02 RMK AO1 SLP161 T10031023 55010,CXSH,2020-12-11T19:00:00Z,46.55,-72.73,-0.3,-2.3,50,2,,,,1016.1,,TRUE,TRUE,,,,,,,,,,,,,,,,-1.0,,,,,,,,,,,METAR,106.0
CXSE 111900Z AUTO 33021G26KT M21/M23 RMK AO1 SOG 39 8014 PK WND 33029/1849 SLP121 T12131234,CXSE,2020-12-11T19:00:00Z,73.77,-105.28,-21.3,-23.4,330,21,26,,,1012.1,,TRUE,TRUE,,,,,,,,,,,,,,,,,,,,,,,,,,,METAR,11.0
CXSC 111900Z AUTO 01001KT M06/M06 RMK AO1 5PAST HR M P0002 T10601060 50005,CXSC,2020-12-11T19:00:00Z,50.3,-110.08,-6.0,-6.0,10,1,,,,,,TRUE,TRUE,,,,,,,,,,,,,,,,0.5,,,,,0.02,,,,,,METAR,809.0
CXRL 111900Z AUTO 06003KT M08/M09 RMK AO1 T10831086,CXRL,2020-12-11T19:00:00Z,54.5,-111.7,-8.3,-8.6,60,3,,,,,,TRUE,TRUE,,,,,,,,,,,,,,,,,,,,,,,,,,,METAR,585.0
CXRH 111900Z AUTO 30003KT 01/M00 RMK AO1 T00081003,CXRH,2020-12-11T19:00:00Z,49.57,-57.88,0.8,-0.3,300,3,,,,,,TRUE,TRUE,,,,,,,,,,,,,,,,,,,,,,,,,,,METAR,68.0
CXRB 111900Z AUTO 01012KT M26/M29 RMK AO1 SOG 09 6006 PK WND 03020/1813 SLP031 T12621291,CXRB,2020-12-11T19:00:00Z,74.72,-94.98,-26.2,-29.1,10,12,,,,1003.1,,TRUE,TRUE,,,,,,,,,,,,,,,,,,,,,,,,,,,METAR,30.0
CXPL 111900Z AUTO 15002KT M06/M06 RMK AO1 T10571057,CXPL,2020-12-11T19:00:00Z,51.13,-111.7,-5.7,-5.7,150,2,,,,,,TRUE,TRUE,,,,,,,,,,,,,,,,,,,,,,,,,,,METAR,735.0
CXPC 111900Z AUTO 04/02 RMK AO1 SLP149 T00390016 53006,CXPC,2020-12-11T19:00:00Z,45.35,-80.05,3.9,1.6,,,,,,1014.9,,TRUE,TRUE,,,,,,,,,,,,,,,,0.6,,,,,,,,,,,METAR,176.0
CXPA 111900Z AUTO 12002KT M09/M09 RMK AO1 5PAST HR M P0002 T10861086 50005,CXPA,2020-12-11T19:00:00Z,55.62,-118.3,-8.6,-8.6,120,2,,,,,,TRUE,TRUE,,,,,,,,,,,,,,,,0.5,,,,,0.02,,,,,,METAR,628.0
CXOY 111900Z AUTO 13003KT M05/M06 RMK AO1 T10481055,CXOY,2020-12-11T19:00:00Z,51.35,-110.35,-4.8,-5.5,130,3,,,,,,TRUE,TRUE,,,,,,,,,,,,,,,,,,,,,,,,,,,METAR,784.0
CXOX 111900Z AUTO 36001KT M08/M09 RMK AO1 SOG 23 0004 SLP266 T10751086,CXOX,2020-12-11T19:00:00Z,55.15,-105.27,-7.5,-8.6,360,1,,,,1026.6,,TRUE,TRUE,,,,,,,,,,,,,,,,,,,,,,,,,,,METAR,381.0
CXOL 111900Z AUTO 14010KT M07/M07 RMK AO1 T10741074,CXOL,2020-12-11T19:00:00Z,51.77,-114.08,-7.4,-7.4,140,10,,,,,,TRUE,TRUE,,,,,,,,,,,,,,,,,,,,,,,,,,,METAR,1026.0
CXNP 111900Z AUTO 23008KT 02/M03 RMK AO1 SLP200 T00171028 53002,CXNP,2020-12-11T19:00:00Z,45.75,-64.23,1.7,-2.8,230,8,,,,1020.0,,TRUE,TRUE,,,,,,,,,,,,,,,,0.2,,,,,,,,,,,METAR,19.0
CXNM 111900Z AUTO 28013G18KT M03/M03 RMK AO1 SOG 17 PK WND 29022/1831 T10271026,CXNM,2020-12-11T19:00:00Z,46.82,-60.67,-2.7,-2.6,280,13,18,,,,,TRUE,TRUE,,,,,,,,,,,,,,,,,,,,,,,,,,,METAR,452.0
CXMY 111900Z AUTO 01/M03 RMK AO1 T00101029,CXMY,2020-12-11T19:00:00Z,44.98,-62.48,1.0,-2.9,,,,,,,,TRUE,TRUE,,,,,,,,,,,,,,,,,,,,,,,,,,,METAR,37.0
CXMO 111900Z AUTO 18005KT M07/M07 RMK AO1 T10711071,CXMO,2020-12-11T19:00:00Z,51.67,-112.68,-7.1,-7.1,180,5,,,,,,TRUE,TRUE,,,,,,,,,,,,,,,,,,,,,,,,,,,METAR,837.0
CXMM 111900Z AUTO 00014KT M08/M10 RMK AO1 SOG 03 8009 SLP254 T10791104,CXMM,2020-12-11T19:00:00Z,56.65,-111.22,-7.9,-10.4,0,14,,,,1025.4,,TRUE,TRUE,,,,,,,,,,,,,,,,,,,,,,,,,,,METAR,372.0
CXMI 111900Z AUTO 28005KT 04/M02 RMK AO1 SLP200 T00361022 55003,CXMI,2020-12-11T19:00:00Z,44.6,-63.53,3.6,-2.2,280,5,,,,1020.0,,TRUE,TRUE,,,,,,,,,,,,,,,,-0.3,,,,,,,,,,,METAR,15.0
CXMG 111900Z AUTO 13003KT M10/M10 RMK AO1 T10991103,CXMG,2020-12-11T19:00:00Z,56.97,-117.45,-9.9,-10.3,130,3,,,,,,TRUE,TRUE,,,,,,,,,,,,,,,,,,,,,,,,,,,METAR,467.0
CXMD 111900Z AUTO 17005KT M02/M05 RMK AO1 SLP240 T10221052 58010,CXMD,2020-12-11T19:00:00Z,49.18,-98.08,-2.2,-5.2,170,5,,,,1024.0,,TRUE,TRUE,,,,,,,,,,,,,,,,-1.0,,,,,,,,,,,METAR,297.0
CXLL 111900Z AUTO 03006KT M14/M16 RMK AO1 4PAST HR SOG 33 3007 SLP218 P0002 T11381161 50004,CXLL,2020-12-11T19:00:00Z,61.12,-122.85,-13.8,-16.1,30,6,,,,1021.8,,TRUE,TRUE,,,,,,,,,,,,,,,,0.4,,,,,0.02,,,,,,METAR,180.0
CXLB 111900Z AUTO 25010KT 05/M02 RMK AO1 SLP198 T00471019 56006,CXLB,2020-12-11T19:00:00Z,44.37,-64.3,4.7,-1.9,250,10,,,,1019.8,,TRUE,TRUE,,,,,,,,,,,,,,,,-0.6,,,,,,,,,,,METAR,4.0
CXKT 111900Z AUTO 26008KT 03/M02 RMK AO1 SLP202 T00261023 55003,CXKT,2020-12-11T19:00:00Z,45.07,-64.48,2.6,-2.3,260,8,,,,1020.2,,TRUE,TRUE,,,,,,,,,,,,,,,,-0.3,,,,,,,,,,,METAR,48.0
CXKM 111900Z AUTO 13001KT M13/M14 RMK AO1 T11271140,CXKM,2020-12-11T19:00:00Z,52.83,-111.87,-12.7,-14.0,130,1,,,,,,TRUE,TRUE,,,,,,,,,,,,,,,,,,,,,,,,,,,METAR,679.0
CXKI 111900Z AUTO M04/M05 RMK AO1 SOG 15 3014 SLP204 T10381046,CXKI,2020-12-11T19:00:00Z,48.13,-80.0,-3.8,-4.6,,,,,,1020.4,,TRUE,TRUE,,,,,,,,,,,,,,,,,,,,,,,,,,,METAR,328.0
CXKE 111900Z AUTO 24002KT 06/01 RMK AO1 SLP150 T00600012 55000,CXKE,2020-12-11T19:00:00Z,45.0,-75.63,6.0,1.2,240,2,,,,1015.0,,TRUE,TRUE,,,,,,,,,,,,,,,,0.0,,,,,,,,,,,METAR,99.0
CXKA 111900Z AUTO 35006KT M10/M13 RMK AO1 SOG 12 3009 SLP244 T11041132,CXKA,2020-12-11T19:00:00Z,49.4,-82.45,-10.4,-13.2,350,6,,,,1024.4,,TRUE,TRUE,,,,,,,,,,,,,,,,,,,,,,,,,,,METAR,221.0
CXIB 111900Z AUTO 26002KT 03/M01 RMK AO1 SLP175 T00261007 53013,CXIB,2020-12-11T19:00:00Z,46.67,-60.4,2.6,-0.7,260,2,,,,1017.5,,TRUE,TRUE,,,,,,,,,,,,,,,,1.3,,,,,,,,,,,METAR,6.0
CXHR 111900Z AUTO 14005KT M08/M08 RMK AO1 T10801080,CXHR,2020-12-11T19:00:00Z,51.18,-112.5,-8.0,-8.0,140,5,,,,,,TRUE,TRUE,,,,,,,,,,,,,,,,,,,,,,,,,,,METAR,975.0
CXHP 111900Z AUTO 08002KT M09/M10 RMK AO1 T10931104,CXHP,2020-12-11T19:00:00Z,55.4,-116.48,-9.3,-10.4,80,2,,,,,,TRUE,TRUE,,,,,,,,,,,,,,,,,,,,,,,,,,,METAR,601.0
CXHM 111900Z AUTO 18002KT 10/04 RMK AO1 SLP146 T00980044 57005,CXHM,2020-12-11T19:00:00Z,43.28,-79.9,9.8,4.4,180,2,,,,1014.6,,TRUE,TRUE,,,,,,,,,,,,,,,,-0.5,,,,,,,,,,,METAR,105.0
CXHF 111900Z AUTO 02/M00 RMK AO1 T00171001,CXHF,2020-12-11T19:00:00Z,45.83,-75.65,1.7,-0.1,,,,,,,,TRUE,TRUE,,,,,,,,,,,,,,,,,,,,,,,,,,,METAR,185.0
CXHD 111900Z AUTO 14002KT M12/M14 RMK AO1 T11151138,CXHD,2020-12-11T19:00:00Z,53.18,-112.25,-11.5,-13.8,140,2,,,,,,TRUE,TRUE,,,,,,,,,,,,,,,,,,,,,,,,,,,METAR,688.0
CXHA 111900Z AUTO 02006KT 09/04 RMK AO1 SLP141 T00920043 58012,CXHA,2020-12-11T19:00:00Z,42.03,-82.9,9.2,4.3,20,6,,,,1014.1,,TRUE,TRUE,,,,,,,,,,,,,,,,-1.2,,,,,,,,,,,METAR,193.0
CXGH 111900Z AUTO 12007KT M07/M08 RMK AO1 SLP240 T10731084 58009,CXGH,2020-12-11T19:00:00Z,50.63,-97.0,-7.3,-8.4,120,7,,,,1024.0,,TRUE,TRUE,,,,,,,,,,,,,,,,-0.9,,,,,,,,,,,METAR,217.0
CXFR 111900Z AUTO 09005KT M11/M11 RMK AO1 T11061110,CXFR,2020-12-11T19:00:00Z,56.08,-118.43,-10.6,-11.0,90,5,,,,,,TRUE,TRUE,,,,,,,,,,,,,,,,,,,,,,,,,,,METAR,657.0
CXFM 111900Z AUTO 01005KT M06/M06 RMK AO1 T10571063,CXFM,2020-12-11T19:00:00Z,49.48,-111.48,-5.7,-6.3,10,5,,,,,,TRUE,TRUE,,,,,,,,,,,,,,,,,,,,,,,,,,,METAR,884.0
CXET 111900Z AUTO 35005KT 06/02 RMK AO1 SOG 06 1005 SLP157 T00600023,CXET,2020-12-11T19:00:00Z,44.23,-79.78,6.0,2.3,350,5,,,,1015.7,,TRUE,TRUE,,,,,,,,,,,,,,,,,,,,,,,,,,,METAR,250.0
CXEG 111900Z AUTO 17007KT M08/M10 RMK AO1 SOG 18 8007 SLP258 T10831096,CXEG,2020-12-11T19:00:00Z,53.3,-113.6,-8.3,-9.6,170,7,,,,1025.8,,TRUE,TRUE,,,,,,,,,,,,,,,,,,,,,,,,,,,METAR,706.0
CXEC 111900Z AUTO 18006KT M08/M09 RMK AO1 SOG 14 8004 SLP253 T10821093,CXEC,2020-12-11T19:00:00Z,53.57,-113.52,-8.2,-9.3,180,6,,,,1025.3,,TRUE,TRUE,,,,,,,,,,,,,,,,,,,,,,,,,,,METAR,666.0
CXEA 111900Z AUTO 03002KT M06/M11 RMK AO1 SOG 08 8001 SLP241 T10591109,CXEA,2020-12-11T19:00:00Z,50.63,-93.22,-5.9,-10.9,30,2,,,,1024.1,,TRUE,TRUE,,,,,,,,,,,,,,,,,,,,,,,,,,,METAR,351.0
CXDW 111900Z AUTO 19008KT M03/M05 RMK AO1 SLP240 T10291050 58010,CXDW,2020-12-11T19:00:00Z,49.4,-98.32,-2.9,-5.0,190,8,,,,1024.0,,TRUE,TRUE,,,,,,,,,,,,,,,,-1.0,,,,,,,,,,,METAR,341.0
CXDP 111900Z AUTO 09005KT M11/M11 RMK AO1 T11061113,CXDP,2020-12-11T19:00:00Z,54.32,-113.92,-10.6,-11.3,90,5,,,,,,TRUE,TRUE,,,,,,,,,,,,,,,,,,,,,,,,,,,METAR,613.0
CXDK 111900Z AUTO 11008KT M15/M18 RMK AO1 SOG 22 3008 SLP212 T11471179,CXDK,2020-12-11T19:00:00Z,61.27,-124.47,-14.7,-17.9,110,8,,,,1021.2,,TRUE,TRUE,,,,,,,,,,,,,,,,,,,,,,,,,,,METAR,269.0
CXDI 111900Z AUTO 35003KT 09/04 RMK AO1 SLP150 T00930043 58008,CXDI,2020-12-11T19:00:00Z,42.87,-80.55,9.3,4.3,350,3,,,,1015.0,,TRUE,TRUE,,,,,,,,,,,,,,,,-0.8,,,,,,,,,,,METAR,234.0
CXDE 111900Z AUTO 31002KT M19/M22 RMK AO1 2PAST HR SOG 27 1018 SLP321 P0001 T11921219 50002,CXDE,2020-12-11T19:00:00Z,65.22,-123.43,-19.2,-21.9,310,2,,,,1032.1,,TRUE,TRUE,,,,,,,,,,,,,,,,0.2,,,,,0.01,,,,,,METAR,208.0
CXDB 111900Z AUTO 23003KT M09/M09 RMK AO1 T10861088,CXDB,2020-12-11T19:00:00Z,49.05,-112.82,-8.6,-8.8,230,3,,,,,,TRUE,TRUE,,,,,,,,,,,,,,,,,,,,,,,,,,,METAR,1311.0
CXCS 111900Z AUTO 32004KT M07/M08 RMK AO1 T10701075,CXCS,2020-12-11T19:00:00Z,51.93,-110.72,-7.0,-7.5,320,4,,,,,,TRUE,TRUE,,,,,,,,,,,,,,,,,,,,,,,,,,,METAR,771.0
CXCP 111900Z AUTO 09005KT M07/M07 RMK AO1 T10721073,CXCP,2020-12-11T19:00:00Z,50.28,-113.35,-7.2,-7.3,90,5,,,,,,TRUE,TRUE,,,,,,,,,,,,,,,,,,,,,,,,,,,METAR,999.0
CXCK 111900Z AUTO 00000KT M15/M17 RMK AO1 SOG 25 3013 SLP251 T11511170,CXCK,2020-12-11T19:00:00Z,62.12,-136.2,-15.1,-17.0,0,0,,,,1025.1,,TRUE,TRUE,,,,,,,,,,,,,,,,,,,,,,,,,,,METAR,526.0
CXCD 111900Z AUTO 08003KT M10/M11 RMK AO1 T11041111,CXCD,2020-12-11T19:00:00Z,56.32,-119.75,-10.4,-11.1,80,3,,,,,,TRUE,TRUE,,,,,,,,,,,,,,,,,,,,,,,,,,,METAR,628.0
CXCA 111900Z AUTO 33005KT M05/M09 RMK AO1 SOG 09 8004 SLP241 T10451086,CXCA,2020-12-11T19:00:00Z,49.15,-88.35,-4.5,-8.6,330,5,,,,1024.1,,TRUE,TRUE,,,,,,,,,,,,,,,,,,,,,,,,,,,METAR,228.0
CXBW 111900Z AUTO 03002KT M07/M07 RMK AO1 T10661066,CXBW,2020-12-11T19:00:00Z,49.8,-112.3,-6.6,-6.6,30,2,,,,,,TRUE,TRUE,,,,,,,,,,,,,,,,,,,,,,,,,,,METAR,823.0
CXBR 111900Z AUTO 16001KT M07/M07 RMK AO1 T10711071,CXBR,2020-12-11T19:00:00Z,49.62,-113.82,-7.1,-7.1,160,1,,,,,,TRUE,TRUE,,,,,,,,,,,,,,,,,,,,,,,,,,,METAR,1137.0
CXBO 111900Z AUTO 22002KT 01/M03 RMK AO1 T00061032,CXBO,2020-12-11T19:00:00Z,46.83,-71.2,0.6,-3.2,220,2,,,,,,TRUE,TRUE,,,,,,,,,,,,,,,,,,,,,,,,,,,METAR,8.0
CXBK 111900Z AUTO 31003KT M06/M07 RMK AO1 SLP234 T10621070 50000,CXBK,2020-12-11T19:00:00Z,50.2,-104.7,-6.2,-7.0,310,3,,,,1023.4,,TRUE,TRUE,,,,,,,,,,,,,,,,0.0,,,,,,,,,,,METAR,585.0
CXBI 111900Z AUTO 35005KT 05/02 RMK AO1 SOG 06 1006 SLP157 T00480020,CXBI,2020-12-11T19:00:00Z,44.48,-79.55,4.8,2.0,350,5,,,,1015.7,,TRUE,TRUE,,,,,,,,,,,,,,,,,,,,,,,,,,,METAR,287.0
CXBA 111900Z AUTO 35002KT M07/M07 RMK AO1 T10691069,CXBA,2020-12-11T19:00:00Z,52.12,-110.1,-6.9,-6.9,350,2,,,,,,TRUE,TRUE,,,,,,,,,,,,,,,,,,,,,,,,,,,METAR,696.0
CXAT 111900Z AUTO 32001KT M27/M30 RMK AO1 SOG 02 6002 SLP025 T12671298,CXAT,2020-12-11T19:00:00Z,73.0,-85.03,-26.7,-29.8,320,1,,,,1002.5,,TRUE,TRUE,,,,,,,,,,,,,,,,,,,,,,,,,,,METAR,10.0
CXAK 111900Z AUTO 17005KT M07/M07 RMK AO1 T10691070,CXAK,2020-12-11T19:00:00Z,52.35,-112.6,-6.9,-7.0,170,5,,,,,,TRUE,TRUE,,,,,,,,,,,,,,,,,,,,,,,,,,,METAR,799.0
CXAJ 111900Z AUTO 00000KT M09/M10 RMK AO1 SOG 10 T10941095,CXAJ,2020-12-11T19:00:00Z,54.78,-112.82,-9.4,-9.5,0,0,,,,,,TRUE,TRUE,,,,,,,,,,,,,,,,,,,,,,,,,,,METAR,586.0
CXAG 111900Z AUTO 15003KT M11/M12 RMK AO1 T11141124,CXAG,2020-12-11T19:00:00Z,53.92,-112.28,-11.4,-12.4,150,3,,,,,,TRUE,TRUE,,,,,,,,,,,,,,,,,,,,,,,,,,,METAR,632.0
CXAF 111900Z AUTO 11002KT M12/M12 RMK AO1 T11181121,CXAF,2020-12-11T19:00:00Z,54.28,-112.97,-11.8,-12.1,110,2,,,,,,TRUE,TRUE,,,,,,,,,,,,,,,,,,,,,,,,,,,METAR,667.0
CWZW 111900Z AUTO 08002KT M18/M21 RMK AO1 SOG 39 2016 SLP236 T11811214,CWZW,2020-12-11T19:00:00Z,60.17,-132.73,-18.1,-21.4,80,2,,,,1023.6,,TRUE,TRUE,,,,,,,,,,,,,,,,,,,,,,,,,,,METAR,683.0
CWZO 111900Z AUTO 18011KT RMK AO1,CWZO,2020-12-11T19:00:00Z,48.57,-123.25,,,180,11,,,,,,TRUE,TRUE,,,,,,,,,,,,,,,,,,,,,,,,,,,METAR,5.0
CWZL 111900Z AUTO 27008KT 04/ RMK AO1 SLP199 T0039 53018,CWZL,2020-12-11T19:00:00Z,53.03,-131.6,3.9,,270,8,,,,1019.9,,TRUE,TRUE,,,,,,,,,,,,,,,,1.8,,,,,,,,,,,METAR,17.0
CWZG 111900Z AUTO 22005KT M09/M12 RMK AO1 SOG 01 8001 SLP229 T10901120,CWZG,2020-12-11T19:00:00Z,51.2,-115.55,-9.0,-12.0,220,5,,,,1022.9,,TRUE,TRUE,,,,,,,,,,,,,,,,,,,,,,,,,,,METAR,1402.0
CWZA 111900Z AUTO 18001KT 05/03 RMK AO1 SLP182 T00470030 51012,CWZA,2020-12-11T19:00:00Z,49.25,-121.77,4.7,3.0,180,1,,,,1018.2,,TRUE,TRUE,,,,,,,,,,,,,,,,1.2,,,,,,,,,,,METAR,18.0
CWYY 111900Z AUTO 00000KT 01/M00 RMK AO1 5PAST HR 1006 SLP198 P0002 T00091003 50005,CWYY,2020-12-11T19:00:00Z,49.03,-119.43,0.9,-0.3,0,0,,,,1019.8,,TRUE,TRUE,,,,,,,,,,,,,,,,0.5,,,,,0.02,,,,,,METAR,284.0
CWYL 111900Z AUTO 00000KT M10/M12 RMK AO1 2PAST HR SOG 54 0005 SLP225 P0001 T10971119 50002,CWYL,2020-12-11T19:00:00Z,51.45,-116.33,-9.7,-11.9,0,0,,,,1022.5,,TRUE,TRUE,,,,,,,,,,,,,,,,0.2,,,,,0.01,,,,,,METAR,1602.0
CWYJ 111900Z AUTO 18003KT 06/04 RMK AO1 SLP185 T00610039 51013,CWYJ,2020-12-11T19:00:00Z,48.45,-123.3,6.1,3.9,180,3,,,,1018.5,,TRUE,TRUE,,,,,,,,,,,,,,,,1.3,,,,,,,,,,,METAR,59.0
CWXL 111900Z AUTO 06004KT M06/M07 RMK AO1 SLP240 T10591068 58005,CWXL,2020-12-11T19:00:00Z,49.73,-111.45,-5.9,-6.8,60,4,,,,1024.0,,TRUE,TRUE,,,,,,,,,,,,,,,,-0.5,,,,,,,,,,,METAR,815.0
CWXI 111900Z AUTO 01/M00 RMK AO1 SLP105 T00071004 53006,CWXI,2020-12-11T19:00:00Z,51.02,-57.1,0.7,-0.4,,,,,,1010.5,,TRUE,TRUE,,,,,,,,,,,,,,,,0.6,,,,,,,,,,,METAR,15.0
CWXC 111900Z AUTO 19003KT M02/M02 RMK AO1 7PAST HR M P0003 T10171021 50007,CWXC,2020-12-11T19:00:00Z,48.88,-71.03,-1.7,-2.1,190,3,,,,,,TRUE,TRUE,,,,,,,,,,,,,,,,0.7,,,,,0.03,,,,,,METAR,306.0
CWXA 111900Z AUTO 00007KT M09/M10 RMK AO1 SLP252 T10861095 58005,CWXA,2020-12-11T19:00:00Z,51.07,-115.07,-8.6,-9.5,0,7,,,,1025.2,,TRUE,TRUE,,,,,,,,,,,,,,,,-0.5,,,,,,,,,,,METAR,1303.0
CWWZ 111900Z AUTO 27002KT 08/05 RMK AO1 SOG 01 8003 SLP148 T00810046,CWWZ,2020-12-11T19:00:00Z,43.25,-79.22,8.1,4.6,270,2,,,,1014.8,,TRUE,TRUE,,,,,,,,,,,,,,,,,,,,,,,,,,,METAR,75.0
CWWX 111900Z AUTO 07016KT 05/02 RMK AO1 PK WND 08019/1851 SLP156 T00480023 50005,CWWX,2020-12-11T19:00:00Z,45.32,-81.73,4.8,2.3,70,16,,,,1015.6,,TRUE,TRUE,,,,,,,,,,,,,,,,0.5,,,,,,,,,,,METAR,181.0
CWWS 111900Z AUTO M13/M14 RMK AO1 SOG 02 8004 SLP267 T11301135,CWWS,2020-12-11T19:00:00Z,52.82,-97.62,-13.0,-13.5,,,,,,1026.7,,TRUE,TRUE,,,,,,,,,,,,,,,,,,,,,,,,,,,METAR,220.0
CWWL 111900Z AUTO 18004KT 07/04 RMK AO1 SLP186 T00700035 53009,CWWL,2020-12-11T19:00:00Z,53.5,-130.63,7.0,3.5,180,4,,,,1018.6,,TRUE,TRUE,,,,,,,,,,,,,,,,0.9,,,,,,,,,,,METAR,8.0
CWWK 111900Z AUTO 13003KT RMK AO1 SOG 02 2013,CWWK,2020-12-11T19:00:00Z,49.02,-122.78,,,130,3,,,,,,TRUE,TRUE,,,,,,,,,,,,,,,,,,,,,,,,,,,METAR,10.0
CWWF 111900Z AUTO 30003KT M06/M07 RMK AO1 SLP246 T10611072 51003,CWWF,2020-12-11T19:00:00Z,49.7,-103.8,-6.1,-7.2,300,3,,,,1024.6,,TRUE,TRUE,,,,,,,,,,,,,,,,0.3,,,,,,,,,,,METAR,583.0
CWWE 111900Z AUTO 26006KT 05/M02 RMK AO1 SLP212 T00491023 56006,CWWE,2020-12-11T19:00:00Z,43.98,-64.67,4.9,-2.3,260,6,,,,1021.2,,TRUE,TRUE,,,,,,,,,,,,,,,,-0.6,,,,,,,,,,,METAR,4.0
CWWB 111900Z AUTO 22003KT 09/04 RMK AO1 SLP143 T00890037 58006,CWWB,2020-12-11T19:00:00Z,43.3,-79.78,8.9,3.7,220,3,,,,1014.3,,TRUE,TRUE,,,,,,,,,,,,,,,,-0.6,,,,,,,,,,,METAR,77.0
CWWA 111900Z AUTO 07002KT 04/03 RMK AO1 2PAST HR 1012 SLP180 P0009 T00370031 50022,CWWA,2020-12-11T19:00:00Z,49.35,-123.18,3.7,3.1,70,2,,,,1018.0,,TRUE,TRUE,,,,,,,,,,,,,,,,2.2,,,,,0.09,,,,,,METAR,172.0
CWVU 111900Z AUTO 20005KT 05/M00 RMK AO1 SLP212 T00521002 55012,CWVU,2020-12-11T19:00:00Z,44.28,-66.33,5.2,-0.2,200,5,,,,1021.2,,TRUE,TRUE,,,,,,,,,,,,,,,,-1.2,,,,,,,,,,,METAR,4.0
CWVT 111900Z AUTO 34001KT M10/M11 RMK AO1 SOG 09 8001 SLP284 T10971111,CWVT,2020-12-11T19:00:00Z,55.83,-108.42,-9.7,-11.1,340,1,,,,1028.4,,TRUE,TRUE,,,,,,,,,,,,,,,,,,,,,,,,,,,METAR,431.0
CWVQ 111900Z AUTO 32002KT 04/M00 RMK AO1 SLP158 T00411003 55007,CWVQ,2020-12-11T19:00:00Z,45.42,-73.92,4.1,-0.3,320,2,,,,1015.8,,TRUE,TRUE,,,,,,,,,,,,,,,,-0.7,,,,,,,,,,,METAR,38.0
CWVP 111900Z AUTO 00000KT M10/M12 RMK AO1 SOG 16 0001 SLP222 T11001116,CWVP,2020-12-11T19:00:00Z,49.63,-109.52,-10.0,-11.6,0,0,,,,1022.2,,TRUE,TRUE,,,,,,,,,,,,,,,,,,,,,,,,,,,METAR,1269.0
CWVN 111900Z AUTO 04008KT M05/M06 RMK AO1 SLP232 T10491061 50001,CWVN,2020-12-11T19:00:00Z,49.07,-107.58,-4.9,-6.1,40,8,,,,1023.2,,TRUE,TRUE,,,,,,,,,,,,,,,,0.1,,,,,,,,,,,METAR,792.0
CWVF 111900Z AUTO 18008KT 07/04 RMK AO1 T00680041,CWVF,2020-12-11T19:00:00Z,49.1,-123.3,6.8,4.1,180,8,,,,,,TRUE,TRUE,,,,,,,,,,,,,,,,,,,,,,,,,,,METAR,13.0
CWUX 111900Z AUTO 05002KT M02/M03 RMK AO1 SLP153 T10231030 55004,CWUX,2020-12-11T19:00:00Z,48.3,-70.93,-2.3,-3.0,50,2,,,,1015.3,,TRUE,TRUE,,,,,,,,,,,,,,,,-0.4,,,,,,,,,,,METAR,150.0
CWUW 111900Z AUTO 16021G27KT ////SM OVC004 M11/M12 A2927,CWUW,2020-12-11T19:00:00Z,68.62,-71.12,-11.0,-12.0,160,21,27,,29.27067,,,TRUE,,,,,,,,OVC,400,,,,,,,,,,,,,,,,,,,SPECI,173.0
CWUS 111900Z AUTO 00000KT 01/01 RMK AO1 2PAST HR 1006 SLP205 P0001 T00110006 50002,CWUS,2020-12-11T19:00:00Z,49.57,-119.65,1.1,0.6,0,0,,,,1020.5,,TRUE,TRUE,,,,,,,,,,,,,,,,0.2,,,,,0.01,,,,,,METAR,455.0
CWTY 111900Z AUTO 03003KT 01/M02 RMK AO1 SLP161 T00051015 55010,CWTY,2020-12-11T19:00:00Z,46.35,-72.52,0.5,-1.5,30,3,,,,1016.1,,TRUE,TRUE,,,,,,,,,,,,,,,,-1.0,,,,,,,,,,,METAR,8.0
CWTT 111900Z AUTO 21007KT 03/M02 RMK AO1 T00321015,CWTT,2020-12-11T19:00:00Z,45.27,-72.17,3.2,-1.5,210,7,,,,,,TRUE,TRUE,,,,,,,,,,,,,,,,,,,,,,,,,,,METAR,210.0
CWTN 111900Z AUTO 28002KT 01/M03 RMK AO1 SLP165 T00131029 56014,CWTN,2020-12-11T19:00:00Z,47.07,-70.78,1.3,-2.9,280,2,,,,1016.5,,TRUE,TRUE,,,,,,,,,,,,,,,,-1.4,,,,,,,,,,,METAR,5.0
CWTG 111900Z AUTO 23014KT M01/M02 RMK AO1 1PAST HR 6012 PK WND 22017/1803 SLP155 P0000 T10091016 50001,CWTG,2020-12-11T19:00:00Z,49.32,-67.37,-0.9,-1.6,230,14,,,,1015.5,,TRUE,TRUE,,,,,,,,,,,,,,,,0.1,,,,,0.005,,,,,,METAR,6.0
CWTA 111900Z AUTO 21001KT 05/M01 RMK AO1 SLP155 T00521009 55008,CWTA,2020-12-11T19:00:00Z,45.5,-73.58,5.2,-0.9,210,1,,,,1015.5,,TRUE,TRUE,,,,,,,,,,,,,,,,-0.8,,,,,,,,,,,METAR,71.0
CWSW 111900Z 36008KT 20SM -SN FEW047 OVC070 M08/M11 A3009 RMK SC1AS7 VRY LGT FLRYS SLP258,CWSW,2020-12-11T19:00:00Z,49.83,-114.87,-8.0,-11.0,360,8,,20.0,30.088583,1025.8,,,,,,,,,-SN,FEW,4700,OVC,7000,,,,,VFR,,,,,,,,,,,,SPECI,1173.0
CWST 111900Z AUTO 21009KT 02/M02 RMK AO1 SOG 06 6016 SLP153 T00161015,CWST,2020-12-11T19:00:00Z,47.35,-70.02,1.6,-1.5,210,9,,,,1015.3,,TRUE,TRUE,,,,,,,,,,,,,,,,,,,,,,,,,,,METAR,31.0
CWSS 111900Z AUTO 20003KT 03/M04 RMK AO1 SLP198 T00261035 56018,CWSS,2020-12-11T19:00:00Z,45.2,-67.25,2.6,-3.5,200,3,,,,1019.8,,TRUE,TRUE,,,,,,,,,,,,,,,,-1.8,,,,,,,,,,,METAR,27.0
CWSR 111900Z AUTO 35004KT M07/M10 RMK AO1 SOG 09 0003 SLP250 T10711095,CWSR,2020-12-11T19:00:00Z,53.37,-107.55,-7.1,-9.5,350,4,,,,1025.0,,TRUE,TRUE,,,,,,,,,,,,,,,,,,,,,,,,,,,METAR,589.0
CWSP 111900Z AUTO 16002KT 07/03 RMK AO1 SLP182 T00740030 51013,CWSP,2020-12-11T19:00:00Z,48.38,-123.92,7.4,3.0,160,2,,,,1018.2,,TRUE,TRUE,,,,,,,,,,,,,,,,1.3,,,,,,,,,,,METAR,2.0
CWSL 111900Z AUTO 17002KT 01/01 RMK AO1 SLP200 T00140007 51008,CWSL,2020-12-11T19:00:00Z,50.7,-119.28,1.4,0.7,170,2,,,,1020.0,,TRUE,TRUE,,,,,,,,,,,,,,,,0.8,,,,,,,,,,,METAR,353.0
CWSK 111900Z AUTO 34001KT 03/03 RMK AO1 SLP187 T00340031 51013,CWSK,2020-12-11T19:00:00Z,49.78,-123.17,3.4,3.1,340,1,,,,1018.7,,TRUE,TRUE,,,,,,,,,,,,,,,,1.3,,,,,,,,,,,METAR,59.0
CWSG 111900Z AUTO 21002KT 01/M03 RMK AO1 SLP162 T00051031 56013,CWSG,2020-12-11T19:00:00Z,49.12,-66.65,0.5,-3.1,210,2,,,,1016.2,,TRUE,TRUE,,,,,,,,,,,,,,,,-1.3,,,,,,,,,,,METAR,5.0
CWSF 111900Z AUTO 17005KT M02/M04 RMK AO1 SOG 22 5006 SLP160 T10181040,CWSF,2020-12-11T19:00:00Z,49.25,-65.32,-1.8,-4.0,170,5,,,,1016.0,,TRUE,TRUE,,,,,,,,,,,,,,,,,,,,,,,,,,,METAR,15.0
CWSD 111900Z AUTO 25011KT 01/M04 RMK AO1 SLP194 T00131044 53004,CWSD,2020-12-11T19:00:00Z,46.43,-63.85,1.3,-4.4,250,11,,,,1019.4,,TRUE,TRUE,,,,,,,,,,,,,,,,0.4,,,,,,,,,,,METAR,12.0
CWSA 111900Z AUTO 29014G21KT 9SM OVC024 03/M02 A3013 RMK SLP204,CWSA,2020-12-11T19:00:00Z,43.93,-60.0,3.0,-2.0,290,14,21,9.0,30.129921,1020.4,,TRUE,,,,,,,,OVC,2400,,,,,,,MVFR,,,,,,,,,,,,SPECI,4.0
CWRZ 111900Z AUTO 26005KT M01/M04 RMK AO1 SLP169 T10131044 53001,CWRZ,2020-12-11T19:00:00Z,48.42,-64.32,-1.3,-4.4,260,5,,,,1016.9,,TRUE,TRUE,,,,,,,,,,,,,,,,0.1,,,,,,,,,,,METAR,16.0
CWRY 111900Z AUTO 03004KT M06/M07 RMK AO1 SOG 01 8003 SLP231 T10611068,CWRY,2020-12-11T19:00:00Z,49.12,-112.05,-6.1,-6.8,30,4,,,,1023.1,,TRUE,TRUE,,,,,,,,,,,,,,,,,,,,,,,,,,,METAR,1048.0
CWRX 111900Z AUTO 31030G35KT ////SM //// FEW003 BKN060 OVC075 M24/M27 A////,CWRX,2020-12-11T19:00:00Z,69.07,-79.07,-24.0,-27.0,310,30,35,,,,,TRUE,,,,,,,,FEW,300,BKN,6000,OVC,7500,,,,,,,,,,,,,,,SPECI,39.0
CWRU 111900Z AUTO 02003KT 06/03 RMK AO1 SLP180 T00600029 52018,CWRU,2020-12-11T19:00:00Z,50.12,-127.93,6.0,2.9,20,3,,,,1018.0,,TRUE,TRUE,,,,,,,,,,,,,,,,1.8,,,,,,,,,,,METAR,76.0
CWRT 111900Z AUTO 00008KT M07/M07 RMK AO1 T10671072,CWRT,2020-12-11T19:00:00Z,49.62,-114.47,-6.7,-7.2,0,8,,,,,,TRUE,TRUE,,,,,,,,,,,,,,,,,,,,,,,,,,,METAR,1311.0
CWRO 111900Z AUTO 19003KT 07/06 RMK AO1 SLP190 T00720058 53014,CWRO,2020-12-11T19:00:00Z,54.17,-131.67,7.2,5.8,190,3,,,,1019.0,,TRUE,TRUE,,,,,,,,,,,,,,,,1.4,,,,,,,,,,,METAR,7.0
CWRN 111900Z AUTO 28014KT 01/M02 RMK AO1 PK WND 28021/1827 SLP197 T00101019 53012,CWRN,2020-12-11T19:00:00Z,45.35,-60.98,1.0,-1.9,280,14,,,,1019.7,,TRUE,TRUE,,,,,,,,,,,,,,,,1.2,,,,,,,,,,,METAR,8.0
CWRM 111900Z AUTO 14008KT M07/M08 RMK AO1 SLP229 T10661078 58007,CWRM,2020-12-11T19:00:00Z,52.42,-114.92,-6.6,-7.8,140,8,,,,1022.9,,TRUE,TRUE,,,,,,,,,,,,,,,,-0.7,,,,,,,,,,,METAR,986.0
CWRK 111900Z AUTO 31003KT 04/01 RMK AO1 SOG 09 5001 SLP150 T00390005,CWRK,2020-12-11T19:00:00Z,45.07,-77.87,3.9,0.5,310,3,,,,1015.0,,TRUE,TRUE,,,,,,,,,,,,,,,,,,,,,,,,,,,METAR,328.0
CWRJ 111900Z AUTO 34007KT M05/M06 RMK AO1 SOG 16 0001 SLP262 T10461062,CWRJ,2020-12-11T19:00:00Z,51.57,-107.92,-4.6,-6.2,340,7,,,,1026.2,,TRUE,TRUE,,,,,,,,,,,,,,,,,,,,,,,,,,,METAR,586.0
CWQV 111900Z AUTO 09001KT RMK AO1,CWQV,2020-12-11T19:00:00Z,48.27,-70.12,,,90,1,,,,,,TRUE,TRUE,,,,,,,,,,,,,,,,,,,,,,,,,,,METAR,4.0
CWQS 111900Z AUTO 10004KT 05/04 RMK AO1 SLP192 T00530036 53025,CWQS,2020-12-11T19:00:00Z,53.32,-132.77,5.3,3.6,100,4,,,,1019.2,,TRUE,TRUE,,,,,,,,,,,,,,,,2.5,,,,,,,,,,,METAR,10.0
CWQR 111900Z AUTO 26008KT 01/M05 RMK AO1 T00051052,CWQR,2020-12-11T19:00:00Z,50.22,-64.22,0.5,-5.2,260,8,,,,,,TRUE,TRUE,,,,,,,,,,,,,,,,,,,,,,,,,,,METAR,9.0
CWQP 111900Z AUTO 25005KT 08/05 RMK AO1 SLP158 T00820046 55001,CWQP,2020-12-11T19:00:00Z,43.83,-77.15,8.2,4.6,250,5,,,,1015.8,,TRUE,TRUE,,,,,,,,,,,,,,,,-0.1,,,,,,,,,,,METAR,77.0
CWQO 111900Z AUTO 22012KT M01/M01 RMK AO1 PK WND 22018/1833 T10071010,CWQO,2020-12-11T19:00:00Z,48.42,-68.9,-0.7,-1.0,220,12,,,,,,TRUE,TRUE,,,,,,,,,,,,,,,,,,,,,,,,,,,METAR,7.0
CWQK 111900Z AUTO 23001KT 06/ RMK AO1 SLP182 T0063 51014,CWQK,2020-12-11T19:00:00Z,48.3,-123.53,6.3,,230,1,,,,1018.2,,TRUE,TRUE,,,,,,,,,,,,,,,,1.4,,,,,,,,,,,METAR,5.0
CWQH 111900Z AUTO 02003KT 02/M02 RMK AO1 SOG 12 5015 SLP165 T00201019,CWQH,2020-12-11T19:00:00Z,45.37,-71.82,2.0,-1.9,20,3,,,,1016.5,,TRUE,TRUE,,,,,,,,,,,,,,,,,,,,,,,,,,,METAR,181.0
CWPZ 111900Z AUTO 30001KT M03/M04 RMK AO1 SOG 20 1008 SLP206 T10301038,CWPZ,2020-12-11T19:00:00Z,54.38,-125.97,-3.0,-3.8,300,1,,,,1020.6,,TRUE,TRUE,,,,,,,,,,,,,,,,,,,,,,,,,,,METAR,715.0
CWPX 111900Z AUTO 32027KT ////SM //// SCT003 ///// A////,CWPX,2020-12-11T19:00:00Z,69.03,-107.82,,,320,27,,,,,,TRUE,,,,,,,,SCT,300,,,,,,,,,,,,,,,,,,,METAR,163.0
CWPR 111900Z AUTO 00000KT M01/M02 RMK AO1 SOG 10 1008 SLP183 T10061023,CWPR,2020-12-11T19:00:00Z,49.47,-120.52,-0.6,-2.3,0,0,,,,1018.3,,TRUE,TRUE,,,,,,,,,,,,,,,,,,,,,,,,,,,METAR,703.0
CWPO 111900Z AUTO 19006KT M05/M06 RMK AO1 SOG 01 8010 SLP244 T10541060,CWPO,2020-12-11T19:00:00Z,49.2,-98.9,-5.4,-6.0,190,6,,,,1024.4,,TRUE,TRUE,,,,,,,,,,,,,,,,,,,,,,,,,,,METAR,471.0
CWPK 111900Z AUTO 27002KT M01/M01 RMK AO1 SOG 21 3007 SLP153 T10061011,CWPK,2020-12-11T19:00:00Z,47.92,-74.62,-0.6,-1.1,270,2,,,,1015.3,,TRUE,TRUE,,,,,,,,,,,,,,,,,,,,,,,,,,,METAR,443.0
CWPE 111900Z AUTO 23006KT 04/M01 RMK AO1 SLP201 T00371007 56017,CWPE,2020-12-11T19:00:00Z,45.07,-66.47,3.7,-0.7,230,6,,,,1020.1,,TRUE,TRUE,,,,,,,,,,,,,,,,-1.7,,,,,,,,,,,METAR,9.0
CWPD 111900Z AUTO 18004KT M03/M05 RMK AO1 SLP144 T10331048 56009,CWPD,2020-12-11T19:00:00Z,47.57,-71.22,-3.3,-4.8,180,4,,,,1014.4,,TRUE,TRUE,,,,,,,,,,,,,,,,-0.9,,,,,,,,,,,METAR,795.0
CWPC 111900Z AUTO 25005KT 08/05 RMK AO1 SLP156 T00800050 50000,CWPC,2020-12-11T19:00:00Z,42.87,-79.25,8.0,5.0,250,5,,,,1015.6,,TRUE,TRUE,,,,,,,,,,,,,,,,0.0,,,,,,,,,,,METAR,174.0
CWOY 111900Z AUTO 27004KT M07/M08 RMK AO1 SOG 02 1003 SLP247 T10721075,CWOY,2020-12-11T19:00:00Z,51.77,-104.2,-7.2,-7.5,270,4,,,,1024.7,,TRUE,TRUE,,,,,,,,,,,,,,,,,,,,,,,,,,,METAR,557.0
CWOE 111900Z AUTO 06006KT M05/M06 RMK AO1 SOG 10 8003 SLP217 T10481058,CWOE,2020-12-11T19:00:00Z,49.12,-110.47,-4.8,-5.8,60,6,,,,1021.7,,TRUE,TRUE,,,,,,,,,,,,,,,,,,,,,,,,,,,METAR,931.0
CWOD 111900Z AUTO 05002KT M01/M02 RMK AO1 SOG 07 3003 SLP132 T10081015,CWOD,2020-12-11T19:00:00Z,48.85,-72.55,-0.8,-1.5,50,2,,,,1013.2,,TRUE,TRUE,,,,,,,,,,,,,,,,,,,,,,,,,,,METAR,150.0
CWOC 111900Z AUTO 29007KT M01/M04 RMK AO1 SLP172 T10091041 53003,CWOC,2020-12-11T19:00:00Z,48.02,-65.32,-0.9,-4.1,290,7,,,,1017.2,,TRUE,TRUE,,,,,,,,,,,,,,,,0.3,,,,,,,,,,,METAR,42.0
CWOB 111900Z AUTO 22022KT ////SM BKN004 OVC010 M06/M07 A2949,CWOB,2020-12-11T19:00:00Z,63.33,-64.15,-6.0,-7.0,220,22,,,29.489174,,,TRUE,,,,,,,,BKN,400,OVC,1000,,,,,,,,,,,,,,,,,SPECI,369.0
CWNZ 111900Z AUTO 33004KT M10/M13 RMK AO1 SOG 20 3007 SLP259 T11011127,CWNZ,2020-12-11T19:00:00Z,49.75,-84.17,-10.1,-12.7,330,4,,,,1025.9,,TRUE,TRUE,,,,,,,,,,,,,,,,,,,,,,,,,,,METAR,261.0
CWNQ 111900Z AUTO 05004KT 01/M02 RMK AO1 SLP164 T00101018 55008,CWNQ,2020-12-11T19:00:00Z,46.22,-72.65,1.0,-1.8,50,4,,,,1016.4,,TRUE,TRUE,,,,,,,,,,,,,,,,-0.8,,,,,,,,,,,METAR,9.0
CWNP 111900Z AUTO 11002KT M00/M04 RMK AO1 SLP205 T10021043 50004,CWNP,2020-12-11T19:00:00Z,50.27,-117.82,-0.2,-4.3,110,2,,,,1020.5,,TRUE,TRUE,,,,,,,,,,,,,,,,0.4,,,,,,,,,,,METAR,517.0
CWNM 111900Z AUTO 07004KT 01/M03 RMK AO1 SLP199 T00051033 50000,CWNM,2020-12-11T19:00:00Z,49.5,-117.3,0.5,-3.3,70,4,,,,1019.9,,TRUE,TRUE,,,,,,,,,,,,,,,,0.0,,,,,,,,,,,METAR,533.0
CWNK 111900Z AUTO 16008KT M02/M04 RMK AO1 T10221043,CWNK,2020-12-11T19:00:00Z,49.5,-98.03,-2.2,-4.3,160,8,,,,,,TRUE,TRUE,,,,,,,,,,,,,,,,,,,,,,,,,,,METAR,271.0
CWNH 111900Z AUTO 22004KT 00/M02 RMK AO1 SOG 06 5008 SLP163 T00001015,CWNH,2020-12-11T19:00:00Z,47.8,-69.53,0.0,-1.5,220,4,,,,1016.3,,TRUE,TRUE,,,,,,,,,,,,,,,,,,,,,,,,,,,METAR,147.0
CWNE 111900Z AUTO 26014KT M00/M03 RMK AO1 PK WND 25017/1851 SLP183 T10031029 53007,CWNE,2020-12-11T19:00:00Z,47.07,-64.0,-0.3,-2.9,260,14,,,,1018.3,,TRUE,TRUE,,,,,,,,,,,,,,,,0.7,,,,,,,,,,,METAR,5.0
CWND 111900Z AUTO 08015KT M25/M27 RMK AO1 PK WND 08018/1802 SLP363 T12491273 51018,CWND,2020-12-11T19:00:00Z,69.63,-135.43,-24.9,-27.3,80,15,,,,1036.3,,TRUE,TRUE,,,,,,,,,,,,,,,,1.8,,,,,,,,,,,METAR,14.0
CWNC 111900Z AUTO 25003KT 06/04 RMK AO1 SOG 01 5000 SLP151 T00580036,CWNC,2020-12-11T19:00:00Z,43.95,-78.17,5.8,3.6,250,3,,,,1015.1,,TRUE,TRUE,,,,,,,,,,,,,,,,,,,,,,,,,,,METAR,71.0
CWMT 111900Z AUTO 06006KT M22/M25 RMK AO1 2PAST HR SOG 18 8004 SLP277 P0001 T12191246 50002,CWMT,2020-12-11T19:00:00Z,63.13,-117.25,-21.9,-24.6,60,6,,,,1027.7,,TRUE,TRUE,,,,,,,,,,,,,,,,0.2,,,,,0.01,,,,,,METAR,274.0
CWMQ 111900Z AUTO 00000KT M05/M06 RMK AO1 SOG 04 0000 SLP251 T10451063,CWMQ,2020-12-11T19:00:00Z,49.9,-109.47,-4.5,-6.3,0,0,,,,1025.1,,TRUE,TRUE,,,,,,,,,,,,,,,,,,,,,,,,,,,METAR,767.0
CWMJ 111900Z AUTO 00000KT 02/M00 RMK AO1 SOG 05 5000 SLP156 T00181004,CWMJ,2020-12-11T19:00:00Z,46.27,-76.0,1.8,-0.4,0,0,,,,1015.6,,TRUE,TRUE,,,,,,,,,,,,,,,,,,,,,,,,,,,METAR,198.0
CWME 111900Z AUTO 02022KT 04/01 RMK AO1 PK WND 02025/1843 SLP192 T00400008 51018,CWME,2020-12-11T19:00:00Z,52.18,-127.47,4.0,0.8,20,22,,,,1019.2,,TRUE,TRUE,,,,,,,,,,,,,,,,1.8,,,,,,,,,,,METAR,23.0
CWLS 111900Z AUTO 36006KT 05/02 RMK AO1 SLP162 T00460024 51004,CWLS,2020-12-11T19:00:00Z,43.97,-80.75,4.6,2.4,360,6,,,,1016.2,,TRUE,TRUE,,,,,,,,,,,,,,,,0.4,,,,,,,,,,,METAR,413.0
CWLP 111900Z AUTO 10003KT 07/ RMK AO1 SLP180 T0072 53018,CWLP,2020-12-11T19:00:00Z,50.93,-127.63,7.2,,100,3,,,,1018.0,,TRUE,TRUE,,,,,,,,,,,,,,,,1.8,,,,,,,,,,,METAR,15.0
CWLM 111900Z AUTO 17005KT 06/04 RMK AO1 SLP182 T00640038 51012,CWLM,2020-12-11T19:00:00Z,48.42,-123.32,6.4,3.8,170,5,,,,1018.2,,TRUE,TRUE,,,,,,,,,,,,,,,,1.2,,,,,,,,,,,METAR,62.0
CWLI 111900Z AUTO 05012KT ////SM //// NCD ///// A////,CWLI,2020-12-11T19:00:00Z,69.6,-130.9,,,50,12,,,,,,TRUE,,,,,,,,CLR,,,,,,,,,,,,,,,,,,,,SPECI,92.0
CWLE 111900Z AUTO 34001KT M06/M07 RMK AO1 SOG 07 0002 SLP258 T10611069,CWLE,2020-12-11T19:00:00Z,50.95,-107.15,-6.1,-6.9,340,1,,,,1025.8,,TRUE,TRUE,,,,,,,,,,,,,,,,,,,,,,,,,,,METAR,666.0
CWLC 111900Z AUTO 00000KT 06/03 RMK AO1 T00550027,CWLC,2020-12-11T19:00:00Z,54.3,-130.62,5.5,2.7,0,0,,,,,,TRUE,TRUE,,,,,,,,,,,,,,,,,,,,,,,,,,,METAR,27.0
CWLB 111900Z AUTO 16004KT M08/M08 RMK AO1 SOG 01 8003 SLP262 T10761075,CWLB,2020-12-11T19:00:00Z,54.77,-112.02,-7.6,-7.5,160,4,,,,1026.2,,TRUE,TRUE,,,,,,,,,,,,,,,,,,,,,,,,,,,METAR,561.0
CWKX 111900Z AUTO 00000KT M10/M12 RMK AO1 SOG 25 2005 SLP213 T11041118,CWKX,2020-12-11T19:00:00Z,58.43,-130.02,-10.4,-11.8,0,0,,,,1021.3,,TRUE,TRUE,,,,,,,,,,,,,,,,,,,,,,,,,,,METAR,807.0
CWKO 111900Z AUTO 01001KT M07/M08 RMK AO1 SLP239 T10661079 50001,CWKO,2020-12-11T19:00:00Z,49.17,-105.97,-6.6,-7.9,10,1,,,,1023.9,,TRUE,TRUE,,,,,,,,,,,,,,,,0.1,,,,,,,,,,,METAR,914.0
CWKK 111900Z AUTO 30008KT M04/M08 RMK AO1 SOG 03 0001 SLP229 T10441076,CWKK,2020-12-11T19:00:00Z,49.72,-88.33,-4.4,-7.6,300,8,,,,1022.9,,TRUE,TRUE,,,,,,,,,,,,,,,,,,,,,,,,,,,METAR,259.0
CWKH 111900Z AUTO 04/ RMK AO1 SLP169 T0036 51015,CWKH,2020-12-11T19:00:00Z,48.57,-123.55,3.6,,,,,,,1016.9,,TRUE,TRUE,,,,,,,,,,,,,,,,1.5,,,,,,,,,,,METAR,327.0
CWKG 111900Z AUTO 25004KT 04/M01 RMK AO1 SLP206 T00391007 56011,CWKG,2020-12-11T19:00:00Z,44.43,-65.2,3.9,-0.7,250,4,,,,1020.6,,TRUE,TRUE,,,,,,,,,,,,,,,,-1.1,,,,,,,,,,,METAR,154.0
CWJX 111900Z AUTO 32001KT M07/M09 RMK AO1 SOG 06 0002 SLP262 T10711087,CWJX,2020-12-11T19:00:00Z,50.88,-109.5,-7.1,-8.7,320,1,,,,1026.2,,TRUE,TRUE,,,,,,,,,,,,,,,,,,,,,,,,,,,METAR,671.0
CWJW 111900Z AUTO 14002KT M09/M13 RMK AO1 SOG 02 0002 SLP227 T10871132,CWJW,2020-12-11T19:00:00Z,52.93,-118.03,-8.7,-13.2,140,2,,,,1022.7,,TRUE,TRUE,,,,,,,,,,,,,,,,,,,,,,,,,,,METAR,1022.0
CWJV 111900Z AUTO 07002KT 01/M02 RMK AO1 SLP190 T00081015 52008,CWJV,2020-12-11T19:00:00Z,50.22,-119.18,0.8,-1.5,70,2,,,,1019.0,,TRUE,TRUE,,,,,,,,,,,,,,,,0.8,,,,,,,,,,,METAR,487.0
CWJT 111900Z AUTO 00000KT 01/01 RMK AO1 SLP162 T00110009 55003,CWJT,2020-12-11T19:00:00Z,46.07,-74.57,1.1,0.9,0,0,,,,1016.2,,TRUE,TRUE,,,,,,,,,,,,,,,,-0.3,,,,,,,,,,,METAR,236.0
CWJR 111900Z AUTO 33004KT M00/M03 RMK AO1 SLP203 T10041031 50002,CWJR,2020-12-11T19:00:00Z,49.03,-116.5,-0.4,-3.1,330,4,,,,1020.3,,TRUE,TRUE,,,,,,,,,,,,,,,,0.2,,,,,,,,,,,METAR,642.0
CWJO 111900Z AUTO 12002KT M02/M02 RMK AO1 SLP162 T10181018 55005,CWJO,2020-12-11T19:00:00Z,48.43,-71.15,-1.8,-1.8,120,2,,,,1016.2,,TRUE,TRUE,,,,,,,,,,,,,,,,-0.5,,,,,,,,,,,METAR,113.0
CWJI 111900Z AUTO 32002KT M06/M07 RMK AO1 SLP242 T10611074 58001,CWJI,2020-12-11T19:00:00Z,49.72,-105.93,-6.1,-7.4,320,2,,,,1024.2,,TRUE,TRUE,,,,,,,,,,,,,,,,-0.1,,,,,,,,,,,METAR,724.0
CWJH 111900Z AUTO 33001KT M12/M14 RMK AO1 SOG 25 1005 SLP279 T11241143,CWJH,2020-12-11T19:00:00Z,56.32,-103.27,-12.4,-14.3,330,1,,,,1027.9,,TRUE,TRUE,,,,,,,,,,,,,,,,,,,,,,,,,,,METAR,345.0
CWJD 111900Z AUTO 08005KT M09/M11 RMK AO1 2PAST HR SOG 19 8001 SLP258 P0001 T10901112 50002,CWJD,2020-12-11T19:00:00Z,53.18,-99.27,-9.0,-11.2,80,5,,,,1025.8,,TRUE,TRUE,,,,,,,,,,,,,,,,0.2,,,,,0.01,,,,,,METAR,222.0
CWJC 111900Z AUTO 27007KT M30/M33 RMK AO1 SOG 08 6006 SLP318 T12981330,CWJC,2020-12-11T19:00:00Z,61.13,-100.9,-29.8,-33.0,270,7,,,,1031.8,,TRUE,TRUE,,,,,,,,,,,,,,,,,,,,,,,,,,,METAR,340.0
CWJB 111900Z AUTO 33001KT M00/ RMK AO1 SOG 05 T1001,CWJB,2020-12-11T19:00:00Z,46.78,-71.28,-0.1,,330,1,,,,,,TRUE,TRUE,,,,,,,,,,,,,,,,,,,,,,,,,,,METAR,90.0
CWIZ 111900Z AUTO 18006KT 04/01 RMK AO1 T00370014,CWIZ,2020-12-11T19:00:00Z,45.28,-73.33,3.7,1.4,180,6,,,,,,TRUE,TRUE,,,,,,,,,,,,,,,,,,,,,,,,,,,METAR,45.0
CWIW 111900Z AUTO 35008KT M05/M06 RMK AO1 SOG 04 1002 SLP255 T10491057,CWIW,2020-12-11T19:00:00Z,51.67,-105.4,-4.9,-5.7,350,8,,,,1025.5,,TRUE,TRUE,,,,,,,,,,,,,,,,,,,,,,,,,,,METAR,524.0
CWIT 111900Z AUTO 14004KT 05/01 RMK AO1 SLP150 T00480005 56010,CWIT,2020-12-11T19:00:00Z,45.17,-73.67,4.8,0.5,140,4,,,,1015.0,,TRUE,TRUE,,,,,,,,,,,,,,,,-1.0,,,,,,,,,,,METAR,53.0
CWIS 111900Z AUTO 24004KT M03/M03 RMK AO1 SOG 13 6009 SLP148 T10291034,CWIS,2020-12-11T19:00:00Z,47.28,-70.63,-2.9,-3.4,240,4,,,,1014.8,,TRUE,TRUE,,,,,,,,,,,,,,,,,,,,,,,,,,,METAR,720.0
CWIP 111900Z AUTO 28005KT M02/M06 RMK AO1 T10161064,CWIP,2020-12-11T19:00:00Z,50.17,-66.43,-1.6,-6.4,280,5,,,,,,TRUE,TRUE,,,,,,,,,,,,,,,,,,,,,,,,,,,METAR,27.0
CWIL 111900Z AUTO 27025KT ////SM ////// M29/M32 A3013,CWIL,2020-12-11T19:00:00Z,68.32,-100.07,-29.0,-32.0,270,25,,,30.129921,,,TRUE,,,,,,,,,,,,,,,,,,,,,,,,,,,,SPECI,28.0
CWIK 111900Z AUTO 30004KT M08/M09 RMK AO1 SLP241 T10751086 50002,CWIK,2020-12-11T19:00:00Z,50.37,-102.58,-7.5,-8.6,300,4,,,,1024.1,,TRUE,TRUE,,,,,,,,,,,,,,,,0.2,,,,,,,,,,,METAR,597.0
CWIJ 111900Z AUTO 00026KT M33/M37 RMK AO1 SOG 48 5006 SLP315 T13331366,CWIJ,2020-12-11T19:00:00Z,65.77,-111.23,-33.3,-36.6,0,26,,,,1031.5,,TRUE,TRUE,,,,,,,,,,,,,,,,,,,,,,,,,,,METAR,490.0
CWII 111900Z AUTO 11006KT M09/M10 RMK AO1 SLP258 T10861099 56014,CWII,2020-12-11T19:00:00Z,50.7,-96.57,-8.6,-9.9,110,6,,,,1025.8,,TRUE,TRUE,,,,,,,,,,,,,,,,-1.4,,,,,,,,,,,METAR,216.0
CWIG 111900Z AUTO 21007KT RMK AO1,CWIG,2020-12-11T19:00:00Z,47.07,-70.53,,,210,7,,,,,,TRUE,TRUE,,,,,,,,,,,,,,,,,,,,,,,,,,,METAR,12.0
CWID 111900Z AUTO 10003KT M15/M17 RMK AO1 SLP238 T11481169 58018,CWID,2020-12-11T19:00:00Z,61.32,-117.6,-14.8,-16.9,100,3,,,,1023.8,,TRUE,TRUE,,,,,,,,,,,,,,,,-1.8,,,,,,,,,,,METAR,160.0
CWHV 111900Z AUTO 10001KT M00/M03 RMK AO1 SLP164 T10021033 56011,CWHV,2020-12-11T19:00:00Z,46.2,-70.78,-0.2,-3.3,100,1,,,,1016.4,,TRUE,TRUE,,,,,,,,,,,,,,,,-1.1,,,,,,,,,,,METAR,227.0
CWHT 111900Z AUTO 06001KT M20/M23 RMK AO1 SOG 42 3017 SLP254 T12041231,CWHT,2020-12-11T19:00:00Z,60.77,-137.58,-20.4,-23.1,60,1,,,,1025.4,,TRUE,TRUE,,,,,,,,,,,,,,,,,,,,,,,,,,,METAR,601.0
CWHQ 111900Z AUTO 09001KT 00/M03 RMK AO1 T00001028,CWHQ,2020-12-11T19:00:00Z,46.68,-71.97,0.0,-2.8,90,1,,,,,,TRUE,TRUE,,,,,,,,,,,,,,,,,,,,,,,,,,,METAR,56.0
CWHP 111900Z AUTO 30004KT RMK AO1 53006,CWHP,2020-12-11T19:00:00Z,49.08,-61.7,,,300,4,,,,,,TRUE,TRUE,,,,,,,,,,,,,,,,0.6,,,,,,,,,,,METAR,7.0
CWHO 111900Z AUTO M05/M07 RMK AO1 SLP105 T10471071 53004,CWHO,2020-12-11T19:00:00Z,55.45,-60.22,-4.7,-7.1,,,,,,1010.5,,TRUE,TRUE,,,,,,,,,,,,,,,,0.4,,,,,,,,,,,METAR,16.0
CWHN 111900Z AUTO 00000KT 9SM OVC010 M07/M10 A3017 RMK SLP259,CWHN,2020-12-11T19:00:00Z,54.9,-109.97,-7.0,-10.0,0,0,,9.0,30.171259,1025.9,,TRUE,,,,,,,,OVC,1000,,,,,,,MVFR,,,,,,,,,,,,METAR,635.0
CWHI 111900Z AUTO 14009KT M07/M08 RMK AO1 T10701075,CWHI,2020-12-11T19:00:00Z,51.7,-113.22,-7.0,-7.5,140,9,,,,,,TRUE,TRUE,,,,,,,,,,,,,,,,,,,,,,,,,,,METAR,906.0
CWGZ 111900Z VRB02KT 5SM IC OVC052 M19/M22 A2955 RMK SC8 SLP016,CWGZ,2020-12-11T19:00:00Z,76.42,-82.9,-19.0,-22.0,0,2,,5.0,29.551182,1001.6,,,,,,,,,IC,OVC,5200,,,,,,,MVFR,,,,,,,,,,,,SPECI,24.0
CWGY 111900Z AUTO 30004KT M05/M07 RMK AO1 SLP266 T10511071 58001,CWGY,2020-12-11T19:00:00Z,51.67,-110.2,-5.1,-7.1,300,4,,,,1026.6,,TRUE,TRUE,,,,,,,,,,,,,,,,-0.1,,,,,,,,,,,METAR,709.0
CWGX 111900Z AUTO 09004KT M15/M20 RMK AO1 SOG 33 3001 SLP296 T11481195,CWGX,2020-12-11T19:00:00Z,56.35,-94.7,-14.8,-19.5,90,4,,,,1029.6,,TRUE,TRUE,,,,,,,,,,,,,,,,,,,,,,,,,,,METAR,145.0
CWGW 111900Z AUTO 01007KT M08/M11 RMK AO1 SOG 05 8007 SLP232 T10831106,CWGW,2020-12-11T19:00:00Z,49.75,-114.9,-8.3,-10.6,10,7,,,,1023.2,,TRUE,TRUE,,,,,,,,,,,,,,,,,,,,,,,,,,,METAR,1137.0
CWGT 111900Z AUTO 27006KT 06/04 RMK AO1 SLP180 T00600036 51018,CWGT,2020-12-11T19:00:00Z,49.48,-124.43,6.0,3.6,270,6,,,,1018.0,,TRUE,TRUE,,,,,,,,,,,,,,,,1.8,,,,,,,,,,,METAR,5.0
CWGR 111900Z AUTO 28009KT 01/M03 RMK AO1 SLP170 T00111026 53007,CWGR,2020-12-11T19:00:00Z,47.42,-61.77,1.1,-2.6,280,9,,,,1017.0,,TRUE,TRUE,,,,,,,,,,,,,,,,0.7,,,,,,,,,,,METAR,4.0
CWGM 111900Z AUTO 04003KT M07/M08 RMK AO1 T10731075,CWGM,2020-12-11T19:00:00Z,49.13,-113.8,-7.3,-7.5,40,3,,,,,,TRUE,TRUE,,,,,,,,,,,,,,,,,,,,,,,,,,,METAR,1292.0
CWGL 111900Z AUTO 36004KT 05/02 RMK AO1 SLP135 T00520023 50004,CWGL,2020-12-11T19:00:00Z,44.53,-79.22,5.2,2.3,360,4,,,,1013.5,,TRUE,TRUE,,,,,,,,,,,,,,,,0.4,,,,,,,,,,,METAR,220.0
CWGH 111900Z AUTO 21003KT 09/02 RMK AO1 SLP153 T00930018 55007,CWGH,2020-12-11T19:00:00Z,44.42,-75.85,9.3,1.8,210,3,,,,1015.3,,TRUE,TRUE,,,,,,,,,,,,,,,,-0.7,,,,,,,,,,,METAR,76.0
CWGD 111900Z AUTO 34008KT 06/04 RMK AO1 SOG 01 6004 SLP166 T00580035,CWGD,2020-12-11T19:00:00Z,43.77,-81.72,5.8,3.5,340,8,,,,1016.6,,TRUE,TRUE,,,,,,,,,,,,,,,,,,,,,,,,,,,METAR,214.0
CWGB 111900Z AUTO 23006KT 05/ RMK AO1 SLP178 T0054 51018,CWGB,2020-12-11T19:00:00Z,49.35,-124.13,5.4,,230,6,,,,1017.8,,TRUE,TRUE,,,,,,,,,,,,,,,,1.8,,,,,,,,,,,METAR,6.0
CWFQ 111900Z AUTO 20004KT 04/M01 RMK AO1 SOG 03 5008 SLP157 T00441008,CWFQ,2020-12-11T19:00:00Z,45.03,-72.85,4.4,-0.8,200,4,,,,1015.7,,TRUE,TRUE,,,,,,,,,,,,,,,,,,,,,,,,,,,METAR,190.0
CWFJ 111900Z AUTO 32003KT M08/M09 RMK AO1 T10781090,CWFJ,2020-12-11T19:00:00Z,49.2,-113.27,-7.8,-9.0,320,3,,,,,,TRUE,TRUE,,,,,,,,,,,,,,,,,,,,,,,,,,,METAR,1142.0
CWFF 111900Z AUTO 03006KT M07/M09 RMK AO1 SOG 28 0004 SLP248 T10741088,CWFF,2020-12-11T19:00:00Z,52.82,-104.6,-7.4,-8.8,30,6,,,,1024.8,,TRUE,TRUE,,,,,,,,,,,,,,,,,,,,,,,,,,,METAR,482.0
CWEZ 111900Z AUTO 18011KT 08/05 RMK AO1 SLP178 T00810050 51015,CWEZ,2020-12-11T19:00:00Z,48.78,-123.05,8.1,5.0,180,11,,,,1017.8,,TRUE,TRUE,,,,,,,,,,,,,,,,1.5,,,,,,,,,,,METAR,23.0
CWEW 111900Z AUTO 31002KT 02/M01 RMK AO1 SLP167 T00211012 55007,CWEW,2020-12-11T19:00:00Z,45.82,-73.43,2.1,-1.2,310,2,,,,1016.7,,TRUE,TRUE,,,,,,,,,,,,,,,,-0.7,,,,,,,,,,,METAR,17.0
CWEU 111900Z 33003KT 15SM IC FEW080 BKN110 M27/M30 A2988 RMK AC2AC3 SLP135,CWEU,2020-12-11T19:00:00Z,80.0,-85.93,-27.0,-30.0,330,3,,15.0,29.878937,1013.5,,,,,,,,,IC,FEW,8000,BKN,11000,,,,,VFR,,,,,,,,,,,,SPECI,2.0
CWER 111900Z AUTO 23010KT RMK AO1,CWER,2020-12-11T19:00:00Z,47.0,-70.82,,,230,10,,,,,,TRUE,TRUE,,,,,,,,,,,,,,,,,,,,,,,,,,,METAR,4.0
CWEQ 111900Z AUTO 21005KT M07/M09 RMK AO1 SOG 03 8001 SLP238 T10651089,CWEQ,2020-12-11T19:00:00Z,52.12,-101.22,-6.5,-8.9,210,5,,,,1023.8,,TRUE,TRUE,,,,,,,,,,,,,,,,,,,,,,,,,,,METAR,331.0
CWEP 111900Z AUTO 23007KT 01/M02 RMK AO1 SLP179 T00051018 53006,CWEP,2020-12-11T19:00:00Z,46.45,-61.98,0.5,-1.8,230,7,,,,1017.9,,TRUE,TRUE,,,,,,,,,,,,,,,,0.6,,,,,,,,,,,METAR,9.0
CWEL 111900Z AUTO 29005KT 06/04 RMK AO1 SLP180 T00560035 51016,CWEL,2020-12-11T19:00:00Z,49.22,-123.8,5.6,3.5,290,5,,,,1018.0,,TRUE,TRUE,,,,,,,,,,,,,,,,1.6,,,,,,,,,,,METAR,0.0
CWEH 111900Z AUTO 08006KT M08/M09 RMK AO1 SOG 16 0000 SLP227 T10761090,CWEH,2020-12-11T19:00:00Z,49.43,-108.98,-7.6,-9.0,80,6,,,,1022.7,,TRUE,TRUE,,,,,,,,,,,,,,,,,,,,,,,,,,,METAR,1077.0
CWEB 111900Z AUTO 07002KT 05/05 RMK AO1 SLP180 T00530053 51018,CWEB,2020-12-11T19:00:00Z,49.38,-126.55,5.3,5.3,70,2,,,,1018.0,,TRUE,TRUE,,,,,,,,,,,,,,,,1.8,,,,,,,,,,,METAR,1.0
CWDZ 111900Z AUTO 16003KT M06/M08 RMK AO1 SLP264 T10631079 58005,CWDZ,2020-12-11T19:00:00Z,51.43,-112.67,-6.3,-7.9,160,3,,,,1026.4,,TRUE,TRUE,,,,,,,,,,,,,,,,-0.5,,,,,,,,,,,METAR,689.0
CWDV 111900Z AUTO 02002KT M06/M09 RMK AO1 SOG 19 8005 SLP238 T10641091,CWDV,2020-12-11T19:00:00Z,49.02,-90.47,-6.4,-9.1,20,2,,,,1023.8,,TRUE,TRUE,,,,,,,,,,,,,,,,,,,,,,,,,,,METAR,487.0
CWDQ 111900Z AUTO 15002KT M01/M02 RMK AO1 SOG 01 5004 SLP159 T10121022,CWDQ,2020-12-11T19:00:00Z,47.42,-72.78,-1.2,-2.2,150,2,,,,1015.9,,TRUE,TRUE,,,,,,,,,,,,,,,,,,,,,,,,,,,METAR,174.0
CWDO 111900Z AUTO 36017G22KT M01/M01 RMK AO1 PK WND 05022/1849 SLP086 T10091009 52017,CWDO,2020-12-11T19:00:00Z,49.68,-54.78,-0.9,-0.9,360,17,22,,,1008.6,,TRUE,TRUE,,,,,,,,,,,,,,,,1.7,,,,,,,,,,,METAR,89.0
CWDM 111900Z AUTO 25005KT 01/M00 RMK AO1 SLP128 T00071002 53005,CWDM,2020-12-11T19:00:00Z,50.47,-59.63,0.7,-0.2,250,5,,,,1012.8,,TRUE,TRUE,,,,,,,,,,,,,,,,0.5,,,,,,,,,,,METAR,2.0
CWDK 111900Z AUTO 10005KT M06/M07 RMK AO1 SOG 01 8006 SLP241 T10621072,CWDK,2020-12-11T19:00:00Z,50.02,-113.62,-6.2,-7.2,100,5,,,,1024.1,,TRUE,TRUE,,,,,,,,,,,,,,,,,,,,,,,,,,,METAR,1014.0
CWDJ 111900Z AUTO 33003KT M07/M09 RMK AO1 SLP248 T10701088 50001,CWDJ,2020-12-11T19:00:00Z,50.4,-104.58,-7.0,-8.8,330,3,,,,1024.8,,TRUE,TRUE,,,,,,,,,,,,,,,,0.1,,,,,,,,,,,METAR,576.0
CWDC 111900Z AUTO M15/M17 RMK AO1 SOG 44 8002 SLP284 T11531172,CWDC,2020-12-11T19:00:00Z,59.57,-108.48,-15.3,-17.2,,,,,,1028.4,,TRUE,TRUE,,,,,,,,,,,,,,,,,,,,,,,,,,,METAR,311.0
CWDA 111900Z AUTO 32009KT 01/M00 RMK AO1 SLP116 T00101002 53008,CWDA,2020-12-11T19:00:00Z,50.72,-56.12,1.0,-0.2,320,9,,,,1011.6,,TRUE,TRUE,,,,,,,,,,,,,,,,0.8,,,,,,,,,,,METAR,30.0
CWCT 111900Z AUTO 17001KT M07/M08 RMK AO1 SOG 02 8003 SLP261 T10721082,CWCT,2020-12-11T19:00:00Z,52.07,-111.43,-7.2,-8.2,170,1,,,,1026.1,,TRUE,TRUE,,,,,,,,,,,,,,,,,,,,,,,,,,,METAR,793.0
CWCJ 111900Z AUTO 02004KT M04/M08 RMK AO1 SOG 02 0003 SLP237 T10421075,CWCJ,2020-12-11T19:00:00Z,48.6,-86.28,-4.2,-7.5,20,4,,,,1023.7,,TRUE,TRUE,,,,,,,,,,,,,,,,,,,,,,,,,,,METAR,207.0
CWCF 111900Z AUTO 10006KT M12/M15 RMK AO1 SOG 26 8009 SLP262 T11191146,CWCF,2020-12-11T19:00:00Z,52.35,-97.03,-11.9,-14.6,100,6,,,,1026.2,,TRUE,TRUE,,,,,,,,,,,,,,,,,,,,,,,,,,,METAR,219.0
CWBZ 111900Z AUTO 02003KT 06/01 RMK AO1 SLP150 T00570008 55005,CWBZ,2020-12-11T19:00:00Z,45.12,-74.28,5.7,0.8,20,3,,,,1015.0,,TRUE,TRUE,,,,,,,,,,,,,,,,-0.5,,,,,,,,,,,METAR,49.0
CWBV 111900Z AUTO 28008KT 01/M03 RMK AO1 T00131029,CWBV,2020-12-11T19:00:00Z,44.82,-62.33,1.3,-2.9,280,8,,,,,,TRUE,TRUE,,,,,,,,,,,,,,,,,,,,,,,,,,,METAR,16.0
CWBU 111900Z AUTO 02008KT M09/M10 RMK AO1 SOG 24 1006 SLP255 T10871104,CWBU,2020-12-11T19:00:00Z,53.33,-104.02,-8.7,-10.4,20,8,,,,1025.5,,TRUE,TRUE,,,,,,,,,,,,,,,,,,,,,,,,,,,METAR,369.0
CWBT 111900Z AUTO 27002KT M01/M04 RMK AO1 SLP153 T10141038 55003,CWBT,2020-12-11T19:00:00Z,50.27,-64.23,-1.4,-3.8,270,2,,,,1015.3,,TRUE,TRUE,,,,,,,,,,,,,,,,-0.3,,,,,,,,,,,METAR,12.0
CWBS 111900Z AUTO 02007KT 01/M01 RMK AO1 T00081013,CWBS,2020-12-11T19:00:00Z,46.18,-72.92,0.8,-1.3,20,7,,,,,,TRUE,TRUE,,,,,,,,,,,,,,,,,,,,,,,,,,,METAR,3.0
CWBO 111900Z AUTO 12003KT M05/M06 RMK AO1 SLP250 T10501064 58003,CWBO,2020-12-11T19:00:00Z,50.53,-111.83,-5.0,-6.4,120,3,,,,1025.0,,TRUE,TRUE,,,,,,,,,,,,,,,,-0.3,,,,,,,,,,,METAR,752.0
CWBK 111900Z AUTO 26004KT 02/M03 RMK AO1 SLP192 T00221033 55000,CWBK,2020-12-11T19:00:00Z,45.77,-62.67,2.2,-3.3,260,4,,,,1019.2,,TRUE,TRUE,,,,,,,,,,,,,,,,0.0,,,,,,,,,,,METAR,2.0
CWBE 111900Z AUTO 03008KT 04/M01 RMK AO1 SLP172 T00411014 51010,CWBE,2020-12-11T19:00:00Z,45.98,-81.48,4.1,-1.4,30,8,,,,1017.2,,TRUE,TRUE,,,,,,,,,,,,,,,,1.0,,,,,,,,,,,METAR,188.0
CWBA 111900Z AUTO 34007KT 02/M00 RMK AO1 SOG 11 T00221001,CWBA,2020-12-11T19:00:00Z,46.72,-79.1,2.2,-0.1,340,7,,,,,,TRUE,TRUE,,,,,,,,,,,,,,,,,,,,,,,,,,,METAR,181.0
CWAV 111900Z AUTO 15008KT M07/M09 RMK AO1 SOG 08 8006 SLP229 T10731092,CWAV,2020-12-11T19:00:00Z,51.77,-114.67,-7.3,-9.2,150,8,,,,1022.9,,TRUE,TRUE,,,,,,,,,,,,,,,,,,,,,,,,,,,METAR,1115.0
CWAQ 111900Z AUTO 34003KT M05/M05 RMK AO1 SLP230 T10481054 50002,CWAQ,2020-12-11T19:00:00Z,49.05,-105.48,-4.8,-5.4,340,3,,,,1023.0,,TRUE,TRUE,,,,,,,,,,,,,,,,0.2,,,,,,,,,,,METAR,761.0
CWAJ 111900Z AUTO 19003KT 08/05 RMK AO1 SLP141 T00780054 56012,CWAJ,2020-12-11T19:00:00Z,42.25,-81.9,7.8,5.4,190,3,,,,1014.1,,TRUE,TRUE,,,,,,,,,,,,,,,,-1.2,,,,,,,,,,,METAR,177.0
CWAF 111900Z AUTO 21018KT 01/M00 RMK AO1 PK WND 21022/1850 T00081002,CWAF,2020-12-11T19:00:00Z,48.07,-69.55,0.8,-0.2,210,18,,,,,,TRUE,TRUE,,,,,,,,,,,,,,,,,,,,,,,,,,,METAR,6.0
CTNK 111900Z AUTO 00000KT 02/M00 RMK AO1 SOG 12 1006 SLP154 T00161002,CTNK,2020-12-11T19:00:00Z,45.53,-78.27,1.6,-0.2,0,0,,,,1015.4,,TRUE,TRUE,,,,,,,,,,,,,,,,,,,,,,,,,,,METAR,405.0
CTCK 111900Z AUTO 32003KT 04/M00 RMK AO1 SLP156 T00411001 55003,CTCK,2020-12-11T19:00:00Z,45.25,-74.97,4.1,-0.1,320,3,,,,1015.6,,TRUE,TRUE,,,,,,,,,,,,,,,,-0.3,,,,,,,,,,,METAR,84.0
CPXL 111900Z AUTO 12002KT M06/M07 RMK AO1 T10601068,CPXL,2020-12-11T19:00:00Z,49.87,-111.38,-6.0,-6.8,120,2,,,,,,TRUE,TRUE,,,,,,,,,,,,,,,,,,,,,,,,,,,METAR,801.0
CPSV 111900Z AUTO 10005KT M06/M06 RMK AO1 T10571060,CPSV,2020-12-11T19:00:00Z,49.92,-110.92,-5.7,-6.0,100,5,,,,,,TRUE,TRUE,,,,,,,,,,,,,,,,,,,,,,,,,,,METAR,766.0
CPST 111900Z AUTO 15009KT M07/M08 RMK AO1 T10741078,CPST,2020-12-11T19:00:00Z,51.03,-113.28,-7.4,-7.8,150,9,,,,,,TRUE,TRUE,,,,,,,,,,,,,,,,,,,,,,,,,,,METAR,1005.0
CPRY 111900Z AUTO 25003KT M07/M08 RMK AO1 T10721078,CPRY,2020-12-11T19:00:00Z,49.48,-112.68,-7.2,-7.8,250,3,,,,,,TRUE,TRUE,,,,,,,,,,,,,,,,,,,,,,,,,,,METAR,947.0
CPRO 111900Z AUTO 08005KT M05/M06 RMK AO1 T10531059,CPRO,2020-12-11T19:00:00Z,50.83,-112.05,-5.3,-5.9,80,5,,,,,,TRUE,TRUE,,,,,,,,,,,,,,,,,,,,,,,,,,,METAR,733.0
CPIR 111900Z AUTO 08003KT M07/M08 RMK AO1 T10721075,CPIR,2020-12-11T19:00:00Z,49.9,-112.73,-7.2,-7.5,80,3,,,,,,TRUE,TRUE,,,,,,,,,,,,,,,,,,,,,,,,,,,METAR,895.0
CPFI 111900Z AUTO 13002KT M06/M07 RMK AO1 T10631068,CPFI,2020-12-11T19:00:00Z,49.8,-112.03,-6.3,-6.8,130,2,,,,,,TRUE,TRUE,,,,,,,,,,,,,,,,,,,,,,,,,,,METAR,804.0
CPEH 111900Z AUTO 11006KT M06/M07 RMK AO1 T10591071,CPEH,2020-12-11T19:00:00Z,50.18,-112.43,-5.9,-7.1,110,6,,,,,,TRUE,TRUE,,,,,,,,,,,,,,,,,,,,,,,,,,,METAR,814.0
CPBT 111900Z AUTO 05001KT M08/M08 RMK AO1 T10771083,CPBT,2020-12-11T19:00:00Z,49.53,-113.05,-7.7,-8.3,50,1,,,,,,TRUE,TRUE,,,,,,,,,,,,,,,,,,,,,,,,,,,METAR,998.0
CMGB 111900Z AUTO 20002KT 04/M00 RMK AO1 SLP154 T00431002 56008,CMGB,2020-12-11T19:00:00Z,45.37,-72.77,4.3,-0.2,200,2,,,,1015.4,,TRUE,TRUE,,,,,,,,,,,,,,,,-0.8,,,,,,,,,,,METAR,87.0
CMFM 111900Z AUTO 25004KT M02/M04 RMK AO1 SOG 16 6012 SLP145 T10231038,CMFM,2020-12-11T19:00:00Z,47.32,-71.15,-2.3,-3.8,250,4,,,,1014.5,,TRUE,TRUE,,,,,,,,,,,,,,,,,,,,,,,,,,,METAR,663.0
CERM 111900Z AUTO 14002KT M02/M04 RMK AO1 SOG 11 6012 SLP174 T10151041,CERM,2020-12-11T19:00:00Z,47.42,-68.32,-1.5,-4.1,140,2,,,,1017.4,,TRUE,TRUE,,,,,,,,,,,,,,,,,,,,,,,,,,,METAR,151.0
CAHR 111900Z AUTO 27007KT M00/M04 RMK AO1 SLP188 T10031039 53001,CAHR,2020-12-11T19:00:00Z,46.35,-63.17,-0.3,-3.9,270,7,,,,1018.8,,TRUE,TRUE,,,,,,,,,,,,,,,,0.1,,,,,,,,,,,METAR,52.0
BIRK 111900Z 03013KT 9999 FEW049 BKN064 OVC080 09/M00 Q0983,BIRK,2020-12-11T19:00:00Z,64.13,-21.93,9.0,0.0,30,13,,6.21,29.02559,,,,,,,,,,,FEW,4900,BKN,6400,OVC,8000,,,VFR,,,,,,,,,,,,METAR,12.0
BIEG 111900Z 10012G23KT 9000 -RA FEW025 BKN030 OVC065 06/02 Q0993 R04/290195,BIEG,2020-12-11T19:00:00Z,65.27,-14.4,6.0,2.0,100,12,23,5.59,29.320866,,,,,,,,,,-RA,FEW,2500,BKN,3000,OVC,6500,,,MVFR,,,,,,,,,,,,METAR,20.0
BIAR 111900Z VRB03KT 9999 -RA OVC030 05/02 Q0994 RERA,BIAR,2020-12-11T19:00:00Z,65.67,-18.07,5.0,2.0,0,3,,6.21,29.350393,,,,,,,,,,-RA,OVC,3000,,,,,,,MVFR,,,,,,,,,,,,METAR,1.0
AYPY 111900Z 35005KT 9999 FEW050 24/23 Q1007,AYPY,2020-12-11T19:00:00Z,-9.43,147.22,24.0,23.0,350,5,,6.21,29.734253,,,,,,,,,,,FEW,5000,,,,,,,VFR,,,,,,,,,,,,METAR,44.0
AYMH 111900Z VRB03KT 9999 FG BKN010 15/15 Q1017,AYMH,2020-12-11T19:00:00Z,-5.83,144.3,15.0,15.0,0,3,,6.21,30.029528,,,,,,,,,,FG,BKN,1000,,,,,,,MVFR,,,,,,,,,,,,METAR,1634.0
AGGH 111900Z 00000KT 9999 FEW014 23/22 Q1006,AGGH,2020-12-11T19:00:00Z,-9.42,160.05,23.0,22.0,0,0,,6.21,29.704725,,,,,,,,,,,FEW,1400,,,,,,,VFR,,,,,,,,,,,,METAR,6.0
KP92 111859Z AUTO 13007KT 21/13 A2999 RMK AO1 SLP156 T02060128,KP92,2020-12-11T18:59:00Z,29.57,-91.53,20.6,12.8,130,7,,,29.991142,1015.6,,TRUE,TRUE,,,,,,,,,,,,,,,,,,,,,,,,,,,METAR,1.0
KNGU 111859Z 20008KT 10SM SCT035 19/11 A3017 RMK AO2 SLP216 T01890106 $,KNGU,2020-12-11T18:59:00Z,36.93,-76.27,18.9,10.6,200,8,,10.0,30.171259,1021.6,,,TRUE,TRUE,,,,,,SCT,3500,,,,,,,VFR,,,,,,,,,,,,METAR,3.0
KMLI 111859Z 06010KT 3SM -RA BR OVC009 06/03 A2987 RMK AO2 CIG 008V013 P0001 T00560033,KMLI,2020-12-11T18:59:00Z,41.45,-90.52,5.6,3.3,60,10,,3.0,29.870079,,,,TRUE,,,,,,-RA BR,OVC,900,,,,,,,IFR,,,,,,0.01,,,,,,SPECI,174.0
RKSY 111858Z AUTO 00000KT 9999 CLR 02/M07 A3011 RMK AO2 SLP200 T00211069 $,RKSY,2020-12-11T18:58:00Z,37.52,126.97,2.1,-6.9,0,0,,6.21,30.109253,1020.0,,TRUE,TRUE,TRUE,,,,,,CLR,,,,,,,,VFR,,,,,,,,,,,,METAR,16.0
RKSO 111858Z 32004KT 6SM HZ BKN200 03/M02 A3012 RMK AO2A SLP203 T00251018 $,RKSO,2020-12-11T18:58:00Z,37.08,127.02,2.5,-1.8,320,4,,6.0,30.121063,1020.3,,,TRUE,TRUE,,,,,HZ,BKN,20000,,,,,,,VFR,,,,,,,,,,,,METAR,10.0
PHSF 111858Z AUTO 33004KT 10SM CLR 16/02 A3038 RMK AO2 SLP183 T01610017 $,PHSF,2020-12-11T18:58:00Z,19.77,-155.55,16.1,1.7,330,4,,10.0,30.380905,1018.3,,TRUE,TRUE,TRUE,,,,,,CLR,,,,,,,,VFR,,,,,,,,,,,,METAR,1863.0
PASY 111858Z 32016KT 7SM BKN016 BKN024 02/01 A2908 RMK AO2A CIG 013V019 SLP851 T00220006 RVRNO FZRANO $,PASY,2020-12-11T18:58:00Z,52.72,174.12,2.2,0.6,320,16,,7.0,29.078741,985.1,,,TRUE,TRUE,,,TRUE,,,BKN,1600,BKN,2400,,,,,MVFR,,,,,,,,,,,,METAR,6.0
PAFR 111858Z AUTO 00000KT 10SM SCT016 M17/M19 A3002 RMK AO2 SLP180 T11691186 FZRANO $,PAFR,2020-12-11T18:58:00Z,61.27,-149.65,-16.9,-18.6,0,0,,10.0,30.02067,1018.0,,TRUE,TRUE,TRUE,,,TRUE,,,SCT,1600,,,,,,,VFR,,,,,,,,,,,,SPECI,106.0
PAFB 111858Z 00000KT 10SM FEW065 FEW200 M27/M30 A3028 RMK AO2A A02A SLP277 WND/SLP ESTMD T12741303 $,PAFB,2020-12-11T18:58:00Z,64.83,-147.62,-27.4,-30.3,0,0,,10.0,30.280512,1027.7,,,TRUE,TRUE,,,,,,FEW,6500,FEW,20000,,,,,VFR,,,,,,,,,,,,SPECI,137.0
PADG 111858Z 00000KT 10SM SKC M25/M27 A3028,PADG,2020-12-11T18:58:00Z,68.03,-162.9,-25.0,-27.0,0,0,,10.0,30.280512,,,,,,,,,,,SKC,,,,,,,,VFR,,,,,,,,,,,,SPECI,297.0
OAIX 111858Z COR 00000KT 9000 HZ SCT070 04/00 A3003 RMK AO2A SLP141 T00370004 $ COR 1922,OAIX,2020-12-11T18:58:00Z,34.95,69.27,3.7,0.4,0,0,,5.59,30.029528,1014.1,TRUE,,TRUE,TRUE,,,,,HZ,SCT,7000,,,,,,,VFR,,,,,,,,,,,,METAR,1480.0
KVBG 111858Z 36009KT 10SM FEW011 BKN150 12/08 A3018 RMK AO2A SLP224 T01190079,KVBG,2020-12-11T18:58:00Z,34.73,-120.58,11.9,7.9,360,9,,10.0,30.180119,1022.4,,,TRUE,,,,,,,FEW,1100,BKN,15000,,,,,VFR,,,,,,,,,,,,METAR,96.0
KTCM 111858Z AUTO 00000KT 10SM SCT050 OVC065 05/03 A3008 RMK AO2 SLP192 T00510026 $,KTCM,2020-12-11T18:58:00Z,47.13,-122.47,5.1,2.6,0,0,,10.0,30.079725,1019.2,,TRUE,TRUE,TRUE,,,,,,SCT,5000,OVC,6500,,,,,VFR,,,,,,,,,,,,METAR,87.0
KT70 111858Z AUTO 29008KT 10SM SCT110 M A2984 RMK AO2 SLPNO $,KT70,2020-12-11T18:58:00Z,29.12,-100.48,,,290,8,,10.0,29.840551,,,TRUE,TRUE,TRUE,,,,,,SCT,11000,,,,,,,VFR,,,,,,,,,,,,METAR,296.0
KSXS 111858Z AUTO 29004KT 10SM FEW035 20/11 A3010 RMK AO2 SLP194 T01990114,KSXS,2020-12-11T18:58:00Z,31.37,-85.85,19.9,11.4,290,4,,10.0,30.100393,1019.4,,TRUE,TRUE,,,,,,,FEW,3500,,,,,,,VFR,,,,,,,,,,,,SPECI,120.0
KSUU 111858Z AUTO 24003KT 10SM CLR 13/03 A3019 RMK AO2 SLP230 T01260033 $,KSUU,2020-12-11T18:58:00Z,38.27,-121.93,12.6,3.3,240,3,,10.0,30.188976,1023.0,,TRUE,TRUE,TRUE,,,,,,CLR,,,,,,,,VFR,,,,,,,,,,,,SPECI,9.0
KSLI 111858Z 00000KT 10SM BKN031 BKN200 15/08 A3014 RMK AO2A SLP210 T01470075,KSLI,2020-12-11T18:58:00Z,33.78,-118.03,14.7,7.5,0,0,,10.0,30.138779,1021.0,,,TRUE,,,,,,,BKN,3100,BKN,20000,,,,,VFR,,,,,,,,,,,,SPECI,8.0
KSKA 111858Z 15004KT 1 1/2SM -SN BR BKN005 BKN011 OVC018 M01/M01 A3000 RMK VIS 1 1/2V2 1/4 SLP185 P0002 T10061006 $,KSKA,2020-12-11T18:58:00Z,47.62,-117.67,-0.6,-0.6,150,4,,1.5,30.0,1018.5,,,,TRUE,,,,,-SN BR,BKN,500,BKN,1100,OVC,1800,,,IFR,,,,,,0.02,,,,,,METAR,754.0
KSEQ 111858Z AUTO 00000KT 10SM BKN130 BKN150 20/17 A2989 RMK AO2 SLP120 T02030170,KSEQ,2020-12-11T18:58:00Z,29.57,-97.9,20.3,17.0,0,0,,10.0,29.890747,1012.0,,TRUE,TRUE,,,,,,,BKN,13000,BKN,15000,,,,,VFR,,,,,,,,,,,,METAR,160.0
KROG 111858Z 20011KT 10SM OVC014 14/13 A2978 RMK AO2 RAB25E50 SLP080 T01440128 PNO $,KROG,2020-12-11T18:58:00Z,36.37,-94.1,14.4,12.8,200,11,,10.0,29.778543,1008.0,,,TRUE,TRUE,,,,,,OVC,1400,,,,,,,MVFR,,,,,,,,,,,,METAR,407.0
KRIV 111858Z AUTO 00000KT 10SM FEW023 13/05 A3011 RMK AO2 SLP194 T01270054,KRIV,2020-12-11T18:58:00Z,33.87,-117.23,12.7,5.4,0,0,,10.0,30.109253,1019.4,,TRUE,TRUE,,,,,,,FEW,2300,,,,,,,VFR,,,,,,,,,,,,METAR,454.0
KPOE 111858Z AUTO 17012KT 9SM OVC037 21/13 A2997 RMK AO2 SLP149 T02100131,KPOE,2020-12-11T18:58:00Z,31.05,-93.2,21.0,13.1,170,12,,9.0,29.970472,1014.9,,TRUE,TRUE,,,,,,,OVC,3700,,,,,,,VFR,,,,,,,,,,,,METAR,98.0
KMRH 111858Z AUTO 13007KT 10SM BKN065 21/14 A3016 RMK AO2 SLP213 I1000 T02110139,KMRH,2020-12-11T18:58:00Z,34.73,-76.65,21.1,13.9,130,7,,10.0,30.159449,1021.3,,TRUE,TRUE,,,,,,,BKN,6500,,,,,,,VFR,,,,,,,,,,,,SPECI,2.0
KMEI 111858Z 17009KT 10SM BKN055 21/11 A3004 RMK AO2 SLP173 I1000 T02060106,KMEI,2020-12-11T18:58:00Z,32.33,-88.75,20.6,10.6,170,9,,10.0,30.041338,1017.3,,,TRUE,,,,,,,BKN,5500,,,,,,,VFR,,,,,,,,,,,,METAR,90.0
KLUF 111858Z 11004KT 10SM FEW025 SCT200 15/12 A3007 RMK AO2A SLP181 T01500121,KLUF,2020-12-11T18:58:00Z,33.53,-112.37,15.0,12.1,110,4,,10.0,30.070866,1018.1,,,TRUE,,,,,,,FEW,2500,SCT,20000,,,,,VFR,,,,,,,,,,,,METAR,333.0
KLSV 111858Z AUTO 01004KT 10SM FEW160 SCT200 10/M08 A3002 RMK AO2 SLPNO T01001082 $,KLSV,2020-12-11T18:58:00Z,36.23,-115.05,10.0,-8.2,10,4,,10.0,30.02067,,,TRUE,TRUE,TRUE,,,,,,FEW,16000,SCT,20000,,,,,VFR,,,,,,,,,,,,METAR,563.0
KLOR 111858Z AUTO 19006KT 10SM CLR M A3011 RMK AO2 SLPNO FZRANO$,KLOR,2020-12-11T18:58:00Z,31.35,-85.75,,,190,6,,10.0,30.109253,,,TRUE,TRUE,TRUE,,,TRUE,,,CLR,,,,,,,,VFR,,,,,,,,,,,,SPECI,92.0
KLGF 111858Z AUTO 15005KT 10SM CLR 18/09 A3006 RMK AO2 SLP179 T01750085 $,KLGF,2020-12-11T18:58:00Z,32.87,-114.4,17.5,8.5,150,5,,10.0,30.059055,1017.9,,TRUE,TRUE,TRUE,,,,,,CLR,,,,,,,,VFR,,,,,,,,,,,,METAR,118.0
KINS 111858Z AUTO 32003KT 10SM FEW140 SCT180 07/M15 A3001 RMK AO2 SLP158 T00681146 $,KINS,2020-12-11T18:58:00Z,36.58,-115.68,6.8,-14.6,320,3,,10.0,30.008858,1015.8,,TRUE,TRUE,TRUE,,,,,,FEW,14000,SCT,18000,,,,,VFR,,,,,,,,,,,,SPECI,954.0
KHUA 111858Z 24005KT 10SM SCT045 18/09 A3005 RMK AO2A SLPNO PWINO PNO FZRANO TSNO$,KHUA,2020-12-11T18:58:00Z,34.68,-86.68,18.0,9.0,240,5,,10.0,30.050198,,,,TRUE,TRUE,,TRUE,TRUE,TRUE,,SCT,4500,,,,,,,VFR,,,,,,,,,,,,METAR,200.0
KHMN 111858Z AUTO 18006KT 10SM CLR 12/02 A2999 RMK AO2 SLP122 T01230024 $,KHMN,2020-12-11T18:58:00Z,32.85,-106.1,12.3,2.4,180,6,,10.0,29.991142,1012.2,,TRUE,TRUE,TRUE,,,,,,CLR,,,,,,,,VFR,,,,,,,,,,,,METAR,1240.0
KHIF 111858Z 22005KT 5SM -SN BR SCT017 SCT030 BKN039 OVC047 M01/M05 A3001 RMK AO2A SLP180 P0000 T10121054,KHIF,2020-12-11T18:58:00Z,41.12,-111.97,-1.2,-5.4,220,5,,5.0,30.008858,1018.0,,,TRUE,,,,,,-SN BR,SCT,1700,SCT,3000,BKN,3900,OVC,4700,MVFR,,,,,,0.005,,,,,,SPECI,1461.0
KHEY 111858Z AUTO 00000KT 9SM SCT041 20/11 A3010 RMK AO2 SLP195 T01970108,KHEY,2020-12-11T18:58:00Z,31.35,-85.65,19.7,10.8,0,0,,9.0,30.100393,1019.5,,TRUE,TRUE,,,,,,,SCT,4100,,,,,,,VFR,,,,,,,,,,,,SPECI,95.0
KGXF 111858Z AUTO 04005KT 10SM CLR 16/09 A3007 RMK AO2 SLP179 T01610091,KGXF,2020-12-11T18:58:00Z,32.88,-112.72,16.1,9.1,40,5,,10.0,30.070866,1017.9,,TRUE,TRUE,,,,,,,CLR,,,,,,,,VFR,,,,,,,,,,,,SPECI,261.0
KGRF 111858Z AUTO 00000KT 10SM FEW130 05/05 A3006 RMK AO2 SLP185 T00540054 $,KGRF,2020-12-11T18:58:00Z,47.07,-122.57,5.4,5.4,0,0,,10.0,30.059055,1018.5,,TRUE,TRUE,TRUE,,,,,,FEW,13000,,,,,,,VFR,,,,,,,,,,,,METAR,91.0
KGOV 111858Z AUTO 03007KT 10SM OVC017 03/00 A3002 RMK AO2 SLP185 T00330000 $,KGOV,2020-12-11T18:58:00Z,44.68,-84.73,3.3,0.0,30,7,,10.0,30.02067,1018.5,,TRUE,TRUE,TRUE,,,,,,OVC,1700,,,,,,,MVFR,,,,,,,,,,,,SPECI,350.0
KGFA 111858Z AUTO 06003KT 10SM OVC008 M04/M04 A3003 RMK AO2 SLP220 T10381036 $,KGFA,2020-12-11T18:58:00Z,47.5,-111.18,-3.8,-3.6,60,3,,10.0,30.029528,1022.0,,TRUE,TRUE,TRUE,,,,,,OVC,800,,,,,,,IFR,,,,,,,,,,,,METAR,1058.0
KFEW 111858Z AUTO 13005KT 4SM -SN BKN034 BKN080 M07/M09 A2991 RMK AO2 SLP185 T10681089 $,KFEW,2020-12-11T18:58:00Z,41.13,-104.87,-6.8,-8.9,130,5,,4.0,29.911417,1018.5,,TRUE,TRUE,TRUE,,,,,-SN,BKN,3400,BKN,8000,,,,,MVFR,,,,,,,,,,,,METAR,1877.0
KEUF 111858Z AUTO 19004KT 10SM CLR 19/11 A3013 RMK AO2 SLP200 I1000 T01890106,KEUF,2020-12-11T18:58:00Z,31.95,-85.13,18.9,10.6,190,4,,10.0,30.129921,1020.0,,TRUE,TRUE,,,,,,,CLR,,,,,,,,VFR,,,,,,,,,,,,METAR,87.0
KEDW 111858Z 27020KT 80SM SCT160 SCT200 16/M08 A3001 RMK AO2A SLP157 T01571079,KEDW,2020-12-11T18:58:00Z,34.9,-117.87,15.7,-7.9,270,20,,80.0,30.008858,1015.7,,,TRUE,,,,,,,SCT,16000,SCT,20000,,,,,VFR,,,,,,,,,,,,METAR,698.0
KDMA 111858Z AUTO 17004KT 10SM CLR 15/06 A3009 RMK AO2 SLP172 T01480056 FZRANO $,KDMA,2020-12-11T18:58:00Z,32.17,-110.88,14.8,5.6,170,4,,10.0,30.088583,1017.2,,TRUE,TRUE,TRUE,,,TRUE,,,CLR,,,,,,,,VFR,,,,,,,,,,,,METAR,804.0
KCVS 111858Z AUTO 26022G28KT 10SM SCT055 13/M02 A2984 RMK AO2 PK WND 25032/33 SLP088 T01251018 $,KCVS,2020-12-11T18:58:00Z,34.37,-103.32,12.5,-1.8,260,22,28,10.0,29.840551,1008.8,,TRUE,TRUE,TRUE,,,,,,SCT,5500,,,,,,,VFR,,,,,,,,,,,,METAR,1305.0
KCFO 111858Z 04005KT 4SM -SNFG BKN008 OVC032 M03/M05 A2990,KCFO,2020-12-11T18:58:00Z,39.78,-104.55,-3.0,-5.0,40,5,,4.0,29.899607,,,,,,,,,,-SN FG,BKN,800,OVC,3200,,,,,IFR,,,,,,,,,,,,METAR,1672.0
KBYS 111858Z AUTO 06003KT 10SM BKN140 BKN170 10/M09 A3004 RMK AO2 SLP170 T01011091 $,KBYS,2020-12-11T18:58:00Z,35.28,-116.63,10.1,-9.1,60,3,,10.0,30.041338,1017.0,,TRUE,TRUE,TRUE,,,,,,BKN,14000,BKN,17000,,,,,VFR,,,,,,,,,,,,METAR,717.0
KBKF 111858Z 03007KT 3SM -SN BR SCT010 OVC020 M04/M05 A2989 RMK AO2A TWR VIS 1 1/2 SLP151 P0000 T10381054,KBKF,2020-12-11T18:58:00Z,39.72,-104.75,-3.8,-5.4,30,7,,3.0,29.890747,1015.1,,,TRUE,,,,,,-SN BR,SCT,1000,OVC,2000,,,,,MVFR,,,,,,0.005,,,,,,SPECI,1703.0
KBIF 111858Z AUTO 24021G28KT 9SM CLR 13/02 A3000 RMK AO2 PK WND 25028/53 SLP127 T01330022 $,KBIF,2020-12-11T18:58:00Z,31.85,-106.38,13.3,2.2,240,21,28,9.0,30.0,1012.7,,TRUE,TRUE,TRUE,,,,,,CLR,,,,,,,,VFR,,,,,,,,,,,,METAR,1201.0
KBAB 111858Z AUTO 00000KT 9SM BKN100 BKN120 OVC140 10/02 A3017 RMK AO2 DZB05E30 SLP220 P0004 T01010020 $,KBAB,2020-12-11T18:58:00Z,39.13,-121.43,10.1,2.0,0,0,,9.0,30.171259,1022.0,,TRUE,TRUE,TRUE,,,,,,BKN,10000,BKN,12000,OVC,14000,,,VFR,,,,,,0.04,,,,,,METAR,31.0
KAPG 111858Z 21008KT 10SM SCT200 13/05 A3012 RMK AO2A SLP203 T01330052 $,KAPG,2020-12-11T18:58:00Z,39.47,-76.17,13.3,5.2,210,8,,10.0,30.121063,1020.3,,,TRUE,TRUE,,,,,,SCT,20000,,,,,,,VFR,,,,,,,,,,,,METAR,18.0
KAFF 111858Z 02010KT 7SM -SN FEW004 BKN014 OVC035 M03/M07 A2981 RMK AO2A SLP134 T10341069,KAFF,2020-12-11T18:58:00Z,38.97,-104.82,-3.4,-6.9,20,10,,7.0,29.811024,1013.4,,,TRUE,,,,,,-SN,FEW,400,BKN,1400,OVC,3500,,,MVFR,,,,,,,,,,,,METAR,2003.0
K9L2 111858Z AUTO 27015KT 6SM HZ FEW160 16/M12 A3003 RMK AO2 PK WND 28027/08 SLP164 T01561117,K9L2,2020-12-11T18:58:00Z,34.98,-117.87,15.6,-11.7,270,15,,6.0,30.029528,1016.4,,TRUE,TRUE,,,,,,HZ,FEW,16000,,,,,,,VFR,,,,,,,,,,,,METAR,697.0
K4MR 111858Z AUTO 29022G31KT 10SM SCT065 13/M04 A2985 RMK AO2 PK WND 28031/47 SLP087 T01341044 $,K4MR,2020-12-11T18:58:00Z,34.3,-103.8,13.4,-4.4,290,22,31,10.0,29.84941,1008.7,,TRUE,TRUE,TRUE,,,,,,SCT,6500,,,,,,,VFR,,,,,,,,,,,,METAR,1339.0
K1YT 111858Z AUTO 00000KT 10SM OVC010 01/M01 A3003 RMK AO2 SLPNO T00131007 $,K1YT,2020-12-11T18:58:00Z,46.67,-120.45,1.3,-0.7,0,0,,10.0,30.029528,,,TRUE,TRUE,TRUE,,,,,,OVC,1000,,,,,,,MVFR,,,,,,,,,,,,METAR,423.0
K1OW 111858Z AUTO 06007KT 1 7/8SM -SN FEW010 OVC030 M05/M07 A2990 RMK AO2 VIS 1 3/4V2 1/2 SLP182 P0001 T10521072 $,K1OW,2020-12-11T18:58:00Z,40.88,-104.0,-5.2,-7.2,60,7,,1.88,29.899607,1018.2,,TRUE,TRUE,TRUE,,,,,-SN,FEW,1000,OVC,3000,,,,,IFR,,,,,,0.01,,,,,,SPECI,1650.0
K1OM 111858Z AUTO 00000KT 1/4SM FZFG VV003 M04/M05 A3000 RMK AO2 SLP216 T10431049 $,K1OM,2020-12-11T18:58:00Z,47.33,-108.93,-4.3,-4.9,0,0,,0.25,30.0,1021.6,,TRUE,TRUE,TRUE,,,,,FZFG,OVX,0,,,,,,,LIFR,,,,,,,,,,,300,METAR,1088.0
K1NW 111858Z AUTO 03008KT 1 7/8SM -SN FEW008 OVC023 M04/M06 A2991 RMK AO2 SLP167 P0001 T10431063 $,K1NW,2020-12-11T18:58:00Z,40.63,-103.83,-4.3,-6.3,30,8,,1.88,29.911417,1016.7,,TRUE,TRUE,TRUE,,,,,-SN,FEW,800,OVC,2300,,,,,IFR,,,,,,0.01,,,,,,METAR,1461.0
K1NM 111858Z AUTO 06005KT 1 3/4SM BR BKN003 M03/M03 A2997 RMK AO2 VIS 1 3/4V10 SLP208 T10341032 $,K1NM,2020-12-11T18:58:00Z,47.07,-109.03,-3.4,-3.2,60,5,,1.75,29.970472,1020.8,,TRUE,TRUE,TRUE,,,,,BR,BKN,300,,,,,,,LIFR,,,,,,,,,,,,METAR,1169.0
K1MW 111858Z AUTO 02009KT 6SM -SN SCT010 BKN024 OVC050 M03/M05 A2994 RMK AO2 SLP177 P0001 T10291050 $,K1MW,2020-12-11T18:58:00Z,40.7,-103.48,-2.9,-5.0,20,9,,6.0,29.940945,1017.7,,TRUE,TRUE,TRUE,,,,,-SN,SCT,1000,BKN,2400,OVC,5000,,,MVFR,,,,,,0.01,,,,,,METAR,1338.0
K1LW 111858Z AUTO 02007KT 10SM -SN BKN031 M04/M05 A2994 RMK AO2 SHSNE17SNB17 SLP185 T10361055 $,K1LW,2020-12-11T18:58:00Z,40.92,-103.7,-3.6,-5.5,20,7,,10.0,29.940945,1018.5,,TRUE,TRUE,TRUE,,,,,-SN,BKN,3100,,,,,,,VFR,,,,,,,,,,,,SPECI,1514.0
K1LM 111858Z AUTO 01006KT 10SM OVC002 M04/M05 A2994 RMK AO2 SLP199 T10451055 $,K1LM,2020-12-11T18:58:00Z,46.7,-109.73,-4.5,-5.5,10,6,,10.0,29.940945,1019.9,,TRUE,TRUE,TRUE,,,,,,OVC,200,,,,,,,LIFR,,,,,,,,,,,,METAR,1417.0
K1KM 111858Z AUTO 11007KT 10SM FEW011 BKN040 M01/M05 A2996 RMK AO2 SLP196 T10151049 $,K1KM,2020-12-11T18:58:00Z,46.45,-109.8,-1.5,-4.9,110,7,,10.0,29.958662,1019.6,,TRUE,TRUE,TRUE,,,,,,FEW,1100,BKN,4000,,,,,VFR,,,,,,,,,,,,METAR,1332.0
K1IM 111858Z AUTO 00000KT 10SM OVC007 M04/M04 A3001 RMK AO2 SNB01E08FZDZB08E20SNB20E22SHSNB22E30 SLP236 T10451044 $,K1IM,2020-12-11T18:58:00Z,47.32,-111.47,-4.5,-4.4,0,0,,10.0,30.008858,1023.6,,TRUE,TRUE,TRUE,,,,,,OVC,700,,,,,,,IFR,,,,,,,,,,,,METAR,1110.0
K1HW 111858Z AUTO 02008KT 10SM BKN050 M01/M06 A2995 RMK AO2 SLP176 T10071064 $,K1HW,2020-12-11T18:58:00Z,41.32,-102.83,-0.7,-6.4,20,8,,10.0,29.949802,1017.6,,TRUE,TRUE,TRUE,,,,,,BKN,5000,,,,,,,VFR,,,,,,,,,,,,SPECI,1265.0
K1HM 111858Z AUTO 01005KT 5/8SM -SHSN FZFG OVC002 M05/M07 A3001 RMK AO2 SHSNB1757 SLP220 T10551067 $,K1HM,2020-12-11T18:58:00Z,47.7,-111.95,-5.5,-6.7,10,5,,0.63,30.008858,1022.0,,TRUE,TRUE,TRUE,,,,,-SHSN FZFG,OVC,200,,,,,,,LIFR,,,,,,,,,,,,METAR,1181.0
K1GM 111858Z AUTO 01005KT 3/8SM -FZRA FZFG VV002 M06/M07 A2996 RMK AO2 SLP202 T10621066 $,K1GM,2020-12-11T18:58:00Z,47.33,-112.1,-6.2,-6.6,10,5,,0.38,29.958662,1020.2,,TRUE,TRUE,TRUE,,,,,-FZRA FZFG,OVX,0,,,,,,,LIFR,,,,,,,,,,,200,METAR,1317.0
K1FW 111858Z AUTO 03005KT 5SM -SN CLR M03/M06 A2994 RMK AO2 SNB57 SLP170 T10281057 $,K1FW,2020-12-11T18:58:00Z,41.37,-103.48,-2.8,-5.7,30,5,,5.0,29.940945,1017.0,,TRUE,TRUE,TRUE,,,,,-SN,CLR,,,,,,,,MVFR,,,,,,,,,,,,METAR,1451.0
K1EM 111858Z AUTO 05005KT 1/8SM FZFG VV002 M03/M04 A2999 RMK AO2 SNB37E40SHSNB40E52SNB52E52 SLP217 T10351037 $,K1EM,2020-12-11T18:58:00Z,47.45,-109.42,-3.5,-3.7,50,5,,0.13,29.991142,1021.7,,TRUE,TRUE,TRUE,,,,,FZFG,OVX,0,,,,,,,LIFR,,,,,,,,,,,200,METAR,1118.0
K1DM 111858Z AUTO 09003KT 1SM BR BKN002 M04/M05 A2997 RMK AO2 VIS 1V2 3/4 SNB33E37SHSNB37E48SNB48E49 SLP218 T10411047 $,K1DM,2020-12-11T18:58:00Z,47.37,-109.8,-4.1,-4.7,90,3,,1.0,29.970472,1021.8,,TRUE,TRUE,TRUE,,,,,BR,BKN,200,,,,,,,LIFR,,,,,,,,,,,,METAR,1093.0
K1CW 111858Z AUTO 01005KT 7SM -SN FEW015 BKN037 M03/M06 A3000 RMK AO2 SNB26 SLP189 T10281057 $,K1CW,2020-12-11T18:58:00Z,41.58,-103.57,-2.8,-5.7,10,5,,7.0,30.0,1018.9,,TRUE,TRUE,TRUE,,,,,-SN,FEW,1500,BKN,3700,,,,,VFR,,,,,,,,,,,,SPECI,1370.0
K1CM 111858Z AUTO 00000KT 10SM BKN005 BKN028 M05/M06 A2997 RMK AO2 SLP213 T10541060 $,K1CM,2020-12-11T18:58:00Z,47.1,-110.17,-5.4,-6.0,0,0,,10.0,29.970472,1021.3,,TRUE,TRUE,TRUE,,,,,,BKN,500,BKN,2800,,,,,IFR,,,,,,,,,,,,METAR,1338.0
K1BW 111858Z AUTO 02005KT 10SM SCT008 BKN043 M05/M07 A2995 RMK AO2 SNE03 SLP194 T10471075 $,K1BW,2020-12-11T18:58:00Z,41.52,-104.0,-4.7,-7.5,20,5,,10.0,29.949802,1019.4,,TRUE,TRUE,TRUE,,,,,,SCT,800,BKN,4300,,,,,VFR,,,,,,,,,,,,SPECI,1606.0
K1BM 111858Z AUTO 00000KT 10SM OVC004 M05/M05 A2998 RMK AO2 SLP219 T10491050 $,K1BM,2020-12-11T18:58:00Z,47.28,-110.37,-4.9,-5.0,0,0,,10.0,29.97933,1021.9,,TRUE,TRUE,TRUE,,,,,,OVC,400,,,,,,,LIFR,,,,,,,,,,,,METAR,1234.0
K1AM 111858Z AUTO 00000KT 10SM OVC009 M05/M05 A2999 RMK AO2 CIG 007V009 SLP160 T10541048 $,K1AM,2020-12-11T18:58:00Z,47.28,-110.8,-5.4,-4.8,0,0,,10.0,29.991142,1016.0,,TRUE,TRUE,TRUE,,,,,,OVC,900,,,,,,,IFR,,,,,,,,,,,,METAR,1228.0
K0J4 111858Z AUTO 00000KT 10SM FEW035 SCT044 21/11 A3012 RMK AO2 SLP199 T02060111,K0J4,2020-12-11T18:58:00Z,31.05,-86.32,20.6,11.1,0,0,,10.0,30.121063,1019.9,,TRUE,TRUE,,,,,,,FEW,3500,SCT,4400,,,,,VFR,,,,,,,,,,,,SPECI,96.0
PHNG 111857Z 05006KT 10SM FEW030 25/19 A3007 RMK AO2 SLP177 T02500194 PNO $,PHNG,2020-12-11T18:57:00Z,21.43,-157.77,25.0,19.4,50,6,,10.0,30.070866,1017.7,,,TRUE,TRUE,,,,,,FEW,3000,,,,,,,VFR,,,,,,,,,,,,SPECI,1.0
PAYA 111857Z AUTO 02003KT 3SM BR CLR M03/M03 A3006 RMK AO2 T10281028 TSNO,PAYA,2020-12-11T18:57:00Z,59.52,-139.67,-2.8,-2.8,20,3,,3.0,30.059055,,,TRUE,TRUE,,,TRUE,,,BR,CLR,,,,,,,,MVFR,,,,,,,,,,,,METAR,9.0
KP58 111857Z AUTO 36008KT 06/03 A2998 RMK AO1 SLP159 T00560028,KP58,2020-12-11T18:57:00Z,44.02,-82.8,5.6,2.8,360,8,,,29.97933,1015.9,,TRUE,TRUE,,,,,,,,,,,,,,,,,,,,,,,,,,,SPECI,180.0
KNYL 111857Z 19005KT 7SM OVC011 14/13 A3008 RMK AO2 SLP183 T01440128 $,KNYL,2020-12-11T18:57:00Z,32.65,-114.62,14.4,12.8,190,5,,7.0,30.079725,1018.3,,,TRUE,TRUE,,,,,,OVC,1100,,,,,,,MVFR,,,,,,,,,,,,METAR,58.0
KNJW 111857Z AUTO 16006KT 10SM SCT041 19/11 A3000 RMK AO2 SLP963 T01890111,KNJW,2020-12-11T18:57:00Z,32.78,-88.82,18.9,11.1,160,6,,10.0,30.0,996.3,,TRUE,TRUE,,,,,,,SCT,4100,,,,,,,VFR,,,,,,,,,,,,METAR,165.0
KNJM 111857Z AUTO 10SM SCT050 BKN060 19/15 A3016 RMK AO2 SLP217 T01890150,KNJM,2020-12-11T18:57:00Z,34.68,-77.02,18.9,15.0,,,,10.0,30.159449,1021.7,,TRUE,TRUE,,,,,,,SCT,5000,BKN,6000,,,,,VFR,,,,,,,,,,,,SPECI,5.0
KMUI 111857Z VRB03KT 8SM BKN250 11/04 A3009 RMK SLPNO WND DATA ESTMD ALSTG ESTMD $,KMUI,2020-12-11T18:57:00Z,40.43,-76.57,11.0,4.0,0,3,,8.0,30.088583,,,,,TRUE,,,,,,BKN,25000,,,,,,,VFR,,,,,,,,,,,,METAR,146.0
KMFR 111857Z 00000KT 3SM BR OVC005 03/01 A3015 RMK AO2 T00280006,KMFR,2020-12-11T18:57:00Z,42.38,-122.87,2.8,0.6,0,0,,3.0,30.15059,,,,TRUE,,,,,,BR,OVC,500,,,,,,,IFR,,,,,,,,,,,,METAR,397.0
KFLG 111857Z 23013KT 10SM CLR 06/M03 A3004 RMK AO2 SLP144 T00561033 $,KFLG,2020-12-11T18:57:00Z,35.13,-111.67,5.6,-3.3,230,13,,10.0,30.041338,1014.4,,,TRUE,TRUE,,,,,,CLR,,,,,,,,VFR,,,,,,,,,,,,SPECI,2134.0
KAQV 111857Z AUTO 17008G17KT 140V200 10SM FEW036 FEW065 22/13 A2992 RMK AO2 SLP132 T02170133,KAQV,2020-12-11T18:57:00Z,31.4,-93.3,21.7,13.3,170,8,17,10.0,29.920275,1013.2,,TRUE,TRUE,,,,,,,FEW,3600,FEW,6500,,,,,VFR,,,,,,,,,,,,METAR,123.0
TJSJ 111856Z 08012KT 10SM FEW030 SCT050 BKN085 27/22 A2994 RMK AO2 SLP139 VCSH S W T02720222,TJSJ,2020-12-11T18:56:00Z,18.43,-66.02,27.2,22.2,80,12,,10.0,29.940945,1013.9,,,TRUE,,,,,,,FEW,3000,SCT,5000,BKN,8500,,,VFR,,,,,,,,,,,,SPECI,3.0
ROTM 111856Z 35007KT 9999 FEW050 BKN080 19/16 A2993 RMK SLP122 T01890156,ROTM,2020-12-11T18:56:00Z,26.27,127.75,18.9,15.6,350,7,,6.21,29.929134,1012.2,,,,,,,,,,FEW,5000,BKN,8000,,,,,VFR,,,,,,,,,,,,SPECI,80.0
RODN 111856Z 35007KT 10SM BKN055 19/17 A2991 RMK AO2A RAB07E20 SLP135 P0001 T01880169 $,RODN,2020-12-11T18:56:00Z,26.35,127.77,18.8,16.9,350,7,,10.0,29.911417,1013.5,,,TRUE,TRUE,,,,,,BKN,5500,,,,,,,VFR,,,,,,0.01,,,,,,METAR,38.0
RKSG 111856Z 32008KT 6SM HZ BKN190 03/M04 A3012 RMK AO2A SLP203 T00301039 $,RKSG,2020-12-11T18:56:00Z,36.97,127.02,3.0,-3.9,320,8,,6.0,30.121063,1020.3,,,TRUE,TRUE,,,,,HZ,BKN,19000,,,,,,,VFR,,,,,,,,,,,,METAR,12.0
RKJK 111856Z 35015KT 10SM BKN180 07/01 A3008 RMK AO2A SLP191 T00680009 FZRANO $,RKJK,2020-12-11T18:56:00Z,35.9,126.62,6.8,0.9,350,15,,10.0,30.079725,1019.1,,,TRUE,TRUE,,,TRUE,,,BKN,18000,,,,,,,VFR,,,,,,,,,,,,METAR,8.0
RJTY 111856Z AUTO 00000KT 10SM SCT026 SCT034 09/05 A2989 RMK AO2 SLP127 T00850049 FZRANO $,RJTY,2020-12-11T18:56:00Z,35.75,139.33,8.5,4.9,0,0,,10.0,29.890747,1012.7,,TRUE,TRUE,TRUE,,,TRUE,,,SCT,2600,SCT,3400,,,,,VFR,,,,,,,,,,,,METAR,136.0
PMDY 111856Z AUTO 06007KT 6SM HZ OVC047 18/13 A3012 RMK AO2 SLP200 T01830128,PMDY,2020-12-11T18:56:00Z,28.22,-177.37,18.3,12.8,60,7,,6.0,30.121063,1020.0,,TRUE,TRUE,,,,,,HZ,OVC,4700,,,,,,,VFR,,,,,,,,,,,,METAR,6.0
PHNY 111856Z AUTO 00000KT 10SM CLR 22/21 A3014 RMK AO2 SLP188 T02220211,PHNY,2020-12-11T18:56:00Z,20.77,-156.95,22.2,21.1,0,0,,10.0,30.138779,1018.8,,TRUE,TRUE,,,,,,,CLR,,,,,,,,VFR,,,,,,,,,,,,SPECI,395.0
PHHI 111856Z AUTO 03004KT 10SM FEW046 23/20 A3009 RMK AO2 SLP181 T02270202 $,PHHI,2020-12-11T18:56:00Z,21.48,-158.05,22.7,20.2,30,4,,10.0,30.088583,1018.1,,TRUE,TRUE,TRUE,,,,,,FEW,4600,,,,,,,VFR,,,,,,,,,,,,METAR,246.0
PHBK 111856Z AUTO 16003KT 10SM CLR 27/19 A3007 RMK AO2 SLP185 T02670194,PHBK,2020-12-11T18:56:00Z,22.03,-159.78,26.7,19.4,160,3,,10.0,30.070866,1018.5,,TRUE,TRUE,,,,,,,CLR,,,,,,,,VFR,,,,,,,,,,,,METAR,5.0
PGUA 111856Z 08010KT 10SM FEW021 24/21 A2985 RMK AO2A SLP099 T02440209 $,PGUA,2020-12-11T18:56:00Z,13.57,144.92,24.4,20.9,80,10,,10.0,29.84941,1009.9,,,TRUE,TRUE,,,,,,FEW,2100,,,,,,,VFR,,,,,,,,,,,,METAR,159.0
PFYU 111856Z 03004KT 3SM -SN BR BKN030 OVC080 M17/M19 A3037 RMK AO2 SLP306 P0000 T11721194,PFYU,2020-12-11T18:56:00Z,66.57,-145.23,-17.2,-19.4,30,4,,3.0,30.369095,1030.6,,,TRUE,,,,,,-SN BR,BKN,3000,OVC,8000,,,,,MVFR,,,,,,0.005,,,,,,METAR,130.0
PFSH 111856Z AUTO 01014KT 10SM CLR M21/M23 A3020 RMK AO2 SLP226 T12111233 FZRANO,PFSH,2020-12-11T18:56:00Z,64.37,-161.22,-21.1,-23.3,10,14,,10.0,30.200787,1022.6,,TRUE,TRUE,,,,TRUE,,,CLR,,,,,,,,VFR,,,,,,,,,,,,METAR,6.0
PFNO 111856Z AUTO 06006KT 5SM HZ CLR M32/M36 A3041 RMK AO2 SLP390 T13221356 FZRANO,PFNO,2020-12-11T18:56:00Z,66.82,-161.02,-32.2,-35.6,60,6,,5.0,30.410433,1039.0,,TRUE,TRUE,,,,TRUE,,HZ,CLR,,,,,,,,MVFR,,,,,,,,,,,,METAR,14.0
PFKW 111856Z AUTO 04015G20KT 10SM CLR M15/M19 A2983 RMK AO2 SLP101 T11501189 FZRANO,PFKW,2020-12-11T18:56:00Z,60.8,-161.43,-15.0,-18.9,40,15,20,10.0,29.828741,1010.1,,TRUE,TRUE,,,,TRUE,,,CLR,,,,,,,,VFR,,,,,,,,,,,,METAR,4.0
PFKT 111856Z AUTO 07014KT 10SM CLR M17/M21 A3026 RMK AO2 SLP248 T11671211 FZRANO,PFKT,2020-12-11T18:56:00Z,65.33,-166.47,-16.7,-21.1,70,14,,10.0,30.259842,1024.8,,TRUE,TRUE,,,,TRUE,,,CLR,,,,,,,,VFR,,,,,,,,,,,,METAR,8.0
PFEL 111856Z AUTO 02017G25KT 10SM CLR M17/M22 A3018 RMK AO2 SLP227 T11671217 FZRANO,PFEL,2020-12-11T18:56:00Z,64.62,-162.27,-16.7,-21.7,20,17,25,10.0,30.180119,1022.7,,TRUE,TRUE,,,,TRUE,,,CLR,,,,,,,,VFR,,,,,,,,,,,,METAR,50.0
PAWS 111856Z AUTO 00000KT 10SM CLR M14/M17 A3008 RMK AO2 SLP195 T11441167 FZRANO,PAWS,2020-12-11T18:56:00Z,61.57,-149.53,-14.4,-16.7,0,0,,10.0,30.079725,1019.5,,TRUE,TRUE,,,,TRUE,,,CLR,,,,,,,,VFR,,,,,,,,,,,,METAR,102.0
PAWM 111856Z AUTO 01008KT 10SM CLR M19/M22 A3015 RMK AO2 SLP220 T11891217 FZRANO,PAWM,2020-12-11T18:56:00Z,64.68,-163.42,-18.9,-21.7,10,8,,10.0,30.15059,1022.0,,TRUE,TRUE,,,,TRUE,,,CLR,,,,,,,,VFR,,,,,,,,,,,,METAR,80.0
PAWG 111856Z 13003KT 10SM OVC050 03/01 A3013 RMK AO2 SLP205 T00280006,PAWG,2020-12-11T18:56:00Z,56.48,-132.37,2.8,0.6,130,3,,10.0,30.129921,1020.5,,,TRUE,,,,,,,OVC,5000,,,,,,,VFR,,,,,,,,,,,,METAR,6.0
PAVD 111856Z 04003KT 10SM FEW180 M12/M13 A3018 RMK AO2 SLP222 T11221128,PAVD,2020-12-11T18:56:00Z,61.13,-146.25,-12.2,-12.8,40,3,,10.0,30.180119,1022.2,,,TRUE,,,,,,,FEW,18000,,,,,,,VFR,,,,,,,,,,,,METAR,21.0
PAVC 111856Z AUTO 11026G34KT 5SM BR OVC013 03/01 A2929 RMK AO2 PK WND 12041/1801 RAE00 SLP920 P0012 T00280011,PAVC,2020-12-11T18:56:00Z,55.12,-162.27,2.8,1.1,110,26,34,5.0,29.291338,992.0,,TRUE,TRUE,,,,,,BR,OVC,1300,,,,,,,MVFR,,,,,,0.12,,,,,,METAR,48.0
PAUN 111856Z AUTO 08028G31KT 10SM CLR M19/M23 A3017 RMK AO2 PK WND 07033/1833 SLP221 T11891228 FZRANO,PAUN,2020-12-11T18:56:00Z,63.88,-160.8,-18.9,-22.8,80,28,31,10.0,30.171259,1022.1,,TRUE,TRUE,,,,TRUE,,,CLR,,,,,,,,VFR,,,,,,,,,,,,METAR,4.0
PATQ 111856Z AUTO 05014KT 6SM -SN BR OVC016 M21/M23 A3055 RMK AO2 SLP352 T12111233 FZRANO TSNO PNO $,PATQ,2020-12-11T18:56:00Z,70.47,-157.43,-21.1,-23.3,50,14,,6.0,30.549213,1035.2,,TRUE,TRUE,TRUE,,TRUE,TRUE,,-SN BR,OVC,1600,,,,,,,MVFR,,,,,,,,,,,,METAR,28.0
PATG 111856Z AUTO 01009KT 10SM CLR M04/M08 A2975 RMK AO2 SLP172 T10391078 FZRANO,PATG,2020-12-11T18:56:00Z,59.05,-160.38,-3.9,-7.8,10,9,,10.0,29.749016,1017.2,,TRUE,TRUE,,,,TRUE,,,CLR,,,,,,,,VFR,,,,,,,,,,,,METAR,1.0
PATE 111856Z AUTO 10009KT 10SM CLR M22/M24 A3021 RMK AO2 SLP243 T12171244 FZRANO,PATE,2020-12-11T18:56:00Z,65.23,-166.33,-21.7,-24.4,100,9,,10.0,30.209646,1024.3,,TRUE,TRUE,,,,TRUE,,,CLR,,,,,,,,VFR,,,,,,,,,,,,METAR,93.0
PASX 111856Z AUTO 07004KT 9SM CLR M09/M11 A3010 RMK AO2 SLP204 T10941106 FZRANO,PASX,2020-12-11T18:56:00Z,60.48,-151.05,-9.4,-10.6,70,4,,9.0,30.100393,1020.4,,TRUE,TRUE,,,,TRUE,,,CLR,,,,,,,,VFR,,,,,,,,,,,,METAR,28.0
PASM 111856Z AUTO 08021G27KT 10SM CLR M16/M20 A2990 RMK AO2 PK WND 07029/1824 SLP141 T11611200 FZRANO,PASM,2020-12-11T18:56:00Z,62.07,-163.3,-16.1,-20.0,80,21,27,10.0,29.899607,1014.1,,TRUE,TRUE,,,,TRUE,,,CLR,,,,,,,,VFR,,,,,,,,,,,,METAR,108.0
PASL 111856Z AUTO 00000KT 10SM CLR M22/M24 A3010 RMK AO2 SLP188 T12171239 FZRANO,PASL,2020-12-11T18:56:00Z,61.68,-157.15,-21.7,-23.9,0,0,,10.0,30.100393,1018.8,,TRUE,TRUE,,,,TRUE,,,CLR,,,,,,,,VFR,,,,,,,,,,,,METAR,64.0
PASD 111856Z 06015G28KT 010V150 6SM -RA BR OVC022 04/01 A2933 RMK AO2 PK WND 05036/1841 SLP933 P0000 T00390006 $,PASD,2020-12-11T18:56:00Z,55.33,-160.52,3.9,0.6,60,15,28,6.0,29.329725,993.3,,,TRUE,TRUE,,,,,-RA BR,OVC,2200,,,,,,,MVFR,,,,,,0.005,,,,,,METAR,6.0
PARC 111856Z AUTO 35003KT 3SM -SN BR OVC033 M23/M26 A3024 RMK AO2 SLP338 P0000 T12331256 FZRANO,PARC,2020-12-11T18:56:00Z,68.12,-145.58,-23.3,-25.6,350,3,,3.0,30.239174,1033.8,,TRUE,TRUE,,,,TRUE,,-SN BR,OVC,3300,,,,,,,MVFR,,,,,,0.005,,,,,,METAR,626.0
PAQH 111856Z AUTO 35012KT 10SM CLR M11/M14 A2973 RMK AO2 SLP069 T11111139 FZRANO,PAQH,2020-12-11T18:56:00Z,59.75,-161.85,-11.1,-13.9,350,12,,10.0,29.731298,1006.9,,TRUE,TRUE,,,,TRUE,,,CLR,,,,,,,,VFR,,,,,,,,,,,,METAR,8.0
PAPO 111856Z AUTO 09009KT 10SM CLR M21/M24 A3043 RMK AO2 SLP305 T12061244 FZRANO,PAPO,2020-12-11T18:56:00Z,68.35,-166.8,-20.6,-24.4,90,9,,10.0,30.431103,1030.5,,TRUE,TRUE,,,,TRUE,,,CLR,,,,,,,,VFR,,,,,,,,,,,,METAR,4.0
PAPM 111856Z AUTO 07018KT 10SM CLR M02/M09 A2967 RMK AO2 SLP050 T10221094 FZRANO,PAPM,2020-12-11T18:56:00Z,59.02,-161.82,-2.2,-9.4,70,18,,10.0,29.66929,1005.0,,TRUE,TRUE,,,,TRUE,,,CLR,,,,,,,,VFR,,,,,,,,,,,,METAR,4.0
PAPH 111856Z AUTO 12031G41KT 8SM UP CLR 02/M02 A2947 RMK AO2 PK WND 11042/1841 UPB40 PRESFR SLP981 T00221017 FZRANO PNO $,PAPH,2020-12-11T18:56:00Z,56.95,-158.62,2.2,-1.7,120,31,41,8.0,29.471457,998.1,,TRUE,TRUE,TRUE,,,TRUE,,UP,CLR,,,,,,,,VFR,,,,,,,,,,,,METAR,29.0
PAPG 111856Z 00000KT 10SM OVC048 01/00 A3012 RMK AO2 SLP204 T00110000,PAPG,2020-12-11T18:56:00Z,56.82,-132.93,1.1,0.0,0,0,,10.0,30.121063,1020.4,,,TRUE,,,,,,,OVC,4800,,,,,,,VFR,,,,,,,,,,,,METAR,24.0
PAOU 111856Z AUTO 17024KT 10SM CLR 03/M02 A2937 RMK AO2 PK WND 17034/1759 SLP946 T00281017 PNO $,PAOU,2020-12-11T18:56:00Z,56.0,-161.17,2.8,-1.7,170,24,,10.0,29.371063,994.6,,TRUE,TRUE,TRUE,,,,,,CLR,,,,,,,,VFR,,,,,,,,,,,,METAR,3.0
PAOO 111856Z AUTO 04020G29KT 10SM CLR M11/M18 A2980 RMK AO2 PK WND 03033/1837 SLP099 T11111178 FZRANO TSNO $,PAOO,2020-12-11T18:56:00Z,60.53,-165.08,-11.1,-17.8,40,20,29,10.0,29.799213,1009.9,,TRUE,TRUE,TRUE,,TRUE,TRUE,,,CLR,,,,,,,,VFR,,,,,,,,,,,,METAR,15.0
PANW 111856Z AUTO 01014G22KT 10SM OVC011 M15/M18 A2984 RMK AO2 SLP119 T11501178 FZRANO,PANW,2020-12-11T18:56:00Z,59.45,-157.32,-15.0,-17.8,10,14,22,10.0,29.840551,1011.9,,TRUE,TRUE,,,,TRUE,,,OVC,1100,,,,,,,MVFR,,,,,,,,,,,,METAR,100.0
PANV 111856Z AUTO 04017G24KT 10SM CLR M21/M24 A3007 RMK AO2 PK WND 05026/1808 SLP357 T12111239 FZRANO TSNO,PANV,2020-12-11T18:56:00Z,62.65,-160.18,-21.1,-23.9,40,17,24,10.0,30.070866,1035.7,,TRUE,TRUE,,,TRUE,TRUE,,,CLR,,,,,,,,VFR,,,,,,,,,,,,METAR,91.0
PANI 111856Z AUTO VRB04KT 10SM CLR M18/M22 A3005 RMK AO2 SLP171 T11781217 FZRANO,PANI,2020-12-11T18:56:00Z,61.58,-159.53,-17.8,-21.7,0,4,,10.0,30.050198,1017.1,,TRUE,TRUE,,,,TRUE,,,CLR,,,,,,,,VFR,,,,,,,,,,,,METAR,21.0
PAMK 111856Z AUTO 10011KT CLR M16/M19 A3011 RMK AO2 SLP198 T11611194 FZRANO $,PAMK,2020-12-11T18:56:00Z,63.48,-162.12,-16.1,-19.4,100,11,,,30.109253,1019.8,,TRUE,TRUE,TRUE,,,TRUE,,,CLR,,,,,,,,,,,,,,,,,,,,METAR,31.0
PAMH 111856Z AUTO 00000KT 9SM -SN OVC011 M20/M22 A3017 RMK AO2 SNB10 SLP235 P0000 T12001222 FZRANO,PAMH,2020-12-11T18:56:00Z,63.9,-152.28,-20.0,-22.2,0,0,,9.0,30.171259,1023.5,,TRUE,TRUE,,,,TRUE,,-SN,OVC,1100,,,,,,,MVFR,,,,,,0.005,,,,,,METAR,200.0
PAKP 111856Z AUTO 04005KT 9SM -SN OVC070 M24/M27 A3019 RMK AO2 SLP324 P0000 T12441272 FZRANO,PAKP,2020-12-11T18:56:00Z,68.13,-151.73,-24.4,-27.2,40,5,,9.0,30.188976,1032.4,,TRUE,TRUE,,,,TRUE,,-SN,OVC,7000,,,,,,,VFR,,,,,,0.005,,,,,,METAR,649.0
PAKH 111856Z AUTO OVC022 A2972 RMK AO2 SLPNO PWINO FZRANO $,PAKH,2020-12-11T18:56:00Z,56.93,-154.18,,,,,,,29.719488,,,TRUE,TRUE,TRUE,,,TRUE,TRUE,,OVC,2200,,,,,,,,,,,,,,,,,,,METAR,15.0
PAJZ 111856Z AUTO 03012KT 8SM CLR M13/M17 A2993 RMK AO2 SLP141 T11281167 FZRANO $,PAJZ,2020-12-11T18:56:00Z,59.73,-157.27,-12.8,-16.7,30,12,,8.0,29.929134,1014.1,,TRUE,TRUE,TRUE,,,TRUE,,,CLR,,,,,,,,VFR,,,,,,,,,,,,METAR,80.0
PAIW 111856Z AUTO 07017KT 10SM CLR M21/M23 A3031 RMK AO2 SLP265 T12061228 FZRANO,PAIW,2020-12-11T18:56:00Z,65.62,-168.1,-20.6,-22.8,70,17,,10.0,30.31004,1026.5,,TRUE,TRUE,,,,TRUE,,,CLR,,,,,,,,VFR,,,,,,,,,,,,METAR,6.0
PAIN 111856Z AUTO 00000KT 10SM CLR M31/M33 A3008 RMK AO2 SLP264 T13061333 FZRANO,PAIN,2020-12-11T18:56:00Z,63.73,-148.92,-30.6,-33.3,0,0,,10.0,30.079725,1026.4,,TRUE,TRUE,,,,TRUE,,,CLR,,,,,,,,VFR,,,,,,,,,,,,METAR,525.0
PAIK 111856Z AUTO 36005KT 10SM CLR M33/M37 A3042 RMK AO2 SLP309 T13331367 FZRANO,PAIK,2020-12-11T18:56:00Z,66.98,-160.43,-33.3,-36.7,360,5,,10.0,30.41929,1030.9,,TRUE,TRUE,,,,TRUE,,,CLR,,,,,,,,VFR,,,,,,,,,,,,METAR,49.0
PAII 111856Z AUTO 05009KT 10SM CLR M10/M11 A2975 RMK AO2 SLP073 T11001111 FZRANO,PAII,2020-12-11T18:56:00Z,58.18,-157.38,-10.0,-11.1,50,9,,10.0,29.749016,1007.3,,TRUE,TRUE,,,,TRUE,,,CLR,,,,,,,,VFR,,,,,,,,,,,,METAR,31.0
PAIG 111856Z AUTO 05024G32KT 10SM CLR M01/M04 A2980 RMK AO2 PK WND 05034/1804 SLP101 T10111039 PWINO FZRANO $,PAIG,2020-12-11T18:56:00Z,59.32,-155.9,-1.1,-3.9,50,24,32,10.0,29.799213,1010.1,,TRUE,TRUE,TRUE,,,TRUE,TRUE,,CLR,,,,,,,,VFR,,,,,,,,,,,,METAR,24.0
PAHP 111856Z AUTO 08021G28KT 10SM CLR M13/M17 A2990 RMK AO2 PK WND 08031/1833 SLP125 T11281167 FZRANO $,PAHP,2020-12-11T18:56:00Z,61.52,-166.15,-12.8,-16.7,80,21,28,10.0,29.899607,1012.5,,TRUE,TRUE,TRUE,,,TRUE,,,CLR,,,,,,,,VFR,,,,,,,,,,,,METAR,8.0
PAGM 111856Z AUTO 06032G36KT 10SM OVC022 M07/M12 A3006 RMK AO2 PK WND 06039/1836 SNE45 SLP184 P0000 T10721117 FZRANO $,PAGM,2020-12-11T18:56:00Z,63.77,-171.73,-7.2,-11.7,60,32,36,10.0,30.059055,1018.4,,TRUE,TRUE,TRUE,,,TRUE,,,OVC,2200,,,,,,,MVFR,,,,,,0.005,,,,,,METAR,6.0
PAGL 111856Z AUTO 02014G17KT 10SM CLR M15/M20 A3016 RMK AO2 SLPNO T11501200 FZRANO,PAGL,2020-12-11T18:56:00Z,64.55,-163.0,-15.0,-20.0,20,14,17,10.0,30.159449,,,TRUE,TRUE,,,,TRUE,,,CLR,,,,,,,,VFR,,,,,,,,,,,,METAR,20.0
PAFE 111856Z AUTO 05004KT 10SM CLR M01/M01 A3012 RMK AO2 SLP213 T10061011 FZRANO $,PAFE,2020-12-11T18:56:00Z,56.97,-133.92,-0.6,-1.1,50,4,,10.0,30.121063,1021.3,,TRUE,TRUE,TRUE,,,TRUE,,,CLR,,,,,,,,VFR,,,,,,,,,,,,METAR,1.0
PAEI 111856Z 00000KT 10SM FEW002 M29/M33 A3025 RMK AO2A SLP268 T12871327,PAEI,2020-12-11T18:56:00Z,64.67,-147.1,-28.7,-32.7,0,0,,10.0,30.250984,1026.8,,,TRUE,,,,,,,FEW,200,,,,,,,VFR,,,,,,,,,,,,METAR,166.0
PAED 111856Z 00000KT 10SM SCT006 SCT050 SCT200 M14/M16 A3006 RMK AO2A SLP178 T11451165 $,PAED,2020-12-11T18:56:00Z,61.25,-149.83,-14.5,-16.5,0,0,,10.0,30.059055,1017.8,,,TRUE,TRUE,,,,,,SCT,600,SCT,5000,SCT,20000,,,VFR,,,,,,,,,,,,METAR,54.0
PACM 111856Z AUTO 06013KT 10SM CLR M13/M17 A2998 RMK AO2 SLP148 T11331167 FZRANO PNO $,PACM,2020-12-11T18:56:00Z,61.85,-165.57,-13.3,-16.7,60,13,,10.0,29.97933,1014.8,,TRUE,TRUE,TRUE,,,TRUE,,,CLR,,,,,,,,VFR,,,,,,,,,,,,METAR,3.0
PABV 111856Z AUTO 14003KT 10SM CLR M14/M16 A3009 RMK AO2 SLP198 T11391156 FZRANO,PABV,2020-12-11T18:56:00Z,61.42,-149.52,-13.9,-15.6,140,3,,10.0,30.088583,1019.8,,TRUE,TRUE,,,,TRUE,,,CLR,,,,,,,,VFR,,,,,,,,,,,,METAR,21.0
OTBH 111856Z 33004KT 9999 CLR 17/12 A3012 RMK AO2A SLP201 T01740121,OTBH,2020-12-11T18:56:00Z,25.12,51.32,17.4,12.1,330,4,,6.21,30.121063,1020.1,,,TRUE,,,,,,,CLR,,,,,,,,VFR,,,,,,,,,,,,METAR,40.0
OEPS 111856Z AUTO 00000KT 9999 FEW120 15/00 A3029 RMK AO2 SLPNO WND DATA ESTMD T01480000,OEPS,2020-12-11T18:56:00Z,24.07,47.58,14.8,0.0,0,0,,6.21,30.28937,,,TRUE,TRUE,,,,,,,FEW,12000,,,,,,,VFR,,,,,,,,,,,,METAR,503.0
MHSC 111856Z 35010G15KT 9999 FEW080 27/16 A2997 RMK AO2A SLPNO WND DATA ESTMD ALSTG ESTMD RVRNO PWINO TSNO $,MHSC,2020-12-11T18:56:00Z,14.37,-87.62,27.0,16.0,350,10,15,6.21,29.970472,,,,TRUE,TRUE,,TRUE,,TRUE,,FEW,8000,,,,,,,VFR,,,,,,,,,,,,METAR,628.0
KYKN 111856Z AUTO 02009KT 10SM FEW023 03/M03 A2998 RMK AO2 SLP177 T00281028,KYKN,2020-12-11T18:56:00Z,42.92,-97.37,2.8,-2.8,20,9,,10.0,29.97933,1017.7,,TRUE,TRUE,,,,,,,FEW,2300,,,,,,,VFR,,,,,,,,,,,,METAR,388.0
KY50 111856Z AUTO 04015KT 10SM FEW020 OVC110 01/M03 A3004 RMK AO2 SLP180 T00111033 FZRANO $,KY50,2020-12-11T18:56:00Z,44.03,-89.3,1.1,-3.3,40,15,,10.0,30.041338,1018.0,,TRUE,TRUE,TRUE,,,TRUE,,,FEW,2000,OVC,11000,,,,,VFR,,,,,,,,,,,,METAR,261.0
KXNO 111856Z AUTO 14003KT 10SM CLR 20/17 A3015 RMK AO2 SLP213 T01950165 $,KXNO,2020-12-11T18:56:00Z,33.62,-81.07,19.5,16.5,140,3,,10.0,30.15059,1021.3,,TRUE,TRUE,TRUE,,,,,,CLR,,,,,,,,VFR,,,,,,,,,,,,METAR,94.0
KXMR 111856Z AUTO 01007KT 10SM FEW060 21/13 A3012 RMK AO2 SLP203 T02140128 $,KXMR,2020-12-11T18:56:00Z,28.47,-80.57,21.4,12.8,10,7,,10.0,30.121063,1020.3,,TRUE,TRUE,TRUE,,,,,,FEW,6000,,,,,,,VFR,,,,,,,,,,,,SPECI,5.0
KWWD 111856Z AUTO 19011KT 10SM CLR 14/08 A3015 RMK AO2 SLP213 T01390078 $,KWWD,2020-12-11T18:56:00Z,39.02,-74.92,13.9,7.8,190,11,,10.0,30.15059,1021.3,,TRUE,TRUE,TRUE,,,,,,CLR,,,,,,,,VFR,,,,,,,,,,,,METAR,4.0
KWVL 111856Z AUTO 21003KT 10SM CLR 04/M02 A3004 RMK AO2 SLP204 T00391017,KWVL,2020-12-11T18:56:00Z,44.52,-69.67,3.9,-1.7,210,3,,10.0,30.041338,1020.4,,TRUE,TRUE,,,,,,,CLR,,,,,,,,VFR,,,,,,,,,,,,METAR,87.0
KWRI 111856Z AUTO 20012G18KT 10SM CLR 15/04 A3010 RMK AO2 SLP193 T01510036 $,KWRI,2020-12-11T18:56:00Z,40.02,-74.58,15.1,3.6,200,12,18,10.0,30.100393,1019.3,,TRUE,TRUE,TRUE,,,,,,CLR,,,,,,,,VFR,,,,,,,,,,,,METAR,35.0
KWRB 111856Z 13006KT 10SM BKN250 20/07 A3011 RMK AO2A SLP199 T02040067,KWRB,2020-12-11T18:56:00Z,32.63,-83.58,20.4,6.7,130,6,,10.0,30.109253,1019.9,,,TRUE,,,,,,,BKN,25000,,,,,,,VFR,,,,,,,,,,,,SPECI,82.0
KWMC 111856Z AUTO 18009KT 10SM CLR 03/M09 A3008 RMK AO2 SLP198 T00281094,KWMC,2020-12-11T18:56:00Z,40.9,-117.8,2.8,-9.4,180,9,,10.0,30.079725,1019.8,,TRUE,TRUE,,,,,,,CLR,,,,,,,,VFR,,,,,,,,,,,,SPECI,1311.0
KWJF 111856Z 28019KT 10SM CLR 17/M12 A3007 RMK AO2 SLP178 T01721122,KWJF,2020-12-11T18:56:00Z,34.73,-118.22,17.2,-12.2,280,19,,10.0,30.070866,1017.8,,,TRUE,,,,,,,CLR,,,,,,,,VFR,,,,,,,,,,,,METAR,712.0
KVPZ 111856Z AUTO 05005KT 6SM HZ CLR 08/04 A2987 RMK AO2 SLP120 T00830044,KVPZ,2020-12-11T18:56:00Z,41.45,-87.0,8.3,4.4,50,5,,6.0,29.870079,1012.0,,TRUE,TRUE,,,,,,HZ,CLR,,,,,,,,VFR,,,,,,,,,,,,SPECI,235.0
KVPS 111856Z AUTO 13009KT 10SM SCT041 21/14 A3010 RMK AO2 SLP200 T02130135 $,KVPS,2020-12-11T18:56:00Z,30.47,-86.52,21.3,13.5,130,9,,10.0,30.100393,1020.0,,TRUE,TRUE,TRUE,,,,,,SCT,4100,,,,,,,VFR,,,,,,,,,,,,METAR,21.0
KVOK 111856Z 07009G14KT 10SM SCT023 OVC120 02/M02 A3002 RMK AO2A SLP179,KVOK,2020-12-11T18:56:00Z,43.93,-90.27,2.0,-2.0,70,9,14,10.0,30.02067,1017.9,,,TRUE,,,,,,,SCT,2300,OVC,12000,,,,,VFR,,,,,,,,,,,,METAR,278.0
KVIS 111856Z AUTO 27005KT 4SM HZ CLR 12/02 A3020 RMK AO2 SLP235 T01220017,KVIS,2020-12-11T18:56:00Z,36.32,-119.4,12.2,1.7,270,5,,4.0,30.200787,1023.5,,TRUE,TRUE,,,,,,HZ,CLR,,,,,,,,MVFR,,,,,,,,,,,,METAR,92.0
KVBT 111856Z AUTO 20007KT 10SM -RA OVC012 14/13 A2980 RMK AO2 RAB16 SLP090 T01390133 TSNO PNO $,KVBT,2020-12-11T18:56:00Z,36.35,-94.22,13.9,13.3,200,7,,10.0,29.799213,1009.0,,TRUE,TRUE,TRUE,,TRUE,,,-RA,OVC,1200,,,,,,,MVFR,,,,,,,,,,,,METAR,390.0
KVAD 111856Z AUTO 00000KT 10SM CLR 20/08 A3012 RMK AO2 SLP202 T02010075 $,KVAD,2020-12-11T18:56:00Z,30.97,-83.2,20.1,7.5,0,0,,10.0,30.121063,1020.2,,TRUE,TRUE,TRUE,,,,,,CLR,,,,,,,,VFR,,,,,,,,,,,,METAR,70.0
KUKI 111856Z AUTO 00000KT 10SM -RA OVC065 07/03 A3019 RMK AO2 RAE1758B48 SLP224 P0000 T00720033,KUKI,2020-12-11T18:56:00Z,39.12,-123.2,7.2,3.3,0,0,,10.0,30.188976,1022.4,,TRUE,TRUE,,,,,,-RA,OVC,6500,,,,,,,VFR,,,,,,0.005,,,,,,METAR,183.0
KUCP 111856Z AUTO VRB06KT 10SM CLR 16/03 RMK AO2 SLPNO T01560033 PWINO $,KUCP,2020-12-11T18:56:00Z,41.03,-80.42,15.6,3.3,0,6,,10.0,,,,TRUE,TRUE,TRUE,,,,TRUE,,CLR,,,,,,,,VFR,,,,,,,,,,,,METAR,313.0
KTVF 111856Z AUTO 06006KT 10SM OVC005 M04/M05 A3019 RMK AO2 SNB00E17 SLP245 P0000 T10391050 FZRANO,KTVF,2020-12-11T18:56:00Z,48.07,-96.17,-3.9,-5.0,60,6,,10.0,30.188976,1024.5,,TRUE,TRUE,,,,TRUE,,,OVC,500,,,,,,,IFR,,,,,,0.005,,,,,,METAR,339.0
KTTS 111856Z AUTO 01005KT 10SM SCT060 21/11 A3013 RMK AO2 SLP207 T02110111 $,KTTS,2020-12-11T18:56:00Z,28.58,-80.67,21.1,11.1,10,5,,10.0,30.129921,1020.7,,TRUE,TRUE,TRUE,,,,,,SCT,6000,,,,,,,VFR,,,,,,,,,,,,SPECI,1.0
KTPH 111856Z AUTO 15003KT 10SM CLR 03/M13 A3006 RMK AO2 SLP195 T00331133,KTPH,2020-12-11T18:56:00Z,38.05,-117.08,3.3,-13.3,150,3,,10.0,30.059055,1019.5,,TRUE,TRUE,,,,,,,CLR,,,,,,,,VFR,,,,,,,,,,,,SPECI,1647.0
KTIK 111856Z 32013KT 10SM SCT100 08/02 A2983 RMK AO2A SLP107 T00800016,KTIK,2020-12-11T18:56:00Z,35.4,-97.38,8.0,1.6,320,13,,10.0,29.828741,1010.7,,,TRUE,,,,,,,SCT,10000,,,,,,,VFR,,,,,,,,,,,,SPECI,387.0
KTDR 111856Z AUTO 19008KT 10SM CLR 23/12 A3011 RMK AO2 SLP200 T02340121 $,KTDR,2020-12-11T18:56:00Z,30.05,-85.52,23.4,12.1,190,8,,10.0,30.109253,1020.0,,TRUE,TRUE,TRUE,,,,,,CLR,,,,,,,,VFR,,,,,,,,,,,,METAR,4.0
KSZL 111856Z 17009KT 10SM OVC018 12/12 A2968 RMK AO2A RAE1756DZB1756E06RAB53 CIG 016 RWY01 SLP053 P0000 T01240124 $,KSZL,2020-12-11T18:56:00Z,38.73,-93.53,12.4,12.4,170,9,,10.0,29.681103,1005.3,,,TRUE,TRUE,,,,,,OVC,1800,,,,,,,MVFR,,,,,,0.005,,,,,,METAR,259.0
KSXT 111856Z AUTO 15006KT 10SM SCT032 OVC095 M01/M02 A3004 RMK AO2 SLP203 T10111022,KSXT,2020-12-11T18:56:00Z,42.6,-123.37,-1.1,-2.2,150,6,,10.0,30.041338,1020.3,,TRUE,TRUE,,,,,,,SCT,3200,OVC,9500,,,,,VFR,,,,,,,,,,,,SPECI,1151.0
KSVN 111856Z AUTO 16007KT 10SM CLR 21/09 A3012 RMK AO2 SLP203 T02110090 $,KSVN,2020-12-11T18:56:00Z,32.02,-81.12,21.1,9.0,160,7,,10.0,30.121063,1020.3,,TRUE,TRUE,TRUE,,,,,,CLR,,,,,,,,VFR,,,,,,,,,,,,METAR,13.0
KSUE 111856Z AUTO 03016KT 10SM OVC022 02/M03 A3008 RMK AO2 SLP190 T00171033 FZRANO,KSUE,2020-12-11T18:56:00Z,44.85,-87.42,1.7,-3.3,30,16,,10.0,30.079725,1019.0,,TRUE,TRUE,,,,TRUE,,,OVC,2200,,,,,,,MVFR,,,,,,,,,,,,METAR,215.0
KSSC 111856Z 18004KT 10SM BKN250 19/09 A3015 RMK AO2A SLP211 T01850087 $,KSSC,2020-12-11T18:56:00Z,33.97,-80.47,18.5,8.7,180,4,,10.0,30.15059,1021.1,,,TRUE,TRUE,,,,,,BKN,25000,,,,,,,VFR,,,,,,,,,,,,METAR,71.0
KSRC 111856Z AUTO 18012KT 10SM SCT036 17/12 A2987 RMK AO2 SLP115 T01720122,KSRC,2020-12-11T18:56:00Z,35.22,-91.73,17.2,12.2,180,12,,10.0,29.870079,1011.5,,TRUE,TRUE,,,,,,,SCT,3600,,,,,,,VFR,,,,,,,,,,,,METAR,80.0
KSPD 111856Z AUTO 35011KT M01/M02 A2985 RMK AO1 SLP112 P0003 T10061017,KSPD,2020-12-11T18:56:00Z,37.28,-102.62,-0.6,-1.7,350,11,,,29.84941,1011.2,,TRUE,TRUE,,,,,,,,,,,,,,,,,,,,,0.03,,,,,,METAR,1340.0
KSOP 111856Z AUTO 21006KT 10SM CLR 19/09 A3014 RMK AO2 SLP212 T01890094 PNO $,KSOP,2020-12-11T18:56:00Z,35.23,-79.4,18.9,9.4,210,6,,10.0,30.138779,1021.2,,TRUE,TRUE,TRUE,,,,,,CLR,,,,,,,,VFR,,,,,,,,,,,,METAR,135.0
KSMN 111856Z AUTO 00000KT 10SM OVC060 M04/M09 A3001 RMK AO2 SNE1759 SLP218 P0000 T10391094 FZRANO,KSMN,2020-12-11T18:56:00Z,45.12,-113.87,-3.9,-9.4,0,0,,10.0,30.008858,1021.8,,TRUE,TRUE,,,,TRUE,,,OVC,6000,,,,,,,VFR,,,,,,0.005,,,,,,METAR,1228.0
KSLG 111856Z AUTO 20011KT 10SM OVC009 14/13 A2978 RMK AO2 SLP083 T01390128 TSNO,KSLG,2020-12-11T18:56:00Z,36.2,-94.48,13.9,12.8,200,11,,10.0,29.778543,1008.3,,TRUE,TRUE,,,TRUE,,,,OVC,900,,,,,,,IFR,,,,,,,,,,,,METAR,361.0
KSLE 111856Z 18012KT 10SM -RA BKN017 OVC045 06/03 A3008 RMK AO2 SLP188 P0000 T00610033,KSLE,2020-12-11T18:56:00Z,44.9,-123.0,6.1,3.3,180,12,,10.0,30.079725,1018.8,,,TRUE,,,,,,-RA,BKN,1700,OVC,4500,,,,,MVFR,,,,,,0.005,,,,,,METAR,63.0
KSKF 111856Z 15003KT 10SM FEW016 BKN040 BKN120 22/17 A2984 RMK RAE1759 SLP101 P0000 T02180167 $,KSKF,2020-12-11T18:56:00Z,29.38,-98.57,21.8,16.7,150,3,,10.0,29.840551,1010.1,,,,TRUE,,,,,,FEW,1600,BKN,4000,BKN,12000,,,VFR,,,,,,0.005,,,,,,METAR,214.0
KSHV 111856Z 16014G23KT 10SM SCT055 BKN085 22/13 A2986 RMK AO2 SLP110 T02220133,KSHV,2020-12-11T18:56:00Z,32.45,-93.83,22.2,13.3,160,14,23,10.0,29.861221,1011.0,,,TRUE,,,,,,,SCT,5500,BKN,8500,,,,,VFR,,,,,,,,,,,,SPECI,70.0
KSGU 111856Z AUTO 23003KT 10SM CLR 08/M02 A3005 RMK AO2 SLP177 T00831022,KSGU,2020-12-11T18:56:00Z,37.03,-113.52,8.3,-2.2,230,3,,10.0,30.050198,1017.7,,TRUE,TRUE,,,,,,,CLR,,,,,,,,VFR,,,,,,,,,,,,METAR,877.0
KSGT 111856Z AUTO 17014KT 10SM CLR 18/12 A2989 RMK AO2 SLP123 T01830122,KSGT,2020-12-11T18:56:00Z,34.6,-91.57,18.3,12.2,170,14,,10.0,29.890747,1012.3,,TRUE,TRUE,,,,,,,CLR,,,,,,,,VFR,,,,,,,,,,,,METAR,67.0
KSGJ 111856Z 10008KT 10SM CLR 21/09 A3015 RMK AO2 SLP209 T02060089 $,KSGJ,2020-12-11T18:56:00Z,29.97,-81.33,20.6,8.9,100,8,,10.0,30.15059,1020.9,,,TRUE,TRUE,,,,,,CLR,,,,,,,,VFR,,,,,,,,,,,,METAR,2.0
KSGH 111856Z AUTO 20008KT 10SM CLR 16/04 A2995 RMK AO2 SLP145 T01610044,KSGH,2020-12-11T18:56:00Z,39.83,-83.83,16.1,4.4,200,8,,10.0,29.949802,1014.5,,TRUE,TRUE,,,,,,,CLR,,,,,,,,VFR,,,,,,,,,,,,METAR,318.0
KSFZ 111856Z AUTO 22006KT 10SM CLR 10/03 A3010 RMK AO2 SLP141 T01000028,KSFZ,2020-12-11T18:56:00Z,41.92,-71.5,10.0,2.8,220,6,,10.0,30.100393,1014.1,,TRUE,TRUE,,,,,,,CLR,,,,,,,,VFR,,,,,,,,,,,,METAR,129.0
KSFO 111856Z 36005KT 10SM FEW030 BKN200 12/06 A3021 RMK AO2 SLP229 T01220056,KSFO,2020-12-11T18:56:00Z,37.62,-122.37,12.2,5.6,360,5,,10.0,30.209646,1022.9,,,TRUE,,,,,,,FEW,3000,BKN,20000,,,,,VFR,,,,,,,,,,,,SPECI,2.0
KSFM 111856Z AUTO 22006KT 10SM CLR 05/M01 A3008 RMK AO2 SLP190 T00501006,KSFM,2020-12-11T18:56:00Z,43.38,-70.72,5.0,-0.6,220,6,,10.0,30.079725,1019.0,,TRUE,TRUE,,,,,,,CLR,,,,,,,,VFR,,,,,,,,,,,,METAR,70.0
KSDY 111856Z AUTO 03004KT 1/2SM FZFG OVC002 M06/M07 A3014 RMK AO2 SLP602 T10611067 FZRANO,KSDY,2020-12-11T18:56:00Z,47.7,-104.2,-6.1,-6.7,30,4,,0.5,30.138779,960.2,,TRUE,TRUE,,,,TRUE,,FZFG,OVC,200,,,,,,,LIFR,,,,,,,,,,,,METAR,600.0
KSDF 111856Z 20014G20KT 10SM FEW130 SCT200 BKN250 19/04 A2996 RMK AO2 SLP144 T01940039,KSDF,2020-12-11T18:56:00Z,38.18,-85.73,19.4,3.9,200,14,20,10.0,29.958662,1014.4,,,TRUE,,,,,,,FEW,13000,SCT,20000,BKN,25000,,,VFR,,,,,,,,,,,,SPECI,146.0
KSBP 111856Z 31006KT 10SM CLR 12/04 A3018 RMK AO2 SLP220 T01170044,KSBP,2020-12-11T18:56:00Z,35.23,-120.63,11.7,4.4,310,6,,10.0,30.180119,1022.0,,,TRUE,,,,,,,CLR,,,,,,,,VFR,,,,,,,,,,,,METAR,52.0
KRYM 111856Z AUTO 03007KT 10SM OVC009 M02/M04 A3015 RMK AO2 SLP229 T10161040 $,KRYM,2020-12-11T18:56:00Z,46.08,-94.37,-1.6,-4.0,30,7,,10.0,30.15059,1022.9,,TRUE,TRUE,TRUE,,,,,,OVC,900,,,,,,,IFR,,,,,,,,,,,,METAR,344.0
KRUT 111856Z AUTO 19005KT 10SM FEW090 10/01 A2999 RMK AO2 SLP157 T01000006 $,KRUT,2020-12-11T18:56:00Z,43.53,-72.95,10.0,0.6,190,5,,10.0,29.991142,1015.7,,TRUE,TRUE,TRUE,,,,,,FEW,9000,,,,,,,VFR,,,,,,,,,,,,METAR,238.0
KRKD 111856Z AUTO 22008KT 10SM OVC021 06/02 A3008 RMK AO2 SLP187 T00610022,KRKD,2020-12-11T18:56:00Z,44.07,-69.1,6.1,2.2,220,8,,10.0,30.079725,1018.7,,TRUE,TRUE,,,,,,,OVC,2100,,,,,,,MVFR,,,,,,,,,,,,METAR,15.0
KRDR 111856Z AUTO 09003KT 10SM OVC003 M05/M05 A3020 RMK AO2 CIG 002 RWY35 SLP247 T10471047 $,KRDR,2020-12-11T18:56:00Z,47.93,-97.4,-4.7,-4.7,90,3,,10.0,30.200787,1024.7,,TRUE,TRUE,TRUE,,,,,,OVC,300,,,,,,,LIFR,,,,,,,,,,,,METAR,276.0
KRDM 111856Z 17006KT 10SM FEW050 BKN075 OVC090 03/M04 A3004 RMK AO2 SLP189 T00331044,KRDM,2020-12-11T18:56:00Z,44.25,-121.15,3.3,-4.4,170,6,,10.0,30.041338,1018.9,,,TRUE,,,,,,,FEW,5000,BKN,7500,OVC,9000,,,VFR,,,,,,,,,,,,METAR,930.0
KRCA 111856Z AUTO 12005KT 10SM OVC080 01/M07 A3002 RMK AO2 SLP199 T00051068 $,KRCA,2020-12-11T18:56:00Z,44.15,-103.12,0.5,-6.8,120,5,,10.0,30.02067,1019.9,,TRUE,TRUE,TRUE,,,,,,OVC,8000,,,,,,,VFR,,,,,,,,,,,,METAR,993.0
KQVF 111856Z AUTO 13006KT 9999 CLR 27/23 A2987 RMK AO2 SLP117 WND DATA ESTMD T02730231,KQVF,2020-12-11T18:56:00Z,,,27.3,23.1,130,6,,6.21,29.870079,1011.7,,TRUE,TRUE,,,,,,,CLR,,,,,,,,VFR,,,,,,,,,,,,METAR,
KQRH 111856Z AUTO VRB03KT 9999 CLR 25/19 A3001 RMK AO2 SLP165 WND DATA ESTMD T02520190,KQRH,2020-12-11T18:56:00Z,,,25.2,19.0,0,3,,6.21,30.008858,1016.5,,TRUE,TRUE,,,,,,,CLR,,,,,,,,VFR,,,,,,,,,,,,METAR,
KQDG 111856Z AUTO 00000KT 9000 BR BKN043 BKN080 BKN100 03/02 A2985 RMK AO2 SLP110 P0001 T00330021 $,KQDG,2020-12-11T18:56:00Z,,,3.3,2.1,0,0,,5.59,29.84941,1011.0,,TRUE,TRUE,TRUE,,,,,BR,BKN,4300,BKN,8000,BKN,10000,,,VFR,,,,,,0.01,,,,,,METAR,
KQD3 111856Z AUTO M 9999 CLR 25/19 A3003 RMK AO2 SLP154 WND DATA ESTMD T02520194 $,KQD3,2020-12-11T18:56:00Z,,,25.2,19.4,,,,6.21,30.029528,1015.4,,TRUE,TRUE,TRUE,,,,,,CLR,,,,,,,,VFR,,,,,,,,,,,,METAR,
KQAZ 111856Z AUTO M 9999 CLR 28/M02 A2995 RMK AO2 SLP142 WND DATA ESTMD T02831018 $,KQAZ,2020-12-11T18:56:00Z,,,28.3,-1.8,,,,6.21,29.949802,1014.2,,TRUE,TRUE,TRUE,,,,,,CLR,,,,,,,,VFR,,,,,,,,,,,,SPECI,
KQAJ 111856Z VRB03KT 9999 CLR 12/09 A3016 RMK AO2A SLP226 WND DATA ESTMD T01150087,KQAJ,2020-12-11T18:56:00Z,,,11.5,8.7,0,3,,6.21,30.159449,1022.6,,,TRUE,,,,,,,CLR,,,,,,,,VFR,,,,,,,,,,,,METAR,
KPWG 111856Z AUTO 17003KT 7SM -RA 17/17 A2986 RMK AO2 SLP108 P0000 T01720172 $,KPWG,2020-12-11T18:56:00Z,31.48,-97.32,17.2,17.2,170,3,,7.0,29.861221,1010.8,,TRUE,TRUE,TRUE,,,,,-RA,,,,,,,,,,,,,,,0.005,,,,,,METAR,178.0
KPVU 111856Z 25004KT 10SM SCT050 01/M06 A3003 RMK AO2 SLP197 T00061061,KPVU,2020-12-11T18:56:00Z,40.22,-111.72,0.6,-6.1,250,4,,10.0,30.029528,1019.7,,,TRUE,,,,,,,SCT,5000,,,,,,,VFR,,,,,,,,,,,,METAR,1370.0
KPVC 111856Z AUTO 22015G20KT 10SM CLR 10/06 A3013 RMK AO2 SLP203 T01000056 $,KPVC,2020-12-11T18:56:00Z,42.07,-70.22,10.0,5.6,220,15,20,10.0,30.129921,1020.3,,TRUE,TRUE,TRUE,,,,,,CLR,,,,,,,,VFR,,,,,,,,,,,,METAR,1.0
KPTN 111856Z AUTO 13007KT 10SM OVC060 22/13 A3002 RMK AO2 SLP165 T02170133 $,KPTN,2020-12-11T18:56:00Z,29.72,-91.33,21.7,13.3,130,7,,10.0,30.02067,1016.5,,TRUE,TRUE,TRUE,,,,,,OVC,6000,,,,,,,VFR,,,,,,,,,,,,METAR,2.0
KPSM 111856Z 23005KT 10SM FEW200 OVC250 08/00 A3006 RMK AO2A SLP183 T00791001,KPSM,2020-12-11T18:56:00Z,43.08,-70.82,7.9,-0.1,230,5,,10.0,30.059055,1018.3,,,TRUE,,,,,,,FEW,20000,OVC,25000,,,,,VFR,,,,,,,,,,,,METAR,34.0
KPRX 111856Z AUTO 20010KT 10SM OVC004 16/15 A2984 RMK AO2 SLP119 P0005 T01560150,KPRX,2020-12-11T18:56:00Z,33.63,-95.45,15.6,15.0,200,10,,10.0,29.840551,1011.9,,TRUE,TRUE,,,,,,,OVC,400,,,,,,,LIFR,,,,,,0.05,,,,,,METAR,165.0
KPQI 111856Z AUTO 13003KT 10SM BKN110 00/M03 A3004 RMK AO2 SLP204 T00001028 PNO $,KPQI,2020-12-11T18:56:00Z,46.68,-68.05,0.0,-2.8,130,3,,10.0,30.041338,1020.4,,TRUE,TRUE,TRUE,,,,,,BKN,11000,,,,,,,VFR,,,,,,,,,,,,METAR,154.0
KPOB 111856Z AUTO 17003KT 10SM CLR 19/10 A3013 RMK AO2 SLP206 T01940096 $,KPOB,2020-12-11T18:56:00Z,35.17,-79.02,19.4,9.6,170,3,,10.0,30.129921,1020.6,,TRUE,TRUE,TRUE,,,,,,CLR,,,,,,,,VFR,,,,,,,,,,,,METAR,57.0
KPIB 111856Z AUTO 16008KT 10SM FEW042 OVC050 21/13 A3005 RMK AO2 SLP175 T02060133,KPIB,2020-12-11T18:56:00Z,31.47,-89.33,20.6,13.3,160,8,,10.0,30.050198,1017.5,,TRUE,TRUE,,,,,,,FEW,4200,OVC,5000,,,,,VFR,,,,,,,,,,,,METAR,91.0
KPAM 111856Z 18009KT 10SM SCT040 SCT120 22/11 A3011 RMK AO2A SLP199 T02220113 $,KPAM,2020-12-11T18:56:00Z,30.07,-85.57,22.2,11.3,180,9,,10.0,30.109253,1019.9,,,TRUE,TRUE,,,,,,SCT,4000,SCT,12000,,,,,VFR,,,,,,,,,,,,METAR,4.0
KP60 111856Z AUTO 00000KT M07/M09 A2983 RMK AO1 SLP174 T10671089,KP60,2020-12-11T18:56:00Z,44.55,-110.42,-6.7,-8.9,0,0,,,29.828741,1017.4,,TRUE,TRUE,,,,,,,,,,,,,,,,,,,,,,,,,,,SPECI,2377.0
KP53 111856Z AUTO 02015KT 01/M03 A3013 RMK AO1 SLP212 T00061033,KP53,2020-12-11T18:56:00Z,46.42,-86.65,0.6,-3.3,20,15,,,30.129921,1021.2,,TRUE,TRUE,,,,,,,,,,,,,,,,,,,,,,,,,,,SPECI,185.0
KP28 111856Z AUTO 35008KT 04/M01 A2984 RMK AO1 SLP110 T00441011 $,KP28,2020-12-11T18:56:00Z,37.28,-98.55,4.4,-1.1,350,8,,,29.840551,1011.0,,TRUE,TRUE,TRUE,,,,,,,,,,,,,,,,,,,,,,,,,,METAR,469.0
KOZR 111856Z AUTO 20004KT 10SM FEW036 SCT048 21/11 A3010 RMK AO2 SLP195 T02130110,KOZR,2020-12-11T18:56:00Z,31.28,-85.72,21.3,11.0,200,4,,10.0,30.100393,1019.5,,TRUE,TRUE,,,,,,,FEW,3600,SCT,4800,,,,,VFR,,,,,,,,,,,,SPECI,90.0
KOWB 111856Z 21015KT 10SM CLR 18/09 A2993 RMK AO2 SLP137 T01830089,KOWB,2020-12-11T18:56:00Z,37.72,-87.17,18.3,8.9,210,15,,10.0,29.929134,1013.7,,,TRUE,,,,,,,CLR,,,,,,,,VFR,,,,,,,,,,,,METAR,121.0
KOTH 111856Z 13007KT 10SM SCT038 BKN045 OVC060 08/06 A3013 RMK AO2 RAB06E48 SLP201 P0000 T00780061,KOTH,2020-12-11T18:56:00Z,43.42,-124.25,7.8,6.1,130,7,,10.0,30.129921,1020.1,,,TRUE,,,,,,,SCT,3800,BKN,4500,OVC,6000,,,VFR,,,,,,0.005,,,,,,METAR,3.0
KOTG 111856Z AUTO 04019KT 10SM CLR 02/M02 A2999 RMK AO2 SLP176 T00221022 FZRANO,KOTG,2020-12-11T18:56:00Z,43.65,-95.57,2.2,-2.2,40,19,,10.0,29.991142,1017.6,,TRUE,TRUE,,,,TRUE,,,CLR,,,,,,,,VFR,,,,,,,,,,,,METAR,478.0
KOLU 111856Z AUTO 01017KT 6SM -SN BR OVC013 01/M01 A2989 RMK AO2 SLP135 P0001 T00061011 FZRANO,KOLU,2020-12-11T18:56:00Z,41.45,-97.33,0.6,-1.1,10,17,,6.0,29.890747,1013.5,,TRUE,TRUE,,,,TRUE,,-SN BR,OVC,1300,,,,,,,MVFR,,,,,,0.01,,,,,,METAR,438.0
KOKK 111856Z AUTO 18011KT 10SM CLR 16/07 A2988 RMK AO2 SLP121 T01560067,KOKK,2020-12-11T18:56:00Z,40.53,-86.07,15.6,6.7,180,11,,10.0,29.878937,1012.1,,TRUE,TRUE,,,,,,,CLR,,,,,,,,VFR,,,,,,,,,,,,METAR,251.0
KOFK 111856Z AUTO 01015KT 10SM OVC012 02/M03 A2991 RMK AO2 SLP140 T00171028,KOFK,2020-12-11T18:56:00Z,41.98,-97.43,1.7,-2.8,10,15,,10.0,29.911417,1014.0,,TRUE,TRUE,,,,,,,OVC,1200,,,,,,,MVFR,,,,,,,,,,,,SPECI,476.0
KOFF 111856Z AUTO 03013KT 10SM OVC012 03/00 A2982 RMK AO2 SLP110 T00310002 $,KOFF,2020-12-11T18:56:00Z,41.12,-95.92,3.1,0.2,30,13,,10.0,29.819881,1011.0,,TRUE,TRUE,TRUE,,,,,,OVC,1200,,,,,,,MVFR,,,,,,,,,,,,METAR,308.0
KOCH 111856Z AUTO 17008G19KT 10SM SCT065 OVC085 21/16 A2987 RMK AO2 SLP116 T02060156,KOCH,2020-12-11T18:56:00Z,31.57,-94.72,20.6,15.6,170,8,19,10.0,29.870079,1011.6,,TRUE,TRUE,,,,,,,SCT,6500,OVC,8500,,,,,VFR,,,,,,,,,,,,METAR,105.0
KOAJ 111856Z 16003KT 10SM BKN042 OVC050 21/14 A3015 RMK AO2 SLP212 T02060139 $,KOAJ,2020-12-11T18:56:00Z,34.82,-77.62,20.6,13.9,160,3,,10.0,30.15059,1021.2,,,TRUE,TRUE,,,,,,BKN,4200,OVC,5000,,,,,VFR,,,,,,,,,,,,METAR,26.0
KNYG 111856Z 17010KT 7SM HZ FEW200 12/07 A3012 RMK AO2 SLP200 T01220067,KNYG,2020-12-11T18:56:00Z,38.5,-77.3,12.2,6.7,170,10,,7.0,30.121063,1020.0,,,TRUE,,,,,,HZ,FEW,20000,,,,,,,VFR,,,,,,,,,,,,METAR,2.0
KNXF 111856Z AUTO 27008KT 10SM CLR 18/08 A3014 RMK AO2 SLP293 T01830083 $,KNXF,2020-12-11T18:56:00Z,33.28,-117.45,18.3,8.3,270,8,,10.0,30.138779,1029.3,,TRUE,TRUE,TRUE,,,,,,CLR,,,,,,,,VFR,,,,,,,,,,,,METAR,28.0
KNUW 111856Z 14009KT 10SM SCT020 SCT044 BKN080 07/03 A3011 RMK AO2 SLP196 T00670028 $,KNUW,2020-12-11T18:56:00Z,48.35,-122.65,6.7,2.8,140,9,,10.0,30.109253,1019.6,,,TRUE,TRUE,,,,,,SCT,2000,SCT,4400,BKN,8000,,,VFR,,,,,,,,,,,,SPECI,14.0
KNUC 111856Z 25010KT 10SM BKN014 16/09 A3016 RMK AO2 SLP210 T01610089 $,KNUC,2020-12-11T18:56:00Z,33.02,-118.57,16.1,8.9,250,10,,10.0,30.159449,1021.0,,,TRUE,TRUE,,,,,,BKN,1400,,,,,,,MVFR,,,,,,,,,,,,METAR,52.0
KNTU 111856Z 16006KT 10SM BKN039 BKN048 19/11 A3016 RMK AO2 SLP216 T01940106,KNTU,2020-12-11T18:56:00Z,36.82,-76.02,19.4,10.6,160,6,,10.0,30.159449,1021.6,,,TRUE,,,,,,,BKN,3900,BKN,4800,,,,,VFR,,,,,,,,,,,,METAR,6.0
KNSE 111856Z VRB03KT 10SM SCT037 BKN055 BKN250 22/12 A3009 RMK AO2 SLP175 T02220122 PNO $,KNSE,2020-12-11T18:56:00Z,30.73,-87.02,22.2,12.2,0,3,,10.0,30.088583,1017.5,,,TRUE,TRUE,,,,,,SCT,3700,BKN,5500,BKN,25000,,,VFR,,,,,,,,,,,,METAR,56.0
KNRS 111856Z 27006KT 10SM FEW030 16/09 A3014 RMK AO2 SLP205 T01560089 $,KNRS,2020-12-11T18:56:00Z,32.57,-117.12,15.6,8.9,270,6,,10.0,30.138779,1020.5,,,TRUE,TRUE,,,,,,FEW,3000,,,,,,,VFR,,,,,,,,,,,,METAR,15.0
KNQI 111856Z 23010KT 10SM FEW030 BKN130 BKN250 26/18 A2983 RMK AO2 SLP097 T02610178,KNQI,2020-12-11T18:56:00Z,27.5,-97.82,26.1,17.8,230,10,,10.0,29.828741,1009.7,,,TRUE,,,,,,,FEW,3000,BKN,13000,BKN,25000,,,VFR,,,,,,,,,,,,METAR,15.0
KNPA 111856Z 10011KT 10SM BKN043 BKN250 21/16 A3008 RMK AO2 SLP187 FU NW T02110156,KNPA,2020-12-11T18:56:00Z,30.35,-87.32,21.1,15.6,100,11,,10.0,30.079725,1018.7,,,TRUE,,,,,,,BKN,4300,BKN,25000,,,,,VFR,,,,,,,,,,,,METAR,6.0
KNOG 111856Z AUTO VRB06KT 10SM CLR 25/16 A2984 RMK AO2 SLP085 T02500161 TSNO $,KNOG,2020-12-11T18:56:00Z,27.9,-98.05,25.0,16.1,0,6,,10.0,29.840551,1008.5,,TRUE,TRUE,TRUE,,TRUE,,,,CLR,,,,,,,,VFR,,,,,,,,,,,,METAR,72.0
KNMM 111856Z VRB05KT 10SM FEW035 BKN050 BKN250 20/11 A3005 RMK AO2 SLP185 T02000111,KNMM,2020-12-11T18:56:00Z,32.53,-88.53,20.0,11.1,0,5,,10.0,30.050198,1018.5,,,TRUE,,,,,,,FEW,3500,BKN,5000,BKN,25000,,,VFR,,,,,,,,,,,,METAR,94.0
KNLC 111856Z 33012KT 7SM FEW100 SCT150 BKN200 BKN250 12/01 A3019 RMK AO2 SLP224 VIS N 3 RH/48 T01220011 $,KNLC,2020-12-11T18:56:00Z,36.32,-119.95,12.2,1.1,330,12,,7.0,30.188976,1022.4,,,TRUE,TRUE,,,,,,FEW,10000,SCT,15000,BKN,20000,BKN,25000,VFR,,,,,,,,,,,,METAR,69.0
KNJK 111856Z 12003KT 10SM CLR 17/06 A3007 RMK SLP199 T01670056,KNJK,2020-12-11T18:56:00Z,32.82,-115.67,16.7,5.6,120,3,,10.0,30.070866,1019.9,,,,,,,,,,CLR,,,,,,,,VFR,,,,,,,,,,,,METAR,-15.0
KNID 111856Z AUTO 30003KT 10SM CLR 06/M13 A3005 RMK AO2 SLP186 T00561128 $,KNID,2020-12-11T18:56:00Z,35.68,-117.68,5.6,-12.8,300,3,,10.0,30.050198,1018.6,,TRUE,TRUE,TRUE,,,,,,CLR,,,,,,,,VFR,,,,,,,,,,,,METAR,682.0
KNGP 111856Z 15009KT 10SM SCT025 BKN030 BKN050 25/19 A2984 RMK AO2 SLP104 T02500194,KNGP,2020-12-11T18:56:00Z,27.68,-97.28,25.0,19.4,150,9,,10.0,29.840551,1010.4,,,TRUE,,,,,,,SCT,2500,BKN,3000,BKN,5000,,,MVFR,,,,,,,,,,,,METAR,5.0
KNFL 111856Z 00000KT 10SM FEW080 SCT120 SCT150 SCT220 03/M09 A3011 RMK AO2 SLP162 T00281089,KNFL,2020-12-11T18:56:00Z,39.42,-118.7,2.8,-8.9,0,0,,10.0,30.109253,1016.2,,,TRUE,,,,,,,FEW,8000,SCT,12000,SCT,15000,SCT,22000,VFR,,,,,,,,,,,,SPECI,1199.0
KNFE 111856Z AUTO 18012G20KT 10SM SCT035 19/09 A3017 RMK AO2 SLP217 T01890094,KNFE,2020-12-11T18:56:00Z,36.7,-76.13,18.9,9.4,180,12,20,10.0,30.171259,1021.7,,TRUE,TRUE,,,,,,,SCT,3500,,,,,,,VFR,,,,,,,,,,,,METAR,4.0
KNDZ 111856Z 10011KT 10SM BKN045 BKN250 23/13 A3009 RMK AO2 PK WND 19029/1826 SLP175 T02280128 $,KNDZ,2020-12-11T18:56:00Z,30.7,-87.02,22.8,12.8,100,11,,10.0,30.088583,1017.5,,,TRUE,TRUE,,,,,,BKN,4500,BKN,25000,,,,,VFR,,,,,,,,,,,,METAR,51.0
KNCA 111856Z 16007KT 10SM FEW048 SCT065 21/13 A3014 RMK AO2 SLP209 T02110128,KNCA,2020-12-11T18:56:00Z,34.72,-77.45,21.1,12.8,160,7,,10.0,30.138779,1020.9,,,TRUE,,,,,,,FEW,4800,SCT,6500,,,,,VFR,,,,,,,,,,,,METAR,9.0
KNBT 111856Z AUTO A3017 RMK AO2 SLP222 PWINO,KNBT,2020-12-11T18:56:00Z,35.02,-76.47,,,,,,,30.171259,1022.2,,TRUE,TRUE,,,,,TRUE,,,,,,,,,,,,,,,,,,,,,,METAR,5.0
KNBC 111856Z 21007KT 10SM CLR 21/07 A3015 RMK AO2 SLP209 T02110072 $,KNBC,2020-12-11T18:56:00Z,32.47,-80.72,21.1,7.2,210,7,,10.0,30.15059,1020.9,,,TRUE,TRUE,,,,,,CLR,,,,,,,,VFR,,,,,,,,,,,,SPECI,9.0
KMYR 111856Z 15006KT 10SM CLR 18/12 A3015 RMK AO2 SLP209 T01780122,KMYR,2020-12-11T18:56:00Z,33.68,-78.92,17.8,12.2,150,6,,10.0,30.15059,1020.9,,,TRUE,,,,,,,CLR,,,,,,,,VFR,,,,,,,,,,,,METAR,7.0
KMXF 111856Z AUTO 00000KT 10SM FEW210 16/16 A3010 RMK AO2 SLP196 T01600158 $,KMXF,2020-12-11T18:56:00Z,32.38,-86.37,16.0,15.8,0,0,,10.0,30.100393,1019.6,,TRUE,TRUE,TRUE,,,,,,FEW,21000,,,,,,,VFR,,,,,,,,,,,,METAR,47.0
KMVN 111856Z AUTO 19014G19KT 10SM FEW032 18/11 A2986 RMK AO2 SLP117 T01780111,KMVN,2020-12-11T18:56:00Z,38.32,-88.87,17.8,11.1,190,14,19,10.0,29.861221,1011.7,,TRUE,TRUE,,,,,,,FEW,3200,,,,,,,VFR,,,,,,,,,,,,METAR,145.0
KMTW 111856Z AUTO 01013G17KT 10SM OVC020 02/M01 A3005 RMK AO2 SLP181 T00221011 FZRANO,KMTW,2020-12-11T18:56:00Z,44.12,-87.67,2.2,-1.1,10,13,17,10.0,30.050198,1018.1,,TRUE,TRUE,,,,TRUE,,,OVC,2000,,,,,,,MVFR,,,,,,,,,,,,METAR,197.0
KMSV 111856Z AUTO 17004KT 10SM CLR 09/03 A3005 RMK AO2 SLPNO T00940028,KMSV,2020-12-11T18:56:00Z,41.7,-74.78,9.4,2.8,170,4,,10.0,30.050198,,,TRUE,TRUE,,,,,,,CLR,,,,,,,,VFR,,,,,,,,,,,,METAR,427.0
KMRF 111856Z AUTO 25020G24KT 10SM CLR 14/02 A3002 RMK AO2 PK WND 25027/1803 PRESFR SLP138 T01390022,KMRF,2020-12-11T18:56:00Z,30.37,-104.02,13.9,2.2,250,20,24,10.0,30.02067,1013.8,,TRUE,TRUE,,,,,,,CLR,,,,,,,,VFR,,,,,,,,,,,,METAR,1476.0
KMQY 111856Z 18007KT 10SM CLR 18/09 A3004 RMK AO2 SLP182 T01780089 PNO $,KMQY,2020-12-11T18:56:00Z,36.02,-86.52,17.8,8.9,180,7,,10.0,30.041338,1018.2,,,TRUE,TRUE,,,,,,CLR,,,,,,,,VFR,,,,,,,,,,,,METAR,156.0
KMOB 111856Z 16011KT 10SM BKN039 BKN060 OVC250 22/13 A3007 RMK AO2 SLP179 T02170133,KMOB,2020-12-11T18:56:00Z,30.68,-88.25,21.7,13.3,160,11,,10.0,30.070866,1017.9,,,TRUE,,,,,,,BKN,3900,BKN,6000,OVC,25000,,,VFR,,,,,,,,,,,,SPECI,67.0
KMMT 111856Z 19005KT 10SM FEW250 20/08 A3013 RMK AO2A SLP206 T01950079 $,KMMT,2020-12-11T18:56:00Z,33.92,-80.8,19.5,7.9,190,5,,10.0,30.129921,1020.6,,,TRUE,TRUE,,,,,,FEW,25000,,,,,,,VFR,,,,,,,,,,,,METAR,76.0
KMML 111856Z AUTO 02010KT 10SM OVC012 01/M03 A3008 RMK AO2 SLP203 T00111028 FZRANO,KMML,2020-12-11T18:56:00Z,44.45,-95.82,1.1,-2.8,20,10,,10.0,30.079725,1020.3,,TRUE,TRUE,,,,TRUE,,,OVC,1200,,,,,,,MVFR,,,,,,,,,,,,METAR,358.0
KMKY 111856Z AUTO 04006KT 10SM CLR 23/12 A3010 RMK AO2 SLP191 T02330122 TSNO $,KMKY,2020-12-11T18:56:00Z,26.0,-81.67,23.3,12.2,40,6,,10.0,30.100393,1019.1,,TRUE,TRUE,TRUE,,TRUE,,,,CLR,,,,,,,,VFR,,,,,,,,,,,,METAR,2.0
KMKT 111856Z AUTO 04010KT 10SM CLR 03/M01 A3006 RMK AO2 SLP190 T00281011,KMKT,2020-12-11T18:56:00Z,44.22,-93.92,2.8,-1.1,40,10,,10.0,30.059055,1019.0,,TRUE,TRUE,,,,,,,CLR,,,,,,,,VFR,,,,,,,,,,,,METAR,309.0
KMJX 111856Z AUTO 21010KT 10SM CLR 16/04 A3012 RMK AO2 SLP204 T01560039,KMJX,2020-12-11T18:56:00Z,39.93,-74.3,15.6,3.9,210,10,,10.0,30.121063,1020.4,,TRUE,TRUE,,,,,,,CLR,,,,,,,,VFR,,,,,,,,,,,,METAR,22.0
KMHS 111856Z AUTO 00000KT 10SM OVC100 04/M06 A3008 RMK AO2 SLP216 T00391061,KMHS,2020-12-11T18:56:00Z,41.32,-122.32,3.9,-6.1,0,0,,10.0,30.079725,1021.6,,TRUE,TRUE,,,,,,,OVC,10000,,,,,,,VFR,,,,,,,,,,,,SPECI,1080.0
KMGE 111856Z 20004KT 10SM BKN250 19/04 A3010 RMK AO2A SLP193 CONTRAILS T01860044 $,KMGE,2020-12-11T18:56:00Z,33.92,-84.52,18.6,4.4,200,4,,10.0,30.100393,1019.3,,,TRUE,TRUE,,,,,,BKN,25000,,,,,,,VFR,,,,,,,,,,,,METAR,309.0
KMEH 111856Z AUTO 00000KT 3SM -SN BKN028 OVC034 00/M03 A3000 RMK AO2 SLP183 P0001 T00001033,KMEH,2020-12-11T18:56:00Z,45.52,-118.42,0.0,-3.3,0,0,,3.0,30.0,1018.3,,TRUE,TRUE,,,,,,-SN,BKN,2800,OVC,3400,,,,,MVFR,,,,,,0.01,,,,,,SPECI,1138.0
KMDT 111856Z 00000KT 8SM BKN250 11/03 A3008 RMK AO2 SLP189 T01110033,KMDT,2020-12-11T18:56:00Z,40.2,-76.77,11.1,3.3,0,0,,8.0,30.079725,1018.9,,,TRUE,,,,,,,BKN,25000,,,,,,,VFR,,,,,,,,,,,,METAR,91.0
KMCF 111856Z AUTO 13007KT 10SM CLR 22/09 A3012 RMK AO2 SLP203 T02150087 FZRANO $,KMCF,2020-12-11T18:56:00Z,27.85,-82.52,21.5,8.7,130,7,,10.0,30.121063,1020.3,,TRUE,TRUE,TRUE,,,TRUE,,,CLR,,,,,,,,VFR,,,,,,,,,,,,METAR,3.0
KMBL 111856Z AUTO 03012KT 10SM OVC021 04/M01 A3003 RMK AO2 SLP178 T00391006,KMBL,2020-12-11T18:56:00Z,44.27,-86.25,3.9,-0.6,30,12,,10.0,30.029528,1017.8,,TRUE,TRUE,,,,,,,OVC,2100,,,,,,,MVFR,,,,,,,,,,,,METAR,187.0
KM19 111856Z AUTO 18010KT 10SM BKN036 OVC045 17/12 A2988 RMK AO2 SLP117 T01720117,KM19,2020-12-11T18:56:00Z,35.65,-91.17,17.2,11.7,180,10,,10.0,29.878937,1011.7,,TRUE,TRUE,,,,,,,BKN,3600,OVC,4500,,,,,VFR,,,,,,,,,,,,METAR,72.0
KLZU 111856Z 17004KT 10SM CLR 18/06 A3012 RMK AO2 SLP210 T01830056,KLZU,2020-12-11T18:56:00Z,33.98,-83.97,18.3,5.6,170,4,,10.0,30.121063,1021.0,,,TRUE,,,,,,,CLR,,,,,,,,VFR,,,,,,,,,,,,METAR,316.0
KLTS 111856Z AUTO 01009KT 10SM CLR 11/01 A2987 RMK AO2 SLP112 T01100010 $,KLTS,2020-12-11T18:56:00Z,34.67,-99.27,11.0,1.0,10,9,,10.0,29.870079,1011.2,,TRUE,TRUE,TRUE,,,,,,CLR,,,,,,,,VFR,,,,,,,,,,,,SPECI,416.0
KLSF 111856Z AUTO 19003KT 10SM CLR 20/10 A3011 RMK AO2 SLP202 T02000104,KLSF,2020-12-11T18:56:00Z,32.32,-84.97,20.0,10.4,190,3,,10.0,30.109253,1020.2,,TRUE,TRUE,,,,,,,CLR,,,,,,,,VFR,,,,,,,,,,,,METAR,68.0
KLRF 111856Z AUTO 17008KT 10SM SCT035 BKN055 BKN080 OVC130 18/12 A2986 RMK AO2 SLP114 T01760116 $,KLRF,2020-12-11T18:56:00Z,34.92,-92.12,17.6,11.6,170,8,,10.0,29.861221,1011.4,,TRUE,TRUE,TRUE,,,,,,SCT,3500,BKN,5500,BKN,8000,OVC,13000,VFR,,,,,,,,,,,,METAR,85.0
KLRD 111856Z 34006KT 10SM CLR 26/13 A2986 RMK AO2 SLP108 T02560133,KLRD,2020-12-11T18:56:00Z,27.55,-99.47,25.6,13.3,340,6,,10.0,29.861221,1010.8,,,TRUE,,,,,,,CLR,,,,,,,,VFR,,,,,,,,,,,,METAR,150.0
KLHW 111856Z AUTO 18005KT 10SM CLR 21/08 A3012 RMK AO2 SLP203 T02090075 $,KLHW,2020-12-11T18:56:00Z,31.88,-81.57,20.9,7.5,180,5,,10.0,30.121063,1020.3,,TRUE,TRUE,TRUE,,,,,,CLR,,,,,,,,VFR,,,,,,,,,,,,METAR,14.0
KLGD 111856Z AUTO 08004KT 10SM OVC045 02/M02 A3005 RMK AO2 RAB04E15 SLP197 T00221017 FZRANO PNO $,KLGD,2020-12-11T18:56:00Z,45.28,-118.0,2.2,-1.7,80,4,,10.0,30.050198,1019.7,,TRUE,TRUE,TRUE,,,TRUE,,,OVC,4500,,,,,,,VFR,,,,,,,,,,,,METAR,827.0
KLFI 111856Z AUTO 23006KT 10SM CLR 17/10 A3016 RMK AO2 SLP220 T01740100 $,KLFI,2020-12-11T18:56:00Z,37.08,-76.33,17.4,10.0,230,6,,10.0,30.159449,1022.0,,TRUE,TRUE,TRUE,,,,,,CLR,,,,,,,,VFR,,,,,,,,,,,,SPECI,2.0
KLEW 111856Z AUTO 20007KT 10SM CLR 04/M01 A3006 RMK AO2 SLP190 T00441011,KLEW,2020-12-11T18:56:00Z,44.03,-70.28,4.4,-1.1,200,7,,10.0,30.059055,1019.0,,TRUE,TRUE,,,,,,,CLR,,,,,,,,VFR,,,,,,,,,,,,METAR,81.0
KLCI 111856Z AUTO 25006KT 10SM CLR 04/M01 A3006 RMK AO2 SLP183 T00441006,KLCI,2020-12-11T18:56:00Z,43.57,-71.42,4.4,-0.6,250,6,,10.0,30.059055,1018.3,,TRUE,TRUE,,,,,,,CLR,,,,,,,,VFR,,,,,,,,,,,,METAR,166.0
KLBL 111856Z AUTO 32013KT 10SM OVC022 03/M03 A2989 RMK AO2 SLP131 T00281028,KLBL,2020-12-11T18:56:00Z,37.03,-100.97,2.8,-2.8,320,13,,10.0,29.890747,1013.1,,TRUE,TRUE,,,,,,,OVC,2200,,,,,,,MVFR,,,,,,,,,,,,METAR,877.0
KLAS 111856Z 00000KT 10SM FEW160 BKN250 11/M09 A3003 RMK AO2 SLP167 T01111089,KLAS,2020-12-11T18:56:00Z,36.07,-115.17,11.1,-8.9,0,0,,10.0,30.029528,1016.7,,,TRUE,,,,,,,FEW,16000,BKN,25000,,,,,VFR,,,,,,,,,,,,METAR,662.0
KJXN 111856Z 03007KT 6SM HZ CLR 09/03 A2992 RMK AO2 SLP137 T00940028,KJXN,2020-12-11T18:56:00Z,42.27,-84.47,9.4,2.8,30,7,,6.0,29.920275,1013.7,,,TRUE,,,,,,HZ,CLR,,,,,,,,VFR,,,,,,,,,,,,METAR,303.0
KJRB 111856Z AUTO 24003KT 10SM CLR 14/04 A3012 RMK AO2 SLP199 T01440039,KJRB,2020-12-11T18:56:00Z,40.7,-74.02,14.4,3.9,240,3,,10.0,30.121063,1019.9,,TRUE,TRUE,,,,,,,CLR,,,,,,,,VFR,,,,,,,,,,,,METAR,2.0
KJMS 111856Z AUTO 02005KT 10SM OVC007 M02/M06 A3014 RMK AO2 SLP229 T10221061,KJMS,2020-12-11T18:56:00Z,46.93,-98.67,-2.2,-6.1,20,5,,10.0,30.138779,1022.9,,TRUE,TRUE,,,,,,,OVC,700,,,,,,,IFR,,,,,,,,,,,,METAR,455.0
KJHW 111856Z AUTO 21006KT 10SM CLR 10/02 A2996 RMK AO2 SLP162 T01000022,KJHW,2020-12-11T18:56:00Z,42.15,-79.27,10.0,2.2,210,6,,10.0,29.958662,1016.2,,TRUE,TRUE,,,,,,,CLR,,,,,,,,VFR,,,,,,,,,,,,METAR,520.0
KJAX 111856Z 18005KT 10SM FEW250 21/08 A3014 RMK AO2 SLP205 T02060078,KJAX,2020-12-11T18:56:00Z,30.5,-81.68,20.6,7.8,180,5,,10.0,30.138779,1020.5,,,TRUE,,,,,,,FEW,25000,,,,,,,VFR,,,,,,,,,,,,SPECI,8.0
KJAC 111856Z 00000KT 10SM FEW060 BKN085 M06/M08 A2986 RMK AO2 SLP177 T10561083,KJAC,2020-12-11T18:56:00Z,43.62,-110.73,-5.6,-8.3,0,0,,10.0,29.861221,1017.7,,,TRUE,,,,,,,FEW,6000,BKN,8500,,,,,VFR,,,,,,,,,,,,METAR,1967.0
KIWD 111856Z AUTO 02007KT 10SM OVC024 00/M05 A3013 RMK AO2 SLP219 T00001050 FZRANO,KIWD,2020-12-11T18:56:00Z,46.52,-90.12,0.0,-5.0,20,7,,10.0,30.129921,1021.9,,TRUE,TRUE,,,,TRUE,,,OVC,2400,,,,,,,MVFR,,,,,,,,,,,,METAR,373.0
KITH 111856Z 16006KT 10SM CLR 11/02 A2999 RMK AO2 SLP162 T01060022,KITH,2020-12-11T18:56:00Z,42.48,-76.45,10.6,2.2,160,6,,10.0,29.991142,1016.2,,,TRUE,,,,,,,CLR,,,,,,,,VFR,,,,,,,,,,,,METAR,338.0
KISP 111856Z 20013G20KT 10SM FEW035 FEW130 BKN250 12/07 A3013 RMK AO2 SLP203 T01170067,KISP,2020-12-11T18:56:00Z,40.8,-73.1,11.7,6.7,200,13,20,10.0,30.129921,1020.3,,,TRUE,,,,,,,FEW,3500,FEW,13000,BKN,25000,,,VFR,,,,,,,,,,,,METAR,25.0
KISO 111856Z 18004KT 10SM SCT037 BKN044 21/13 A3015,KISO,2020-12-11T18:56:00Z,35.32,-77.62,21.0,13.0,180,4,,10.0,30.15059,,,,,,,,,,,SCT,3700,BKN,4400,,,,,VFR,,,,,,,,,,,,METAR,27.0
KISM 111856Z 16007KT 10SM BKN055 22/10 A3014 RMK AO2 SLP207 T02170100 PNO $,KISM,2020-12-11T18:56:00Z,28.28,-81.43,21.7,10.0,160,7,,10.0,30.138779,1020.7,,,TRUE,TRUE,,,,,,BKN,5500,,,,,,,VFR,,,,,,,,,,,,METAR,25.0
KIAB 111856Z AUTO 32009KT 10SM OVC017 04/M01 A2980 RMK AO2 CIG 016 RWY19 SLP100 T00441010 $,KIAB,2020-12-11T18:56:00Z,37.62,-97.27,4.4,-1.0,320,9,,10.0,29.799213,1010.0,,TRUE,TRUE,TRUE,,,,,,OVC,1700,,,,,,,MVFR,,,,,,,,,,,,SPECI,413.0
KHYS 111856Z AUTO 36014KT 10SM OVC011 01/M02 A2985 RMK AO2 SLP121 T00111017 FZRANO,KHYS,2020-12-11T18:56:00Z,38.85,-99.27,1.1,-1.7,360,14,,10.0,29.84941,1012.1,,TRUE,TRUE,,,,TRUE,,,OVC,1100,,,,,,,MVFR,,,,,,,,,,,,METAR,607.0
KHYI 111856Z 13009KT 10SM SCT009 19/19 A2984 RMK AO2 PRESFR SLP100 T01940189,KHYI,2020-12-11T18:56:00Z,29.88,-97.87,19.4,18.9,130,9,,10.0,29.840551,1010.0,,,TRUE,,,,,,,SCT,900,,,,,,,VFR,,,,,,,,,,,,METAR,180.0
KHYA 111856Z 22013KT 10SM CLR 11/06 A3013 RMK AO2 SLP202 T01110056,KHYA,2020-12-11T18:56:00Z,41.67,-70.27,11.1,5.6,220,13,,10.0,30.129921,1020.2,,,TRUE,,,,,,,CLR,,,,,,,,VFR,,,,,,,,,,,,METAR,11.0
KHWV 111856Z AUTO 19012G18KT 9SM CLR 12/06 A3014 RMK AO2 SLP206 T01170056,KHWV,2020-12-11T18:56:00Z,40.82,-72.87,11.7,5.6,190,12,18,9.0,30.138779,1020.6,,TRUE,TRUE,,,,,,,CLR,,,,,,,,VFR,,,,,,,,,,,,METAR,20.0
KHST 111856Z 05005KT 10SM OVC045 23/16 A3006 RMK AO2A SLP183 $,KHST,2020-12-11T18:56:00Z,25.48,-80.37,23.0,16.0,50,5,,10.0,30.059055,1018.3,,,TRUE,TRUE,,,,,,OVC,4500,,,,,,,VFR,,,,,,,,,,,,METAR,1.0
KHRT 111856Z 15012KT 10SM SCT039 SCT300 22/16 A3009 RMK AO2A SLP191 T02170157 $,KHRT,2020-12-11T18:56:00Z,30.42,-86.68,21.7,15.7,150,12,,10.0,30.088583,1019.1,,,TRUE,TRUE,,,,,,SCT,3900,SCT,30000,,,,,VFR,,,,,,,,,,,,METAR,10.0
KHPN 111856Z 17009KT 7SM CLR 10/03 A3009 RMK AO2 SLP195 T01000028,KHPN,2020-12-11T18:56:00Z,41.07,-73.7,10.0,2.8,170,9,,7.0,30.088583,1019.5,,,TRUE,,,,,,,CLR,,,,,,,,VFR,,,,,,,,,,,,SPECI,113.0
KHOP 111856Z AUTO 20015G19KT 10SM CLR 18/09 A2996 RMK AO2 SLP146 T01800085,KHOP,2020-12-11T18:56:00Z,36.67,-87.5,18.0,8.5,200,15,19,10.0,29.958662,1014.6,,TRUE,TRUE,,,,,,,CLR,,,,,,,,VFR,,,,,,,,,,,,SPECI,170.0
KHND 111856Z 20006KT 10SM CLR 13/M09 A3004 RMK AO2 SLP188 T01281094,KHND,2020-12-11T18:56:00Z,35.98,-115.13,12.8,-9.4,200,6,,10.0,30.041338,1018.8,,,TRUE,,,,,,,CLR,,,,,,,,VFR,,,,,,,,,,,,METAR,740.0
KHNB 111856Z AUTO 19016KT 10SM CLR 18/09 A2993 RMK AO2 SLP133 T01830089,KHNB,2020-12-11T18:56:00Z,38.25,-86.95,18.3,8.9,190,16,,10.0,29.929134,1013.3,,TRUE,TRUE,,,,,,,CLR,,,,,,,,VFR,,,,,,,,,,,,METAR,159.0
KHFF 111856Z AUTO 20006KT 10SM CLR 19/09 A3013 RMK AO2 SLP219 T01880091,KHFF,2020-12-11T18:56:00Z,35.03,-79.5,18.8,9.1,200,6,,10.0,30.129921,1021.9,,TRUE,TRUE,,,,,,,CLR,,,,,,,,VFR,,,,,,,,,,,,METAR,100.0
KHEZ 111856Z AUTO 17012KT 10SM SCT060 22/11 A2999 RMK AO2 SLP155 T02170111,KHEZ,2020-12-11T18:56:00Z,31.62,-91.3,21.7,11.1,170,12,,10.0,29.991142,1015.5,,TRUE,TRUE,,,,,,,SCT,6000,,,,,,,VFR,,,,,,,,,,,,METAR,82.0
KHEF 111856Z 19010G14KT 10SM CLR 17/05 A3010 RMK AO2 SLP198 T01720050,KHEF,2020-12-11T18:56:00Z,38.72,-77.52,17.2,5.0,190,10,14,10.0,30.100393,1019.8,,,TRUE,,,,,,,CLR,,,,,,,,VFR,,,,,,,,,,,,METAR,53.0
KHDN 111856Z AUTO 27007KT 10SM SCT055 OVC070 M02/M06 A2988 RMK AO2 SLP141 T10171056 FZRANO,KHDN,2020-12-11T18:56:00Z,40.48,-107.22,-1.7,-5.6,270,7,,10.0,29.878937,1014.1,,TRUE,TRUE,,,,TRUE,,,SCT,5500,OVC,7000,,,,,VFR,,,,,,,,,,,,METAR,2012.0
KGVQ 111856Z AUTO 30009KT 10SM CLR 12/03 A2995 RMK AO2 SLP149 T01170033,KGVQ,2020-12-11T18:56:00Z,43.03,-78.17,11.7,3.3,300,9,,10.0,29.949802,1014.9,,TRUE,TRUE,,,,,,,CLR,,,,,,,,VFR,,,,,,,,,,,,METAR,279.0
KGUS 111856Z AUTO 20009KT 10SM FEW200 15/07 A2986 RMK AO2 SLP116 T01500070 $,KGUS,2020-12-11T18:56:00Z,40.63,-86.15,15.0,7.0,200,9,,10.0,29.861221,1011.6,,TRUE,TRUE,TRUE,,,,,,FEW,20000,,,,,,,VFR,,,,,,,,,,,,METAR,245.0
KGUC 111856Z AUTO 22009KT 10SM OVC075 M02/M06 A2982 RMK AO2 UPB02E06SNE02 SLP134 P0001 T10221056 FZRANO,KGUC,2020-12-11T18:56:00Z,38.52,-106.93,-2.2,-5.6,220,9,,10.0,29.819881,1013.4,,TRUE,TRUE,,,,TRUE,,,OVC,7500,,,,,,,VFR,,,,,,0.01,,,,,,METAR,2337.0
KGTU 111856Z VRB04KT 10SM RA FEW037 OVC100 19/17 A2986 RMK AO2 SLP109 P0001 T01890172,KGTU,2020-12-11T18:56:00Z,30.68,-97.68,18.9,17.2,0,4,,10.0,29.861221,1010.9,,,TRUE,,,,,,RA,FEW,3700,OVC,10000,,,,,VFR,,,,,,0.01,,,,,,METAR,232.0
KGTR 111856Z 16010KT 10SM CLR 19/12 A3005 RMK AO2 SLP181 T01890122,KGTR,2020-12-11T18:56:00Z,33.45,-88.58,18.9,12.2,160,10,,10.0,30.050198,1018.1,,,TRUE,,,,,,,CLR,,,,,,,,VFR,,,,,,,,,,,,METAR,80.0
KGTB 111856Z AUTO 24009KT 10SM CLR 10/01 A2996 RMK AO2 SLP151 T00970013,KGTB,2020-12-11T18:56:00Z,44.07,-75.72,9.7,1.3,240,9,,10.0,29.958662,1015.1,,TRUE,TRUE,,,,,,,CLR,,,,,,,,VFR,,,,,,,,,,,,METAR,206.0
KGSB 111856Z AUTO 00000KT 10SM CLR 20/11 A3013 RMK AO2 SLP206 T02040110 $,KGSB,2020-12-11T18:56:00Z,35.33,-77.93,20.4,11.0,0,0,,10.0,30.129921,1020.6,,TRUE,TRUE,TRUE,,,,,,CLR,,,,,,,,VFR,,,,,,,,,,,,METAR,33.0
KGRD 111856Z AUTO 00000KT 10SM CLR 17/07 A3015 RMK AO2 SLP208 T01720072,KGRD,2020-12-11T18:56:00Z,34.25,-82.15,17.2,7.2,0,0,,10.0,30.15059,1020.8,,TRUE,TRUE,,,,,,,CLR,,,,,,,,VFR,,,,,,,,,,,,SPECI,188.0
KGPZ 111856Z AUTO 06003KT 10SM OVC008 M03/M04 A3017 RMK AO2 SLP239 T10281044 FZRANO,KGPZ,2020-12-11T18:56:00Z,47.22,-93.52,-2.8,-4.4,60,3,,10.0,30.171259,1023.9,,TRUE,TRUE,,,,TRUE,,,OVC,800,,,,,,,IFR,,,,,,,,,,,,SPECI,410.0
KGON 111856Z 22012KT 7SM CLR 11/06 A3013 RMK AO2 SLP203 T01110056,KGON,2020-12-11T18:56:00Z,41.33,-72.05,11.1,5.6,220,12,,7.0,30.129921,1020.3,,,TRUE,,,,,,,CLR,,,,,,,,VFR,,,,,,,,,,,,SPECI,2.0
KGNR 111856Z AUTO 16006KT M02/M04 A2997 RMK AO1 SLP171 T10171039,KGNR,2020-12-11T18:56:00Z,45.47,-69.55,-1.7,-3.9,160,6,,,29.970472,1017.1,,TRUE,TRUE,,,,,,,,,,,,,,,,,,,,,,,,,,,SPECI,426.0
KGNA 111856Z AUTO VRB04KT M01/M07 A3020 RMK AO1 SLP238 T10061067,KGNA,2020-12-11T18:56:00Z,47.75,-90.35,-0.6,-6.7,0,4,,,30.200787,1023.8,,TRUE,TRUE,,,,,,,,,,,,,,,,,,,,,,,,,,,SPECI,186.0
KGDV 111856Z AUTO 07003KT 1/4SM FZFG OVC002 M07/M07 A3010 RMK AO2 SLP237 T10671072 FZRANO,KGDV,2020-12-11T18:56:00Z,47.13,-104.8,-6.7,-7.2,70,3,,0.25,30.100393,1023.7,,TRUE,TRUE,,,,TRUE,,FZFG,OVC,200,,,,,,,LIFR,,,,,,,,,,,,METAR,749.0
KGBD 111856Z AUTO 34012KT 10SM OVC011 02/M01 A2984 RMK AO2 SLP117 T00221006 FZRANO,KGBD,2020-12-11T18:56:00Z,38.35,-98.87,2.2,-0.6,340,12,,10.0,29.840551,1011.7,,TRUE,TRUE,,,,TRUE,,,OVC,1100,,,,,,,MVFR,,,,,,,,,,,,METAR,573.0
KGAI 111856Z AUTO 19006KT 10SM CLR 16/04 A3010 RMK AO2 SLP209 T01560044,KGAI,2020-12-11T18:56:00Z,39.17,-77.17,15.6,4.4,190,6,,10.0,30.100393,1020.9,,TRUE,TRUE,,,,,,,CLR,,,,,,,,VFR,,,,,,,,,,,,METAR,151.0
KGAD 111856Z AUTO 20004KT 10SM CLR 17/08 A3009 RMK AO2 SLP193 T01720083,KGAD,2020-12-11T18:56:00Z,33.97,-86.08,17.2,8.3,200,4,,10.0,30.088583,1019.3,,TRUE,TRUE,,,,,,,CLR,,,,,,,,VFR,,,,,,,,,,,,METAR,169.0
KFSI 111856Z AUTO 33011KT 10SM BKN100 11/03 A2985 RMK AO2 SLP106 T01060029 $,KFSI,2020-12-11T18:56:00Z,34.65,-98.4,10.6,2.9,330,11,,10.0,29.84941,1010.6,,TRUE,TRUE,TRUE,,,,,,BKN,10000,,,,,,,VFR,,,,,,,,,,,,SPECI,360.0
KFSD 111856Z 04016KT 10SM FEW015 SCT140 OVC250 03/M03 A3000 RMK AO2 SLP174 T00331028,KFSD,2020-12-11T18:56:00Z,43.58,-96.75,3.3,-2.8,40,16,,10.0,30.0,1017.4,,,TRUE,,,,,,,FEW,1500,SCT,14000,OVC,25000,,,VFR,,,,,,,,,,,,SPECI,433.0
KFRM 111856Z AUTO 04016KT 10SM CLR 03/M02 A3000 RMK AO2 SLP175 T00281022,KFRM,2020-12-11T18:56:00Z,43.63,-94.42,2.8,-2.2,40,16,,10.0,30.0,1017.5,,TRUE,TRUE,,,,,,,CLR,,,,,,,,VFR,,,,,,,,,,,,METAR,353.0
KFOD 111856Z AUTO 05013G18KT 10SM OVC020 04/00 A2991 RMK AO2 SLP165 T00390000,KFOD,2020-12-11T18:56:00Z,42.53,-94.17,3.9,0.0,50,13,18,10.0,29.911417,1016.5,,TRUE,TRUE,,,,,,,OVC,2000,,,,,,,MVFR,,,,,,,,,,,,METAR,347.0
KFKL 111856Z AUTO 21009KT 10SM CLR 13/04 A2998 RMK AO2 SLP161 T01280039,KFKL,2020-12-11T18:56:00Z,41.37,-79.87,12.8,3.9,210,9,,10.0,29.97933,1016.1,,TRUE,TRUE,,,,,,,CLR,,,,,,,,VFR,,,,,,,,,,,,METAR,468.0
KFBG 111856Z AUTO 12003KT 10SM CLR 20/10 A3013 RMK AO2 SLP206 T01950097 $,KFBG,2020-12-11T18:56:00Z,35.12,-78.92,19.5,9.7,120,3,,10.0,30.129921,1020.6,,TRUE,TRUE,TRUE,,,,,,CLR,,,,,,,,VFR,,,,,,,,,,,,METAR,69.0
KFAM 111856Z AUTO 19009KT 10SM OVC042 16/10 A2986 RMK AO2 SLP118 T01610100,KFAM,2020-12-11T18:56:00Z,37.77,-90.42,16.1,10.0,190,9,,10.0,29.861221,1011.8,,TRUE,TRUE,,,,,,,OVC,4200,,,,,,,VFR,,,,,,,,,,,,METAR,276.0
KFAF 111856Z AUTO 15006KT 10SM SCT036 17/09 A3014 RMK AO2 SLP210 T01730092 $,KFAF,2020-12-11T18:56:00Z,37.13,-76.62,17.3,9.2,150,6,,10.0,30.138779,1021.0,,TRUE,TRUE,TRUE,,,,,,SCT,3600,,,,,,,VFR,,,,,,,,,,,,SPECI,3.0
KEWK 111856Z AUTO 33011KT 10SM OVC015 03/00 A2980 RMK AO2 SLP095 T00330000,KEWK,2020-12-11T18:56:00Z,38.05,-97.27,3.3,0.0,330,11,,10.0,29.799213,1009.5,,TRUE,TRUE,,,,,,,OVC,1500,,,,,,,MVFR,,,,,,,,,,,,METAR,468.0
KEUL 111856Z AUTO 24007KT 10SM BKN065 06/M06 A3009 RMK AO2 SLP210 T00561061,KEUL,2020-12-11T18:56:00Z,43.63,-116.62,5.6,-6.1,240,7,,10.0,30.088583,1021.0,,TRUE,TRUE,,,,,,,BKN,6500,,,,,,,VFR,,,,,,,,,,,,METAR,741.0
KESC 111856Z AUTO 01010G16KT 10SM OVC024 01/M04 A3010 RMK AO2 SLP202 T00111044 FZRANO,KESC,2020-12-11T18:56:00Z,45.72,-87.08,1.1,-4.4,10,10,16,10.0,30.100393,1020.2,,TRUE,TRUE,,,,TRUE,,,OVC,2400,,,,,,,MVFR,,,,,,,,,,,,METAR,180.0
KEND 111856Z AUTO 31012KT 10SM OVC021 07/03 A2983 RMK AO2 SLP105 T00720034,KEND,2020-12-11T18:56:00Z,36.33,-97.92,7.2,3.4,310,12,,10.0,29.828741,1010.5,,TRUE,TRUE,,,,,,,OVC,2100,,,,,,,MVFR,,,,,,,,,,,,METAR,392.0
KELZ 111856Z AUTO 23007KT 190V250 10SM FEW095 11/02 A2997 RMK AO2 SLP159 T01110017,KELZ,2020-12-11T18:56:00Z,42.1,-77.98,11.1,1.7,230,7,,10.0,29.970472,1015.9,,TRUE,TRUE,,,,,,,FEW,9500,,,,,,,VFR,,,,,,,,,,,,SPECI,639.0
KEKY 111856Z AUTO 19006KT 10SM CLR 18/12 A3009 RMK AO2 SLP037 T01780117 PNO $,KEKY,2020-12-11T18:56:00Z,33.32,-86.93,17.8,11.7,190,6,,10.0,30.088583,1003.7,,TRUE,TRUE,TRUE,,,,,,CLR,,,,,,,,VFR,,,,,,,,,,,,METAR,213.0
KEKQ 111856Z AUTO 25015KT 10SM CLR 18/07 A3005 RMK AO2 SLP175 T01780067,KEKQ,2020-12-11T18:56:00Z,36.85,-84.85,17.8,6.7,250,15,,10.0,30.050198,1017.5,,TRUE,TRUE,,,,,,,CLR,,,,,,,,VFR,,,,,,,,,,,,METAR,291.0
KEKO 111856Z AUTO VRB04KT 10SM CLR 01/M11 A3006 RMK AO2 SLP212 T00111111,KEKO,2020-12-11T18:56:00Z,40.82,-115.78,1.1,-11.1,0,4,,10.0,30.059055,1021.2,,TRUE,TRUE,,,,,,,CLR,,,,,,,,VFR,,,,,,,,,,,,METAR,1541.0
KEHR 111856Z AUTO 18015KT 10SM CLR 18/09 A2992 RMK AO2 SLP130 T01780089,KEHR,2020-12-11T18:56:00Z,37.82,-87.67,17.8,8.9,180,15,,10.0,29.920275,1013.0,,TRUE,TRUE,,,,,,,CLR,,,,,,,,VFR,,,,,,,,,,,,METAR,117.0
KEGI 111856Z AUTO 14003KT 10SM FEW190 22/07 A3009 RMK AO2 SLP190 T02160067 $,KEGI,2020-12-11T18:56:00Z,30.65,-86.52,21.6,6.7,140,3,,10.0,30.088583,1019.0,,TRUE,TRUE,TRUE,,,,,,FEW,19000,,,,,,,VFR,,,,,,,,,,,,SPECI,59.0
KEGE 111856Z 03004KT 10SM OVC070 01/M04 A2984 RMK AO2 SLP140 T00111039 PNO $,KEGE,2020-12-11T18:56:00Z,39.63,-106.92,1.1,-3.9,30,4,,10.0,29.840551,1014.0,,,TRUE,TRUE,,,,,,OVC,7000,,,,,,,VFR,,,,,,,,,,,,METAR,1993.0
KEEN 111856Z AUTO 00000KT 10SM CLR 07/01 A3006 RMK AO2 SLP190 P0001 T00670006 $,KEEN,2020-12-11T18:56:00Z,42.88,-72.27,6.7,0.6,0,0,,10.0,30.059055,1019.0,,TRUE,TRUE,TRUE,,,,,,CLR,,,,,,,,VFR,,,,,,0.01,,,,,,METAR,143.0
KEED 111856Z AUTO 00000KT CLR 16/07 A3006 RMK AO2 SLP164 T01560067,KEED,2020-12-11T18:56:00Z,34.77,-114.62,15.6,6.7,0,0,,,30.059055,1016.4,,TRUE,TRUE,,,,,,,CLR,,,,,,,,,,,,,,,,,,,,METAR,271.0
KEAU 111856Z 04010G18KT 10SM CLR 03/M04 A3007 RMK AO2 SLP192 T00281039 $,KEAU,2020-12-11T18:56:00Z,44.87,-91.48,2.8,-3.9,40,10,18,10.0,30.070866,1019.2,,,TRUE,TRUE,,,,,,CLR,,,,,,,,VFR,,,,,,,,,,,,SPECI,271.0
KDYS 111856Z AUTO 32004KT 10SM CLR 14/05 A2987 RMK AO2 SLP093 T01400051,KDYS,2020-12-11T18:56:00Z,32.42,-99.83,14.0,5.1,320,4,,10.0,29.870079,1009.3,,TRUE,TRUE,,,,,,,CLR,,,,,,,,VFR,,,,,,,,,,,,METAR,544.0
KDYR 111856Z AUTO 18012G17KT 10SM SCT055 19/11 A2994 RMK AO2 SLP145 T01940106 PNO $,KDYR,2020-12-11T18:56:00Z,36.0,-89.4,19.4,10.6,180,12,17,10.0,29.940945,1014.5,,TRUE,TRUE,TRUE,,,,,,SCT,5500,,,,,,,VFR,,,,,,,,,,,,METAR,98.0
KDWU 111856Z AUTO 24007G17KT 10SM CLR 19/04 A3003 RMK AO2 SLP169 T01890039 PNO $,KDWU,2020-12-11T18:56:00Z,38.55,-82.73,18.9,3.9,240,7,17,10.0,30.029528,1016.9,,TRUE,TRUE,TRUE,,,,,,CLR,,,,,,,,VFR,,,,,,,,,,,,METAR,165.0
KDVL 111856Z AUTO 13003KT 7SM OVC003 M04/M06 A3017 RMK AO2 SLP800 T10441056 FZRANO,KDVL,2020-12-11T18:56:00Z,48.12,-98.92,-4.4,-5.6,130,3,,7.0,30.171259,980.0,,TRUE,TRUE,,,,TRUE,,,OVC,300,,,,,,,LIFR,,,,,,,,,,,,SPECI,439.0
KDOV 111856Z 19011KT 10SM CLR 16/06 A3013 RMK AO2A SLP206 T01560055 PNO $,KDOV,2020-12-11T18:56:00Z,39.12,-75.47,15.6,5.5,190,11,,10.0,30.129921,1020.6,,,TRUE,TRUE,,,,,,CLR,,,,,,,,VFR,,,,,,,,,,,,METAR,6.0
KDLF 111856Z AUTO 28005KT 10SM FEW140 FEW170 SCT190 21/12 A2988 RMK AO2 SLP112 T02120121 $,KDLF,2020-12-11T18:56:00Z,29.37,-100.78,21.2,12.1,280,5,,10.0,29.878937,1011.2,,TRUE,TRUE,TRUE,,,,,,FEW,14000,FEW,17000,SCT,19000,,,VFR,,,,,,,,,,,,METAR,328.0
KDIK 111856Z AUTO 34003KT 5SM BR CLR M03/M05 A3006 RMK AO2 SLP220 I1000 T10281050,KDIK,2020-12-11T18:56:00Z,46.8,-102.8,-2.8,-5.0,340,3,,5.0,30.059055,1022.0,,TRUE,TRUE,,,,,,BR,CLR,,,,,,,,MVFR,,,,,,,,,,,,SPECI,788.0
KDAY 111856Z 20012KT 10SM SCT200 BKN250 16/06 A2994 RMK AO2 SLP141 T01610056,KDAY,2020-12-11T18:56:00Z,39.9,-84.22,16.1,5.6,200,12,,10.0,29.940945,1014.1,,,TRUE,,,,,,,SCT,20000,BKN,25000,,,,,VFR,,,,,,,,,,,,SPECI,303.0
KDAA 111856Z AUTO 17008KT 10SM CLR 16/04 A3011 RMK AO2 SLP199 T01620042 $,KDAA,2020-12-11T18:56:00Z,38.72,-77.17,16.2,4.2,170,8,,10.0,30.109253,1019.9,,TRUE,TRUE,TRUE,,,,,,CLR,,,,,,,,VFR,,,,,,,,,,,,SPECI,17.0
KD07 111856Z AUTO 04003KT M04/M06 A3007 RMK AO1 SLP223 T10391061,KD07,2020-12-11T18:56:00Z,45.03,-102.02,-3.9,-6.1,40,3,,,30.070866,1022.3,,TRUE,TRUE,,,,,,,,,,,,,,,,,,,,,,,,,,,SPECI,786.0
KCXY 111856Z 00000KT 6SM HZ CLR 13/03 A3009 RMK AO2 SLP191 T01280033,KCXY,2020-12-11T18:56:00Z,40.22,-76.85,12.8,3.3,0,0,,6.0,30.088583,1019.1,,,TRUE,,,,,,HZ,CLR,,,,,,,,VFR,,,,,,,,,,,,METAR,102.0
KCWI 111856Z AUTO 06020KT 6SM -RA BR BKN008 OVC046 04/04 A2987 RMK AO2 CIG 006V011 SLP122 P0007 T00390039,KCWI,2020-12-11T18:56:00Z,41.82,-90.32,3.9,3.9,60,20,,6.0,29.870079,1012.2,,TRUE,TRUE,,,,,,-RA BR,BKN,800,OVC,4600,,,,,IFR,,,,,,0.07,,,,,,METAR,212.0
KCVO 111856Z AUTO 16011KT 10SM -RA SCT043 BKN050 OVC070 06/04 A3010 RMK AO2 RAB34 SLP195 P0000 T00610044,KCVO,2020-12-11T18:56:00Z,44.5,-123.28,6.1,4.4,160,11,,10.0,30.100393,1019.5,,TRUE,TRUE,,,,,,-RA,SCT,4300,BKN,5000,OVC,7000,,,VFR,,,,,,0.005,,,,,,METAR,75.0
KCVN 111856Z AUTO 27012G17KT 10SM SCT055 11/M01 A2985 RMK AO2 SLP104 T01111011,KCVN,2020-12-11T18:56:00Z,34.42,-103.07,11.1,-1.1,270,12,17,10.0,29.84941,1010.4,,TRUE,TRUE,,,,,,,SCT,5500,,,,,,,VFR,,,,,,,,,,,,METAR,1278.0
KCOF 111856Z AUTO 34005KT 10SM CLR 21/09 A3013 RMK AO2 SLP208 T02100089 $,KCOF,2020-12-11T18:56:00Z,28.23,-80.6,21.0,8.9,340,5,,10.0,30.129921,1020.8,,TRUE,TRUE,TRUE,,,,,,CLR,,,,,,,,VFR,,,,,,,,,,,,METAR,1.0
KCIU 111856Z AUTO 32008KT 9SM OVC026 02/M01 A3007 RMK AO2 SLP191 T00221011 FZRANO,KCIU,2020-12-11T18:56:00Z,46.25,-84.47,2.2,-1.1,320,8,,9.0,30.070866,1019.1,,TRUE,TRUE,,,,TRUE,,,OVC,2600,,,,,,,MVFR,,,,,,,,,,,,METAR,242.0
KCHS 111856Z 26005KT 10SM FEW250 22/08 A3014 RMK AO2 SLP205 T02170083,KCHS,2020-12-11T18:56:00Z,32.9,-80.03,21.7,8.3,260,5,,10.0,30.138779,1020.5,,,TRUE,,,,,,,FEW,25000,,,,,,,VFR,,,,,,,,,,,,METAR,12.0
KCGZ 111856Z AUTO 00000KT 10SM CLR 15/09 RMK AO2 SLPNO T01500089 $,KCGZ,2020-12-11T18:56:00Z,32.95,-111.77,15.0,8.9,0,0,,10.0,,,,TRUE,TRUE,TRUE,,,,,,CLR,,,,,,,,VFR,,,,,,,,,,,,METAR,444.0
KCEF 111856Z 19009KT 10SM FEW150 FEW190 BKN250 10/01 A3007 RMK AO2A SLP191 WND DATA ESTMD T01020008,KCEF,2020-12-11T18:56:00Z,42.2,-72.52,10.2,0.8,190,9,,10.0,30.070866,1019.1,,,TRUE,,,,,,,FEW,15000,FEW,19000,BKN,25000,,,VFR,,,,,,,,,,,,METAR,72.0
KCEC 111856Z AUTO 14006KT 7SM FEW017 OVC050 08/04 A3017 RMK AO2 SLP216 T00780044,KCEC,2020-12-11T18:56:00Z,41.78,-124.23,7.8,4.4,140,6,,7.0,30.171259,1021.6,,TRUE,TRUE,,,,,,,FEW,1700,OVC,5000,,,,,VFR,,,,,,,,,,,,METAR,17.0
KCBM 111856Z 20002KT 10SM BKN040 BKN200 22/13 A3005 RMK SLP018 AO2A WND DATA ESTMD ALSTG/SLP ESTMD $,KCBM,2020-12-11T18:56:00Z,33.65,-88.45,22.0,13.0,200,2,,10.0,30.050198,1001.8,,,TRUE,TRUE,,,,,,BKN,4000,BKN,20000,,,,,VFR,,,,,,,,,,,,SPECI,59.0
KCAE 111856Z VRB03KT 10SM FEW250 19/09 A3014 RMK AO2 SLP204 T01890089,KCAE,2020-12-11T18:56:00Z,33.93,-81.12,18.9,8.9,0,3,,10.0,30.138779,1020.4,,,TRUE,,,,,,,FEW,25000,,,,,,,VFR,,,,,,,,,,,,SPECI,69.0
KBVX 111856Z AUTO 19007KT 10SM BKN031 OVC039 17/11 A2987 RMK AO2 SLP112 T01670111,KBVX,2020-12-11T18:56:00Z,35.73,-91.65,16.7,11.1,190,7,,10.0,29.870079,1011.2,,TRUE,TRUE,,,,,,,BKN,3100,OVC,3900,,,,,VFR,,,,,,,,,,,,METAR,137.0
KBTP 111856Z AUTO 19009KT 10SM CLR 15/03 A3000 RMK AO2 SLP169 T01500033,KBTP,2020-12-11T18:56:00Z,40.77,-79.95,15.0,3.3,190,9,,10.0,30.0,1016.9,,TRUE,TRUE,,,,,,,CLR,,,,,,,,VFR,,,,,,,,,,,,METAR,375.0
KBOK 111856Z AUTO 12004KT 10SM SCT055 OVC070 07/04 A3016 RMK AO2 SLP216 T00670039,KBOK,2020-12-11T18:56:00Z,42.07,-124.28,6.7,3.9,120,4,,10.0,30.159449,1021.6,,TRUE,TRUE,,,,,,,SCT,5500,OVC,7000,,,,,VFR,,,,,,,,,,,,METAR,140.0
KBMI 111856Z 36010KT 10SM BKN080 OVC100 07/04 A2987 RMK AO2 SLP118 T00670039,KBMI,2020-12-11T18:56:00Z,40.47,-88.92,6.7,3.9,360,10,,10.0,29.870079,1011.8,,,TRUE,,,,,,,BKN,8000,OVC,10000,,,,,VFR,,,,,,,,,,,,METAR,262.0
KBLV 111856Z AUTO 18003KT 10SM OVC050 15/09 A2984 RMK AO2 SLP108 T01450089 $,KBLV,2020-12-11T18:56:00Z,38.53,-89.83,14.5,8.9,180,3,,10.0,29.840551,1010.8,,TRUE,TRUE,TRUE,,,,,,OVC,5000,,,,,,,VFR,,,,,,,,,,,,SPECI,134.0
KBLM 111856Z AUTO 21014G18KT 10SM CLR 15/04 A3012 RMK AO2 SLP199 T01500044,KBLM,2020-12-11T18:56:00Z,40.17,-74.12,15.0,4.4,210,14,18,10.0,30.121063,1019.9,,TRUE,TRUE,,,,,,,CLR,,,,,,,,VFR,,,,,,,,,,,,METAR,45.0
KBKX 111856Z AUTO 02013KT 10SM BKN010 M01/M04 A3006 RMK AO2 SLP211 T10111039 FZRANO,KBKX,2020-12-11T18:56:00Z,44.3,-96.82,-1.1,-3.9,20,13,,10.0,30.059055,1021.1,,TRUE,TRUE,,,,TRUE,,,BKN,1000,,,,,,,MVFR,,,,,,,,,,,,METAR,494.0
KBJJ 111856Z AUTO 22010KT 10SM CLR 14/04 A2996 RMK AO2 SLP150 T01440039,KBJJ,2020-12-11T18:56:00Z,40.87,-81.88,14.4,3.9,220,10,,10.0,29.958662,1015.0,,TRUE,TRUE,,,,,,,CLR,,,,,,,,VFR,,,,,,,,,,,,METAR,338.0
KBIX 111856Z AUTO 14011KT 10SM BKN055 22/14 A3004 RMK AO2 SLP175 T02190143,KBIX,2020-12-11T18:56:00Z,30.42,-88.92,21.9,14.3,140,11,,10.0,30.041338,1017.5,,TRUE,TRUE,,,,,,,BKN,5500,,,,,,,VFR,,,,,,,,,,,,METAR,4.0
KBIH 111856Z AUTO VRB03KT 10SM CLR 07/M16 A3002 RMK AO2 SLP167 T00721156 $,KBIH,2020-12-11T18:56:00Z,37.37,-118.35,7.2,-15.6,0,3,,10.0,30.02067,1016.7,,TRUE,TRUE,TRUE,,,,,,CLR,,,,,,,,VFR,,,,,,,,,,,,SPECI,1252.0
KBID 111856Z AUTO 24013KT 10SM CLR 11/07 A3015 RMK AO2 SLP212 T01110067,KBID,2020-12-11T18:56:00Z,41.17,-71.58,11.1,6.7,240,13,,10.0,30.15059,1021.2,,TRUE,TRUE,,,,,,,CLR,,,,,,,,VFR,,,,,,,,,,,,METAR,32.0
KBHB 111856Z AUTO 20016KT 10SM BKN023 OVC029 06/02 A3009 RMK AO2 SLP191 T00560017,KBHB,2020-12-11T18:56:00Z,44.45,-68.37,5.6,1.7,200,16,,10.0,30.088583,1019.1,,TRUE,TRUE,,,,,,,BKN,2300,OVC,2900,,,,,MVFR,,,,,,,,,,,,METAR,21.0
KBAD 111856Z AUTO 18014KT 10SM FEW060 BKN080 OVC140 20/14 A2987 RMK AO2 SLP117 T02040143,KBAD,2020-12-11T18:56:00Z,32.5,-93.67,20.4,14.3,180,14,,10.0,29.870079,1011.7,,TRUE,TRUE,,,,,,,FEW,6000,BKN,8000,OVC,14000,,,VFR,,,,,,,,,,,,METAR,49.0
KAUO 111856Z AUTO VRB06KT 10SM CLR 18/11 A3013 RMK AO2 SLPNO T01830106,KAUO,2020-12-11T18:56:00Z,32.62,-85.43,18.3,10.6,0,6,,10.0,30.129921,,,TRUE,TRUE,,,,,,,CLR,,,,,,,,VFR,,,,,,,,,,,,METAR,231.0
KASH 111856Z 00000KT 10SM CLR 08/01 A3008 RMK AO2 SLP192 T00830011,KASH,2020-12-11T18:56:00Z,42.78,-71.52,8.3,1.1,0,0,,10.0,30.079725,1019.2,,,TRUE,,,,,,,CLR,,,,,,,,VFR,,,,,,,,,,,,METAR,56.0
KART 111856Z AUTO 19006KT 10SM CLR 09/01 A2997 RMK AO2 SLP151 T00940011,KART,2020-12-11T18:56:00Z,43.98,-76.03,9.4,1.1,190,6,,10.0,29.970472,1015.1,,TRUE,TRUE,,,,,,,CLR,,,,,,,,VFR,,,,,,,,,,,,METAR,100.0
KARG 111856Z AUTO 19011KT 10SM BKN035 BKN042 BKN050 16/11 A2988 RMK AO2 SLP121 T01560111,KARG,2020-12-11T18:56:00Z,36.12,-90.92,15.6,11.1,190,11,,10.0,29.878937,1012.1,,TRUE,TRUE,,,,,,,BKN,3500,BKN,4200,BKN,5000,,,VFR,,,,,,,,,,,,METAR,82.0
KAND 111856Z AUTO 21003KT 10SM CLR 18/06 A3013 RMK AO2 SLP200 T01780061,KAND,2020-12-11T18:56:00Z,34.5,-82.72,17.8,6.1,210,3,,10.0,30.129921,1020.0,,TRUE,TRUE,,,,,,,CLR,,,,,,,,VFR,,,,,,,,,,,,SPECI,233.0
KALK 111856Z AUTO 29008KT 10SM CLR 12/M01 A3013 RMK AO2 SLP155 T01221011,KALK,2020-12-11T18:56:00Z,31.6,-110.43,12.2,-1.1,290,8,,10.0,30.129921,1015.5,,TRUE,TRUE,,,,,,,CLR,,,,,,,,VFR,,,,,,,,,,,,SPECI,1451.0
KAJO 111856Z AUTO 00000KT 10SM CLR 14/06 A3014 RMK AO2 SLP202 T01440061,KAJO,2020-12-11T18:56:00Z,33.9,-117.6,14.4,6.1,0,0,,10.0,30.138779,1020.2,,TRUE,TRUE,,,,,,,CLR,,,,,,,,VFR,,,,,,,,,,,,METAR,161.0
KAIZ 111856Z AUTO 19006KT 10SM FEW010 BKN055 OVC070 12/11 A2979 RMK AO2 RAB10E22 SLP087 T01170106 PNO $,KAIZ,2020-12-11T18:56:00Z,38.1,-92.53,11.7,10.6,190,6,,10.0,29.790354,1008.7,,TRUE,TRUE,TRUE,,,,,,FEW,1000,BKN,5500,OVC,7000,,,VFR,,,,,,,,,,,,METAR,263.0
KAFJ 111856Z AUTO 20007KT 10SM CLR 17/03 A3004 RMK AO2 SLP177 T01720033,KAFJ,2020-12-11T18:56:00Z,40.13,-80.28,17.2,3.3,200,7,,10.0,30.041338,1017.7,,TRUE,TRUE,,,,,,,CLR,,,,,,,,VFR,,,,,,,,,,,,METAR,360.0
KADW 111856Z AUTO 19010KT 10SM CLR 16/04 A3010 RMK AO2 SLP201 T01580042 FZRANO $,KADW,2020-12-11T18:56:00Z,38.82,-76.87,15.8,4.2,190,10,,10.0,30.100393,1020.1,,TRUE,TRUE,TRUE,,,TRUE,,,CLR,,,,,,,,VFR,,,,,,,,,,,,METAR,87.0
KADF 111856Z AUTO 18006KT 10SM -RA SCT035 BKN047 OVC055 16/14 A2987 RMK AO2 SLP114 P0001 T01610139,KADF,2020-12-11T18:56:00Z,34.1,-93.07,16.1,13.9,180,6,,10.0,29.870079,1011.4,,TRUE,TRUE,,,,,,-RA,SCT,3500,BKN,4700,OVC,5500,,,VFR,,,,,,0.01,,,,,,METAR,54.0
K8D3 111856Z AUTO 34008KT M03/M05 A3014 RMK AO1 SLP228 T10281050,K8D3,2020-12-11T18:56:00Z,45.67,-96.98,-2.8,-5.0,340,8,,,30.138779,1022.8,,TRUE,TRUE,,,,,,,,,,,,,,,,,,,,,,,,,,,SPECI,535.0
K7N0 111856Z AUTO VRB04KT 10SM OVC050 22/11 A3004 RMK AO2 SLP172 T02220111,K7N0,2020-12-11T18:56:00Z,29.95,-90.07,22.2,11.1,0,4,,10.0,30.041338,1017.2,,TRUE,TRUE,,,,,,,OVC,5000,,,,,,,VFR,,,,,,,,,,,,METAR,0.0
K79J 111856Z AUTO 00000KT 9SM CLR 23/12 A3011 RMK AO2 SLP192 T02280117,K79J,2020-12-11T18:56:00Z,31.32,-86.4,22.8,11.7,0,0,,9.0,30.109253,1019.2,,TRUE,TRUE,,,,,,,CLR,,,,,,,,VFR,,,,,,,,,,,,METAR,93.0
K2WX 111856Z AUTO 00000KT M03/M07 A3003 RMK AO1 SLP210 T10331067,K2WX,2020-12-11T18:56:00Z,45.6,-103.55,-3.3,-6.7,0,0,,,30.029528,1021.0,,TRUE,TRUE,,,,,,,,,,,,,,,,,,,,,,,,,,,SPECI,925.0
K2DP 111856Z AUTO 18008KT 10SM BKN041 BKN070 19/13 A3019 RMK AO2 SLPNO T01870125 $,K2DP,2020-12-11T18:56:00Z,35.68,-75.9,18.7,12.5,180,8,,10.0,30.188976,,,TRUE,TRUE,TRUE,,,,,,BKN,4100,BKN,7000,,,,,VFR,,,,,,,,,,,,METAR,1.0
K1M4 111856Z AUTO 18009KT 10SM OVC045 17/11 A3008 RMK AO2 SLP650 T01720106,K1M4,2020-12-11T18:56:00Z,34.28,-87.6,17.2,10.6,180,9,,10.0,30.079725,965.0,,TRUE,TRUE,,,,,,,OVC,4500,,,,,,,VFR,,,,,,,,,,,,METAR,283.0
ETIH 111856Z AUTO 12004KT 6000 BR OVC003 M01/M02 A2948 RMK AO2 SLP007 T10081022,ETIH,2020-12-11T18:56:00Z,49.22,11.83,-0.8,-2.2,120,4,,3.73,29.480314,1000.7,,TRUE,TRUE,,,,,,BR,OVC,300,,,,,,,LIFR,,,,,,,,,,,,METAR,436.0
ETIC 111856Z AUTO 16004KT 9999 OVC008 00/M02 A2945 RMK AO2 SLP995 T00021017 $,ETIC,2020-12-11T18:56:00Z,49.7,11.93,0.2,-1.7,160,4,,6.21,29.450787,999.5,,TRUE,TRUE,TRUE,,,,,,OVC,800,,,,,,,IFR,,,,,,,,,,,,METAR,414.0
TXKF 111855Z 08010KT R12/P2000N SCT050 20/09 Q1025,TXKF,2020-12-11T18:55:00Z,32.37,-64.68,20.0,9.0,80,10,,1.24,30.265747,,,,,,,,,,,SCT,5000,,,,,,,IFR,,,,,,,,,,,,METAR,4.0
TNCE 111855Z AUTO 00000KT //// // ///////// 28/// Q//// RE//,TNCE,2020-12-11T18:55:00Z,17.48,-62.97,,,0,0,,,,,,TRUE,,,,,,,,,,,,,,,,,,,,,,,,,,,,SPECI,38.0
TNCB 111855Z 08012KT 040V110 9999 BKN020 29/22 Q1010,TNCB,2020-12-11T18:55:00Z,12.13,-68.28,29.0,22.0,80,12,,6.21,29.822834,,,,,,,,,,,BKN,2000,,,,,,,MVFR,,,,,,,,,,,,METAR,6.0
RJOI 111855Z 29007KT 9999 FEW025 BKN055 BKN110 09/04 A2997 RMK SLP148 T00890039,RJOI,2020-12-11T18:55:00Z,34.13,132.23,8.9,3.9,290,7,,6.21,29.970472,1014.8,,,,,,,,,,FEW,2500,BKN,5500,BKN,11000,,,VFR,,,,,,,,,,,,METAR,2.0
PATL 111855Z AUTO 00000KT 10SM CLR M25/M27 A3011 RMK AO2 SLP250 T12491271,PATL,2020-12-11T18:55:00Z,62.9,-155.97,-24.9,-27.1,0,0,,10.0,30.109253,1025.0,,TRUE,TRUE,,,,,,,CLR,,,,,,,,VFR,,,,,,,,,,,,METAR,261.0
PATC 111855Z AUTO 03021KT 10SM CLR M22/M24 A3023 RMK AO2 SLP250 T12161238,PATC,2020-12-11T18:55:00Z,65.57,-167.92,-21.6,-23.8,30,21,,10.0,30.230314,1025.0,,TRUE,TRUE,,,,,,,CLR,,,,,,,,VFR,,,,,,,,,,,,METAR,77.0
PASV 111855Z AUTO 28001KT 10SM 0 0 0C8B FEW250 M22/M24 A2984,PASV,2020-12-11T18:55:00Z,61.1,-155.57,-22.0,-24.0,280,1,,10.0,29.840551,,,TRUE,,,,,,,,FEW,25000,,,,,,,VFR,,,,,,,,,,,,SPECI,462.0
PAEH 111855Z AUTO 06027G37KT 010V140 10SM -SHRA OVC140 M01/M11 A2962 RMK AO2 PK WND 06048/1836 DZB1830E1848SHRAB1848 SLP041 P0000 T10111110,PAEH,2020-12-11T18:55:00Z,58.65,-162.07,-1.1,-11.0,60,27,37,10.0,29.619095,1004.1,,TRUE,TRUE,,,,,,-SHRA,OVC,14000,,,,,,,VFR,,,,,,0.005,,,,,,METAR,101.0
PACZ 111855Z AUTO 20004G16KT 10SM BKN140 M07/M18 A2983 RMK AO2 SLP117 T10721176,PACZ,2020-12-11T18:55:00Z,61.78,-166.03,-7.2,-17.6,200,4,16,10.0,29.828741,1011.7,,TRUE,TRUE,,,,,,,BKN,14000,,,,,,,VFR,,,,,,,,,,,,METAR,129.0
OPNH 111855Z 36005KT 2500 FU NSC 15/11 Q1016 TEMPO 2000 BR,OPNH,2020-12-11T18:55:00Z,26.22,68.38,15.0,11.0,360,5,,1.55,30.0,,,,,,,,,,FU,CLR,,,,,,,,IFR,,,,,,,,,,,,SPECI,30.0
OPKC 111855Z 08004KT 5000 FU NSC 18/09 Q1016 NOSIG,OPKC,2020-12-11T18:55:00Z,24.9,67.13,18.0,9.0,80,4,,3.11,30.0,,,,,,TRUE,,,,FU,CLR,,,,,,,,MVFR,,,,,,,,,,,,METAR,20.0
OPIS 111855Z 23005KT 1600 -RA SCT040 OVC100 10/10 Q1013 TEMPO 27015G25KT 1000 TSRA FEW030CB,OPIS,2020-12-11T18:55:00Z,33.55,72.83,10.0,10.0,230,5,,0.99,29.911417,,,,,,,,,,-RA,SCT,4000,OVC,10000,,,,,LIFR,,,,,,,,,,,,METAR,542.0
OPFA 111855Z 00000KT 4000 FU SCT100 BKN100 13/12 Q1015 NOSIG,OPFA,2020-12-11T18:55:00Z,31.37,73.0,13.0,12.0,0,0,,2.49,29.970472,,,,,,TRUE,,,,FU,SCT,10000,BKN,10000,,,,,IFR,,,,,,,,,,,,METAR,185.0
OKAS 111855Z 28005KT 9999 CLR 12/08 A3014 RMK AO2A SLP206 T01240084 $,OKAS,2020-12-11T18:55:00Z,29.35,47.52,12.4,8.4,280,5,,6.21,30.138779,1020.6,,,TRUE,TRUE,,,,,,CLR,,,,,,,,VFR,,,,,,,,,,,,METAR,144.0
MUHA 111855Z VRB04KT 9000 BKN040 26/14 Q1016,MUHA,2020-12-11T18:55:00Z,22.98,-82.42,26.0,14.0,0,4,,5.59,30.0,,,,,,,,,,,BKN,4000,,,,,,,VFR,,,,,,,,,,,,METAR,61.0
LIVP 111855Z 19005KT 0000 FZFG VV/// M02/M05 Q0996 RMK MON INVIS VAL INVIS VIS MIN 0000,LIVP,2020-12-11T18:55:00Z,46.15,11.03,-2.0,-5.0,190,5,,0.0,29.409449,,,,,,,,,,FZFG,OVX,0,,,,,,,LIFR,,,,,,,,,,,,SPECI,2099.0
LIVM 111855Z AUTO VRB02KT //// 06/05 Q1003,LIVM,2020-12-11T18:55:00Z,44.45,12.3,6.0,5.0,0,2,,,29.616142,,,TRUE,,,,,,,,,,,,,,,,,,,,,,,,,,,,SPECI,6.0
LIVF 111855Z 20002KT 8000 SCT007 04/03 Q1002 RMK BKN MON N W CLD SCT VAL NIL VIS MIN 8000,LIVF,2020-12-11T18:55:00Z,43.52,12.72,4.0,3.0,200,2,,4.97,29.586615,,,,,,,,,,,SCT,700,,,,,,,MVFR,,,,,,,,,,,,SPECI,549.0
LIVE 111855Z 22002KT 9000 FEW020 SCT030 M04/M06 Q0998 RMK OVC BKN060 VIS MIN 9000,LIVE,2020-12-11T18:55:00Z,46.82,10.5,-4.0,-6.0,220,2,,5.59,29.468504,,,,,,,,,,,FEW,2000,SCT,3000,,,,,VFR,,,,,,,,,,,,METAR,1684.0
LIVC 111855Z AUTO 23016KT //// M01/M02 Q0999,LIVC,2020-12-11T18:55:00Z,44.2,10.68,-1.0,-2.0,230,16,,,29.498032,,,TRUE,,,,,,,,,,,,,,,,,,,,,,,,,,,,SPECI,2139.0
LIRX 111855Z 17006KT 9999 SCT010 SCT050 09/07 Q1001 RMK OVC VIS MIN 9999 VIS MAR 20 KM,LIRX,2020-12-11T18:55:00Z,42.73,10.38,9.0,7.0,170,6,,6.21,29.557087,,,,,,,,,,,SCT,1000,SCT,5000,,,,,VFR,,,,,,,,,,,,METAR,397.0
LIRT 111855Z 09005KT 0000 FG VV/// 02/00 Q1000 RMK MON INVIS VAL INVIS VIS MIN 0000,LIRT,2020-12-11T18:55:00Z,41.03,15.22,2.0,0.0,90,5,,0.0,29.52756,,,,,,,,,,FG,OVX,0,,,,,,,LIFR,,,,,,,,,,,,SPECI,1058.0
LIRS 111855Z 09004KT CAVOK 07/05 Q1002 RMK BKN SCT080 SCT200 VIS MIN 9999 WIND THR03 10004KT WIND THR21 10003KT BLU,LIRS,2020-12-11T18:55:00Z,42.75,11.07,7.0,5.0,90,4,,6.21,29.586615,,,,,,,,,,,CAVOK,,,,,,,,VFR,,0.4,,,,,,,,,,SPECI,3.0
LIRM 111855Z /////KT CAVOK 08/06 Q1002,LIRM,2020-12-11T18:55:00Z,41.05,14.07,8.0,6.0,,,,6.21,29.586615,,,,,,,,,,,CAVOK,,,,,,,,VFR,,,,,,,,,,,,METAR,6.0
LIRK 111855Z AUTO VRB02KT //// M02/M03 Q1001,LIRK,2020-12-11T18:55:00Z,42.47,12.97,-2.0,-3.0,0,2,,,29.557087,,,TRUE,,,,,,,,,,,,,,,,,,,,,,,,,,,,SPECI,1721.0
LIRE 111855Z 36004KT CAVOK 08/05 Q1002 RMK BKN BKN200 VIS MIN 9999 WIND THR13 36004KT WIND THR31 /////KT BLU,LIRE,2020-12-11T18:55:00Z,41.65,12.43,8.0,5.0,360,4,,6.21,29.586615,,,,,,,,,,,CAVOK,,,,,,,,VFR,,,,,,,,,,,,METAR,16.0
LIQC 111855Z 09007KT 9999 SCT025 10/04 Q1002 RMK SCT QUK / QUL / VIS MAR 20 KM VIS MIN 9999,LIQC,2020-12-11T18:55:00Z,40.55,14.2,10.0,4.0,90,7,,6.21,29.586615,,,,,,,,,,,SCT,2500,,,,,,,VFR,,,,,,,,,,,,SPECI,154.0
LIPS 111855Z 00000KT 9999 SCT080 05/04 Q1004 RMK SCT VIS MIN 9999 WIND THR26 00000KT WIND THR08 00000KT BLU,LIPS,2020-12-11T18:55:00Z,45.68,12.1,5.0,4.0,0,0,,6.21,29.64567,,,,,,,,,,,SCT,8000,,,,,,,VFR,,,,,,,,,,,,SPECI,42.0
LIPL 111855Z 28003KT 0600 R31/1900 -RA FG BKN001 SCT015 05/02 Q1003,LIPL,2020-12-11T18:55:00Z,45.42,10.27,5.0,2.0,280,3,,0.37,29.616142,,,,,,,,,,-RA FG,BKN,100,SCT,1500,,,,,LIFR,,,,,,,,,,,,SPECI,96.0
LIPA 111855Z 02004KT 9999 FEW110 03/02 Q1003 RMK FEW VIS MIN 9999 WIND THR05/////KT WIND THR23/////KT A2962 BLU,LIPA,2020-12-11T18:55:00Z,46.02,12.58,3.0,2.0,20,4,,6.21,29.616142,,,,,,,,,,,FEW,11000,,,,,,,VFR,,,,,,,,,,,,SPECI,113.0
LIMU 111855Z 02004KT 9999 BKN020 08/06 Q1000 RMK OVC BKN080 QUK / QUL / VIS MAR 10 KM VIS MIN 9999,LIMU,2020-12-11T18:55:00Z,43.95,8.17,8.0,6.0,20,4,,6.21,29.52756,,,,,,,,,,,BKN,2000,,,,,,,MVFR,,,,,,,,,,,,SPECI,215.0
LIMH 111855Z 21011KT CAVOK M13/M14 Q0994 RMK SKC MON LIB VAL NIL VIS MIN 9999,LIMH,2020-12-11T18:55:00Z,45.93,7.7,-13.0,-14.0,210,11,,6.21,29.350393,,,,,,,,,,,CAVOK,,,,,,,,VFR,,,,,,,,,,,,SPECI,3473.0
LIED 111855Z 34003KT 9999 FEW020 BKN040 11/09 Q1003 RMK OVC VIS MIN 9999 WIND THR35 /////KT WIND THR17 36002KT BLU,LIED,2020-12-11T18:55:00Z,39.35,8.97,11.0,9.0,340,3,,6.21,29.616142,,,,,,,,,,,FEW,2000,BKN,4000,,,,,VFR,,,,,,,,,,,,SPECI,26.0
LIEB 111855Z 31008KT 9999 FEW035 10/06 Q1002 RMK BKN SCT200 QUK / QUL / VIS MAR 30 KM MON INVIS VIS MIN 9999,LIEB,2020-12-11T18:55:00Z,39.93,9.72,10.0,6.0,310,8,,6.21,29.586615,,,,,,,,,,,FEW,3500,,,,,,,VFR,,,,,,,,,,,,SPECI,126.0
LICZ 111855Z 26012KT 9999 SCT090 13/13 Q1003 RMK SCT VIS MIN 9999 WIND THR28 25011KT WIND THR10 26010KT A2964 BLU,LICZ,2020-12-11T18:55:00Z,37.4,14.92,13.0,13.0,260,12,,6.21,29.616142,,,,,,,,,,,SCT,9000,,,,,,,VFR,,,,,,,,,,,,METAR,22.0
LICT 111855Z 27007KT 9999 SCT020 13/10 Q1003 RMK BKN BKN160 VIS MIN 9999 WIND THR13 28009KT BLU,LICT,2020-12-11T18:55:00Z,37.92,12.5,13.0,10.0,270,7,,6.21,29.616142,,,,,,,,,,,SCT,2000,,,,,,,VFR,,,,,,,,,,,,SPECI,4.0
LICF 111855Z 31005KT 9999 SCT020 SCT030 14/08 Q1002 RMK BKN QUK / QUL / VIS MAR 14 KM MON INVIS NC VIS MIN 9999,LICF,2020-12-11T18:55:00Z,38.2,15.55,14.0,8.0,310,5,,6.21,29.586615,,,,,,,,,,,SCT,2000,SCT,3000,,,,,VFR,,,,,,,,,,,,SPECI,66.0
LIBV 111855Z 30006KT 7000 FEW015 BKN050 09/09 Q1002 RMK BKN VIS MIN 7000 WIND THR32 33006KT WIND THR14 /////KT WHT,LIBV,2020-12-11T18:55:00Z,40.77,16.93,9.0,9.0,300,6,,4.35,29.586615,,,,,,,,,,,FEW,1500,BKN,5000,,,,,MVFR,,,,,,,,,,,,METAR,344.0
LIBQ 111855Z 26005KT 0000 FG VV/// 00/00 Q0999 RMK MON INVIS VAL INVIS VIS MIN 0000,LIBQ,2020-12-11T18:55:00Z,39.32,16.38,0.0,0.0,260,5,,0.0,29.498032,,,,,,,,,,FG,OVX,0,,,,,,,LIFR,,,,,,,,,,,,SPECI,1660.0
LIBN 111855Z 00000KT 9999 -RA SCT015 FEW020TCU 10/10 Q1000 RMK BKN BKN060 VIS MIN 9999 WIND THR14 00000KT WIND THR32 00000KT BLU,LIBN,2020-12-11T18:55:00Z,40.23,18.13,10.0,10.0,0,0,,6.21,29.52756,,,,,,,,,,-RA,SCT,1500,FEW,2000,,,,,VFR,,,,,,,,,,,,SPECI,46.0
LIBA 111855Z 27003KT 9999 SCT030 BKN060 09/09 Q1002 RMK BKN VIS MIN 9999 WIND THR11 26004KT WIND THR29 /////KT BLU,LIBA,2020-12-11T18:55:00Z,41.53,15.72,9.0,9.0,270,3,,6.21,29.586615,,,,,,,,,,,SCT,3000,BKN,6000,,,,,VFR,,,,,,,,,,,,METAR,55.0
KX07 111855Z AUTO 14008G14KT 10SM SCT055 23/10 A3015 RMK A01,KX07,2020-12-11T18:55:00Z,27.9,-81.62,23.0,10.0,140,8,14,10.0,30.15059,,,TRUE,TRUE,,,,,,,SCT,5500,,,,,,,VFR,,,,,,,,,,,,METAR,36.0
KWHP 111855Z 00000KT 10SM SCT070 11/05 A3015,KWHP,2020-12-11T18:55:00Z,34.25,-118.42,11.0,5.0,0,0,,10.0,30.15059,,,,,,,,,,,SCT,7000,,,,,,,VFR,,,,,,,,,,,,METAR,302.0
KW31 111855Z AUTO 20004KT 10SM CLR 17/08 A3013 RMK AO1 T01690080,KW31,2020-12-11T18:55:00Z,36.95,-78.18,16.9,8.0,200,4,,10.0,30.129921,,,TRUE,TRUE,,,,,,,CLR,,,,,,,,VFR,,,,,,,,,,,,METAR,159.0
KUGN 111855Z 02011G21KT 10SM OVC011 06/02 A2995 RMK AO2 PK WND 01027/1844 SLP148 T00560022,KUGN,2020-12-11T18:55:00Z,42.42,-87.87,5.6,2.2,20,11,21,10.0,29.949802,1014.8,,,TRUE,,,,,,,OVC,1100,,,,,,,MVFR,,,,,,,,,,,,METAR,217.0
KTZR 111855Z 23012G17KT 10SM CLR 17/05 A2999,KTZR,2020-12-11T18:55:00Z,39.9,-83.13,17.0,5.0,230,12,17,10.0,29.991142,,,,,,,,,,,CLR,,,,,,,,VFR,,,,,,,,,,,,METAR,275.0
KTIX 111855Z 06008KT 7SM SCT060 23/08 A3014,KTIX,2020-12-11T18:55:00Z,28.5,-80.8,23.0,8.0,60,8,,7.0,30.138779,,,,,,,,,,,SCT,6000,,,,,,,VFR,,,,,,,,,,,,METAR,10.0
KSCK 111855Z 36005KT 10SM FEW110 13/06 A3020 RMK AO2 SLP226 T01330056,KSCK,2020-12-11T18:55:00Z,37.88,-121.22,13.3,5.6,360,5,,10.0,30.200787,1022.6,,,TRUE,,,,,,,FEW,11000,,,,,,,VFR,,,,,,,,,,,,SPECI,8.0
KSAZ 111855Z AUTO 10005KT 10SM OVC005 M02/M03 A3013 RMK AO2,KSAZ,2020-12-11T18:55:00Z,46.37,-94.8,-2.0,-3.0,100,5,,10.0,30.129921,,,TRUE,TRUE,,,,,,,OVC,500,,,,,,,IFR,,,,,,,,,,,,METAR,391.0
KRNO 111855Z 18005KT 10SM SCT110 SCT180 SCT250 03/M07 A3009 RMK AO2 SLP190 ACSL DSNT ALQDS T00331067,KRNO,2020-12-11T18:55:00Z,39.5,-119.77,3.3,-6.7,180,5,,10.0,30.088583,1019.0,,,TRUE,,,,,,,SCT,11000,SCT,18000,SCT,25000,,,VFR,,,,,,,,,,,,SPECI,1344.0
KRNM 111855Z VRB03KT 10SM CLR 14/05 A3011 RMK AO2 T01390050,KRNM,2020-12-11T18:55:00Z,33.03,-116.92,13.9,5.0,0,3,,10.0,30.109253,,,,TRUE,,,,,,,CLR,,,,,,,,VFR,,,,,,,,,,,,METAR,423.0
KQTZ 111855Z VRB01KT 9999 SKC 13/08 A3016 RMK SLP217,KQTZ,2020-12-11T18:55:00Z,,,13.0,8.0,0,1,,6.21,30.159449,1021.7,,,,,,,,,,SKC,,,,,,,,VFR,,,,,,,,,,,,METAR,
KPHP 111855Z AUTO 07004KT 6SM BR OVC004 M03/M05 A3009 RMK AO2 SLP212 T10331050,KPHP,2020-12-11T18:55:00Z,44.05,-101.6,-3.3,-5.0,70,4,,6.0,30.088583,1021.2,,TRUE,TRUE,,,,,,BR,OVC,400,,,,,,,LIFR,,,,,,,,,,,,SPECI,673.0
KNKX 111855Z 34005KT 10SM CLR 17/07 A3012 RMK AO2 SLP196 T01670072 $,KNKX,2020-12-11T18:55:00Z,32.87,-117.13,16.7,7.2,340,5,,10.0,30.121063,1019.6,,,TRUE,TRUE,,,,,,CLR,,,,,,,,VFR,,,,,,,,,,,,METAR,138.0
KNFG 111855Z 14004KT 10SM FEW033 17/05 A3013 RMK AO2 SLP203 T01670050 $,KNFG,2020-12-11T18:55:00Z,33.3,-117.35,16.7,5.0,140,4,,10.0,30.129921,1020.3,,,TRUE,TRUE,,,,,,FEW,3300,,,,,,,VFR,,,,,,,,,,,,METAR,21.0
KNBG 111855Z 17010KT 10SM BKN050 BKN250 23/13 A3003 RMK AO2 SLP169 T02330133 $,KNBG,2020-12-11T18:55:00Z,29.83,-90.02,23.3,13.3,170,10,,10.0,30.029528,1016.9,,,TRUE,TRUE,,,,,,BKN,5000,BKN,25000,,,,,VFR,,,,,,,,,,,,METAR,0.0
KMTC 111855Z 35008KT 6SM HZ SCT150 BKN230 10/06 A2994 RMK AO2A SLP148 T00980056 $,KMTC,2020-12-11T18:55:00Z,42.62,-82.83,9.8,5.6,350,8,,6.0,29.940945,1014.8,,,TRUE,TRUE,,,,,HZ,SCT,15000,BKN,23000,,,,,VFR,,,,,,,,,,,,SPECI,177.0
KLLJ 111855Z AUTO 36003KT 10SM OVC075 M06/M13 A2994 RMK AO2 SLP189 T10561128,KLLJ,2020-12-11T18:55:00Z,44.52,-114.22,-5.6,-12.8,360,3,,10.0,29.940945,1018.9,,TRUE,TRUE,,,,,,,OVC,7500,,,,,,,VFR,,,,,,,,,,,,METAR,1535.0
KLCK 111855Z AUTO 23010KT 10SM CLR 17/04 A2999 RMK AO2 T01670041,KLCK,2020-12-11T18:55:00Z,39.82,-82.92,16.7,4.1,230,10,,10.0,29.991142,,,TRUE,TRUE,,,,,,,CLR,,,,,,,,VFR,,,,,,,,,,,,METAR,225.0
KHON 111855Z AUTO 01012KT 10SM CLR 01/M04 A3009 RMK AO2 SLP204 T00111039,KHON,2020-12-11T18:55:00Z,44.38,-98.23,1.1,-3.9,10,12,,10.0,30.088583,1020.4,,TRUE,TRUE,,,,,,,CLR,,,,,,,,VFR,,,,,,,,,,,,SPECI,391.0
KGPI 111855Z 15004KT 10SM SCT060 OVC090 M01/M05 A2998 RMK AO2 SLP181 T10111050,KGPI,2020-12-11T18:55:00Z,48.32,-114.25,-1.1,-5.0,150,4,,10.0,29.97933,1018.1,,,TRUE,,,,,,,SCT,6000,OVC,9000,,,,,VFR,,,,,,,,,,,,SPECI,903.0
KEAT 111855Z AUTO 00000KT 6SM BR OVC021 01/00 A3005 RMK AO2 SLP187 T00060000,KEAT,2020-12-11T18:55:00Z,47.4,-120.2,0.6,0.0,0,0,,6.0,30.050198,1018.7,,TRUE,TRUE,,,,,,BR,OVC,2100,,,,,,,MVFR,,,,,,,,,,,,METAR,375.0
KDLH 111855Z 05006KT 10SM OVC020 M01/M06 A3013 RMK AO2 SLP223 T10061056,KDLH,2020-12-11T18:55:00Z,46.85,-92.2,-0.6,-5.6,50,6,,10.0,30.129921,1022.3,,,TRUE,,,,,,,OVC,2000,,,,,,,MVFR,,,,,,,,,,,,SPECI,434.0
KCWF 111855Z 17014KT 10SM OVC042 22/13 A2996,KCWF,2020-12-11T18:55:00Z,30.22,-93.15,22.0,13.0,170,14,,10.0,29.958662,,,,,,,,,,,OVC,4200,,,,,,,VFR,,,,,,,,,,,,METAR,4.0
KCNW 111855Z 18005KT 3SM RA OVC003 17/17 A2986,KCNW,2020-12-11T18:55:00Z,31.63,-97.07,17.0,17.0,180,5,,3.0,29.861221,,,,,,,,,,RA,OVC,300,,,,,,,LIFR,,,,,,,,,,,,METAR,139.0
KCNK 111855Z AUTO 01010KT 10SM OVC013 03/M01 A2982 RMK AO2 SLP104 T00281006,KCNK,2020-12-11T18:55:00Z,39.55,-97.65,2.8,-0.6,10,10,,10.0,29.819881,1010.4,,TRUE,TRUE,,,,,,,OVC,1300,,,,,,,MVFR,,,,,,,,,,,,METAR,445.0
KCAO 111855Z AUTO VRB03KT 10SM OVC022 02/M04 A2983 RMK AO2 SLP110 T00171044,KCAO,2020-12-11T18:55:00Z,36.45,-103.15,1.7,-4.4,0,3,,10.0,29.828741,1011.0,,TRUE,TRUE,,,,,,,OVC,2200,,,,,,,MVFR,,,,,,,,,,,,SPECI,1517.0
KAST 111855Z AUTO 14008KT 10SM -RA OVC041 05/03 A3005 RMK AO2 SLP174 P0003 T00500033,KAST,2020-12-11T18:55:00Z,46.15,-123.88,5.0,3.3,140,8,,10.0,30.050198,1017.4,,TRUE,TRUE,,,,,,-RA,OVC,4100,,,,,,,VFR,,,,,,0.03,,,,,,SPECI,3.0
KANJ 111855Z AUTO 32006KT 10SM OVC028 04/M03 A3007 RMK AO2 SLP188 T00391028,KANJ,2020-12-11T18:55:00Z,46.47,-84.37,3.9,-2.8,320,6,,10.0,30.070866,1018.8,,TRUE,TRUE,,,,,,,OVC,2800,,,,,,,MVFR,,,,,,,,,,,,SPECI,220.0
KAAT 111855Z AUTO 00000KT 10SM BKN110 M02/M06 A3007 RMK AO2 SLP209 T10221061,KAAT,2020-12-11T18:55:00Z,41.48,-120.57,-2.2,-6.1,0,0,,10.0,30.070866,1020.9,,TRUE,TRUE,,,,,,,BKN,11000,,,,,,,VFR,,,,,,,,,,,,SPECI,1336.0
FJDG 111855Z 33003KT 9999 FEW020 SCT050 BKN080 27/25 A2986 RMK SLP108 T02670249,FJDG,2020-12-11T18:55:00Z,-7.32,72.42,26.7,24.9,330,3,,6.21,29.861221,1010.8,,,,,,,,,,FEW,2000,SCT,5000,BKN,8000,,,VFR,,,,,,,,,,,,METAR,3.0
PHOG 111854Z 34005KT 10SM FEW030 26/17 A3008 RMK AO2 SLP192 T02560172 $,PHOG,2020-12-11T18:54:00Z,20.9,-156.43,25.6,17.2,340,5,,10.0,30.079725,1019.2,,,TRUE,TRUE,,,,,,FEW,3000,,,,,,,VFR,,,,,,,,,,,,SPECI,14.0
PHMK 111854Z VRB04KT 10SM CLR 27/17 A3009 RMK AO2 SLP190 T02670167,PHMK,2020-12-11T18:54:00Z,21.15,-157.1,26.7,16.7,0,4,,10.0,30.088583,1019.0,,,TRUE,,,,,,,CLR,,,,,,,,VFR,,,,,,,,,,,,METAR,135.0
PGUM 111854Z 05006KT 10SM CLR 24/21 A2984 RMK AO2 SLP099 T02390211,PGUM,2020-12-11T18:54:00Z,13.48,144.8,23.9,21.1,50,6,,10.0,29.840551,1009.9,,,TRUE,,,,,,,CLR,,,,,,,,VFR,,,,,,,,,,,,METAR,74.0
PGSN 111854Z 10007KT 10SM FEW033 26/24 A2985 RMK AO2 RAE19 SLP129 P0000 T02610239,PGSN,2020-12-11T18:54:00Z,15.12,145.72,26.1,23.9,100,7,,10.0,29.84941,1012.9,,,TRUE,,,,,,,FEW,3300,,,,,,,VFR,,,,,,0.005,,,,,,METAR,65.0
PAKN 111854Z 35006KT 10SM CLR M10/M12 A2972 RMK AO2 SLP066 T11001122,PAKN,2020-12-11T18:54:00Z,58.68,-156.65,-10.0,-12.2,350,6,,10.0,29.719488,1006.6,,,TRUE,,,,,,,CLR,,,,,,,,VFR,,,,,,,,,,,,METAR,20.0
PAHN 111854Z AUTO 29009KT 10SM OVC030 M02/M05 A3012 RMK AO2 SLP201 T10171050 TSNO,PAHN,2020-12-11T18:54:00Z,59.25,-135.52,-1.7,-5.0,290,9,,10.0,30.121063,1020.1,,TRUE,TRUE,,,TRUE,,,,OVC,3000,,,,,,,MVFR,,,,,,,,,,,,METAR,15.0
KWLD 111854Z AUTO 32010KT 10SM OVC020 07/01 A2983 RMK AO2 SLP102 T00670011,KWLD,2020-12-11T18:54:00Z,37.17,-97.03,6.7,1.1,320,10,,10.0,29.828741,1010.2,,TRUE,TRUE,,,,,,,OVC,2000,,,,,,,MVFR,,,,,,,,,,,,METAR,351.0
KWAL 111854Z 18010KT 10SM FEW037 SCT250 14/10 A3018 RMK AO2 SLP215 T01440100,KWAL,2020-12-11T18:54:00Z,37.93,-75.47,14.4,10.0,180,10,,10.0,30.180119,1021.5,,,TRUE,,,,,,,FEW,3700,SCT,25000,,,,,VFR,,,,,,,,,,,,METAR,10.0
KVTA 111854Z AUTO 23014KT 10SM CLR 18/04 A2998 RMK AO2 SLP153 T01780044,KVTA,2020-12-11T18:54:00Z,40.02,-82.47,17.8,4.4,230,14,,10.0,29.97933,1015.3,,TRUE,TRUE,,,,,,,CLR,,,,,,,,VFR,,,,,,,,,,,,METAR,268.0
KVSF 111854Z AUTO 17003KT 10SM CLR 05/M01 A3005 RMK AO2 SLP182 T00501011,KVSF,2020-12-11T18:54:00Z,43.35,-72.52,5.0,-1.1,170,3,,10.0,30.050198,1018.2,,TRUE,TRUE,,,,,,,CLR,,,,,,,,VFR,,,,,,,,,,,,SPECI,176.0
KVAY 111854Z AUTO 19009G15KT 10SM CLR 16/04 A3011 RMK AO2 SLP195 T01560044,KVAY,2020-12-11T18:54:00Z,39.93,-74.83,15.6,4.4,190,9,15,10.0,30.109253,1019.5,,TRUE,TRUE,,,,,,,CLR,,,,,,,,VFR,,,,,,,,,,,,SPECI,15.0
KUZA 111854Z AUTO 25005KT 10SM CLR 18/07 A3015 RMK AO2 SLP210 T01780072,KUZA,2020-12-11T18:54:00Z,34.98,-81.05,17.8,7.2,250,5,,10.0,30.15059,1021.0,,TRUE,TRUE,,,,,,,CLR,,,,,,,,VFR,,,,,,,,,,,,METAR,198.0
KUIN 111854Z AUTO 04007KT 2 1/2SM -RA BR SCT035 OVC070 07/06 A2982 RMK AO2 SLP097 P0004 T00670056,KUIN,2020-12-11T18:54:00Z,39.95,-91.2,6.7,5.6,40,7,,2.5,29.819881,1009.7,,TRUE,TRUE,,,,,,-RA BR,SCT,3500,OVC,7000,,,,,IFR,,,,,,0.04,,,,,,METAR,233.0
KTQE 111854Z AUTO 01011KT 8SM -SN OVC017 02/00 A2988 RMK AO2 SLP121 P0003 T00170000,KTQE,2020-12-11T18:54:00Z,41.77,-96.18,1.7,0.0,10,11,,8.0,29.878937,1012.1,,TRUE,TRUE,,,,,,-SN,OVC,1700,,,,,,,MVFR,,,,,,0.03,,,,,,SPECI,312.0
KTAD 111854Z AUTO 07004KT 10SM OVC012 M01/M04 A2983 RMK AO2 SLP114 T10111044,KTAD,2020-12-11T18:54:00Z,37.27,-104.33,-1.1,-4.4,70,4,,10.0,29.828741,1011.4,,TRUE,TRUE,,,,,,,OVC,1200,,,,,,,MVFR,,,,,,,,,,,,METAR,1751.0
KSYR 111854Z COR 25005KT 10SM SCT180 BKN250 13/02 A2997 RMK SLPNO T01300020,KSYR,2020-12-11T18:54:00Z,43.12,-76.1,13.0,2.0,250,5,,10.0,29.970472,,TRUE,,,,,,,,,SCT,18000,BKN,25000,,,,,VFR,,,,,,,,,,,,SPECI,125.0
KSUS 111854Z 00000KT 10SM -RA OVC085 13/07 A2981 RMK AO2 RAB48 SLP097 P0000 T01280072,KSUS,2020-12-11T18:54:00Z,38.65,-90.65,12.8,7.2,0,0,,10.0,29.811024,1009.7,,,TRUE,,,,,,-RA,OVC,8500,,,,,,,VFR,,,,,,0.005,,,,,,METAR,140.0
KSLC 111854Z COR 07003KT 3SM -SN BKN047 BKN060 M01/M05 A3004 RMK AO2 SFC VIS 8 SLP190 P0000 T10061050 $,KSLC,2020-12-11T18:54:00Z,40.77,-111.97,-0.6,-5.0,70,3,,3.0,30.041338,1019.0,TRUE,,TRUE,TRUE,,,,,-SN,BKN,4700,BKN,6000,,,,,MVFR,,,,,,0.005,,,,,,METAR,1286.0
KSJN 111854Z AUTO 28016G22KT 10SM CLR 10/M03 A3001 RMK AO2 PK WND 29027/1834 SLP129 T01001033,KSJN,2020-12-11T18:54:00Z,34.52,-109.38,10.0,-3.3,280,16,22,10.0,30.008858,1012.9,,TRUE,TRUE,,,,,,,CLR,,,,,,,,VFR,,,,,,,,,,,,METAR,1747.0
KSET 111854Z AUTO 00000KT 9SM -RA FEW060 OVC085 13/07 A2981 RMK AO2 RAB52 SLP096 P0000 T01330072,KSET,2020-12-11T18:54:00Z,38.93,-90.43,13.3,7.2,0,0,,9.0,29.811024,1009.6,,TRUE,TRUE,,,,,,-RA,FEW,6000,OVC,8500,,,,,VFR,,,,,,0.005,,,,,,METAR,133.0
KSBY 111854Z 19013KT 10SM CLR 17/06 A3014 RMK AO2 SLP209 T01670061,KSBY,2020-12-11T18:54:00Z,38.33,-75.5,16.7,6.1,190,13,,10.0,30.138779,1020.9,,,TRUE,,,,,,,CLR,,,,,,,,VFR,,,,,,,,,,,,METAR,14.0
KSBN 111854Z 08007KT 8SM CLR 10/03 A2988 RMK AO2 SLP124 T01000028,KSBN,2020-12-11T18:54:00Z,41.7,-86.32,10.0,2.8,80,7,,8.0,29.878937,1012.4,,,TRUE,,,,,,,CLR,,,,,,,,VFR,,,,,,,,,,,,METAR,236.0
KRST 111854Z 04014G21KT 10SM FEW110 03/M03 A3001 RMK AO2 SLP175 T00281033,KRST,2020-12-11T18:54:00Z,43.9,-92.5,2.8,-3.3,40,14,21,10.0,30.008858,1017.5,,,TRUE,,,,,,,FEW,11000,,,,,,,VFR,,,,,,,,,,,,METAR,398.0
KRSP 111854Z AUTO VRB03KT 10SM CLR 13/02 A3007 RMK AO2 SLP191 T01330022 TSNO PNO $,KRSP,2020-12-11T18:54:00Z,39.65,-77.47,13.3,2.2,0,3,,10.0,30.070866,1019.1,,TRUE,TRUE,TRUE,,TRUE,,,,CLR,,,,,,,,VFR,,,,,,,,,,,,METAR,555.0
KROC 111854Z 20004KT 10SM SCT090 BKN230 12/03 A2996 RMK AO2 SLP151 T01170028,KROC,2020-12-11T18:54:00Z,43.12,-77.68,11.7,2.8,200,4,,10.0,29.958662,1015.1,,,TRUE,,,,,,,SCT,9000,BKN,23000,,,,,VFR,,,,,,,,,,,,METAR,166.0
KROA 111854Z 00000KT 10SM CLR 17/04 A3013 RMK AO2 SLP200 T01670044,KROA,2020-12-11T18:54:00Z,37.32,-79.97,16.7,4.4,0,0,,10.0,30.129921,1020.0,,,TRUE,,,,,,,CLR,,,,,,,,VFR,,,,,,,,,,,,METAR,349.0
KRIC 111854Z 18009KT 10SM FEW300 17/08 A3014 RMK AO2 SLP209 T01720078,KRIC,2020-12-11T18:54:00Z,37.52,-77.32,17.2,7.8,180,9,,10.0,30.138779,1020.9,,,TRUE,,,,,,,FEW,30000,,,,,,,VFR,,,,,,,,,,,,METAR,51.0
KRFD 111854Z 05013KT 7SM -RA BKN013 OVC045 06/02 A2994 RMK AO2 SLP143 P0003 T00560022,KRFD,2020-12-11T18:54:00Z,42.2,-89.1,5.6,2.2,50,13,,7.0,29.940945,1014.3,,,TRUE,,,,,,-RA,BKN,1300,OVC,4500,,,,,MVFR,,,,,,0.03,,,,,,METAR,222.0
KRDG 111854Z 23007KT 10SM CLR 12/06 A3008 RMK AO2 SLP194 T01220056,KRDG,2020-12-11T18:54:00Z,40.37,-75.97,12.2,5.6,230,7,,10.0,30.079725,1019.4,,,TRUE,,,,,,,CLR,,,,,,,,VFR,,,,,,,,,,,,METAR,101.0
KRBL 111854Z AUTO 02006KT 10SM OVC090 11/M03 A3018 RMK AO2 SLP219 T01061033,KRBL,2020-12-11T18:54:00Z,40.15,-122.25,10.6,-3.3,20,6,,10.0,30.180119,1021.9,,TRUE,TRUE,,,,,,,OVC,9000,,,,,,,VFR,,,,,,,,,,,,METAR,107.0
KPTW 111854Z AUTO 20007KT 10SM CLR 12/04 A3011 RMK AO2 SLP195 T01220039,KPTW,2020-12-11T18:54:00Z,40.23,-75.55,12.2,3.9,200,7,,10.0,30.109253,1019.5,,TRUE,TRUE,,,,,,,CLR,,,,,,,,VFR,,,,,,,,,,,,METAR,88.0
KPSF 111854Z AUTO 21006KT 10SM CLR 08/02 A3002 RMK AO2 SLP172 T00830017,KPSF,2020-12-11T18:54:00Z,42.43,-73.28,8.3,1.7,210,6,,10.0,30.02067,1017.2,,TRUE,TRUE,,,,,,,CLR,,,,,,,,VFR,,,,,,,,,,,,METAR,352.0
KPNE 111854Z 21010G18KT 10SM CLR 14/04 A3012 RMK AO2 SLP201 T01390044 $,KPNE,2020-12-11T18:54:00Z,40.08,-75.02,13.9,4.4,210,10,18,10.0,30.121063,1020.1,,,TRUE,TRUE,,,,,,CLR,,,,,,,,VFR,,,,,,,,,,,,METAR,32.0
KPLN 111854Z AUTO 35011KT 10SM OVC019 03/M01 A3007 RMK AO2 SLP188 T00331006,KPLN,2020-12-11T18:54:00Z,45.57,-84.8,3.3,-0.6,350,11,,10.0,30.070866,1018.8,,TRUE,TRUE,,,,,,,OVC,1900,,,,,,,MVFR,,,,,,,,,,,,METAR,215.0
KPIA 111854Z 07012KT 5SM HZ BKN075 OVC090 07/03 A2985 RMK AO2 SLP112 T00670033,KPIA,2020-12-11T18:54:00Z,40.67,-89.68,6.7,3.3,70,12,,5.0,29.84941,1011.2,,,TRUE,,,,,,HZ,BKN,7500,OVC,9000,,,,,MVFR,,,,,,,,,,,,METAR,200.0
KPHL 111854Z 21011KT 10SM BKN270 14/04 A3012 RMK AO2 SLP198 T01390039,KPHL,2020-12-11T18:54:00Z,39.87,-75.23,13.9,3.9,210,11,,10.0,30.121063,1019.8,,,TRUE,,,,,,,BKN,27000,,,,,,,VFR,,,,,,,,,,,,SPECI,2.0
KPHF 111854Z 18010KT 10SM CLR 17/10 A3016 RMK AO2 SLP214 T01670100,KPHF,2020-12-11T18:54:00Z,37.13,-76.5,16.7,10.0,180,10,,10.0,30.159449,1021.4,,,TRUE,,,,,,,CLR,,,,,,,,VFR,,,,,,,,,,,,METAR,12.0
KORH 111854Z 22011KT 10SM CLR 07/01 A3007 RMK AO2 SLP192 T00720006,KORH,2020-12-11T18:54:00Z,42.27,-71.87,7.2,0.6,220,11,,10.0,30.070866,1019.2,,,TRUE,,,,,,,CLR,,,,,,,,VFR,,,,,,,,,,,,METAR,306.0
KOLS 111854Z AUTO 00000KT 10SM CLR 14/03 A3011 RMK AO2 SLP170 T01390033,KOLS,2020-12-11T18:54:00Z,31.42,-110.85,13.9,3.3,0,0,,10.0,30.109253,1017.0,,TRUE,TRUE,,,,,,,CLR,,,,,,,,VFR,,,,,,,,,,,,METAR,1194.0
KOLM 111854Z 21008KT 10SM -RA SCT013 BKN038 OVC070 05/03 A3007 RMK AO2 RAB52 SLP185 P0000 T00500033,KOLM,2020-12-11T18:54:00Z,46.97,-122.9,5.0,3.3,210,8,,10.0,30.070866,1018.5,,,TRUE,,,,,,-RA,SCT,1300,BKN,3800,OVC,7000,,,VFR,,,,,,0.005,,,,,,METAR,58.0
KOFP 111854Z AUTO 21009KT 10SM CLR 17/07 A3015 RMK AO2 SLP210 T01670067,KOFP,2020-12-11T18:54:00Z,37.7,-77.43,16.7,6.7,210,9,,10.0,30.15059,1021.0,,TRUE,TRUE,,,,,,,CLR,,,,,,,,VFR,,,,,,,,,,,,METAR,63.0
KNKT 111854Z 14008KT 10SM BKN055 21/15 A3017 RMK AO2 SLP212 T02060150,KNKT,2020-12-11T18:54:00Z,34.9,-76.88,20.6,15.0,140,8,,10.0,30.171259,1021.2,,,TRUE,,,,,,,BKN,5500,,,,,,,VFR,,,,,,,,,,,,SPECI,8.0
KNAK 111854Z AUTO 14009KT 10SM CLR 12/07 A3012 RMK AO2 SLP200 T01170072,KNAK,2020-12-11T18:54:00Z,38.98,-76.48,11.7,7.2,140,9,,10.0,30.121063,1020.0,,TRUE,TRUE,,,,,,,CLR,,,,,,,,VFR,,,,,,,,,,,,METAR,2.0
KMWN 111854Z 27046G52KT 70SM BKN060 BKN080 BKN140 OVC200 M04/M09 RMK ACSL DSNT NE VIS LWR NE HZ DSNT NE,KMWN,2020-12-11T18:54:00Z,44.27,-71.3,-4.0,-9.0,270,46,52,70.0,,,,,,,,,,,,BKN,6000,BKN,8000,BKN,14000,OVC,20000,VFR,,,,,,,,,,,,SPECI,1911.0
KMVL 111854Z AUTO 21004KT 10SM BKN100 07/M01 A2999 RMK AO2 SLP164 T00721006,KMVL,2020-12-11T18:54:00Z,44.53,-72.62,7.2,-0.6,210,4,,10.0,29.991142,1016.4,,TRUE,TRUE,,,,,,,BKN,10000,,,,,,,VFR,,,,,,,,,,,,METAR,226.0
KMTP 111854Z AUTO 21010G17KT 12/06 A3015 RMK AO1 SLP210 T01170061,KMTP,2020-12-11T18:54:00Z,41.07,-71.92,11.7,6.1,210,10,17,,30.15059,1021.0,,TRUE,TRUE,,,,,,,,,,,,,,,,,,,,,,,,,,,METAR,2.0
KMTN 111854Z 14007KT 10SM CLR 13/07 A3013,KMTN,2020-12-11T18:54:00Z,39.32,-76.42,13.0,7.0,140,7,,10.0,30.129921,,,,,,,,,,,CLR,,,,,,,,VFR,,,,,,,,,,,,METAR,2.0
KMRY 111854Z 29004KT 10SM CLR 12/04 A3021 RMK AO2 SLP243 T01220044,KMRY,2020-12-11T18:54:00Z,36.58,-121.85,12.2,4.4,290,4,,10.0,30.209646,1024.3,,,TRUE,,,,,,,CLR,,,,,,,,VFR,,,,,,,,,,,,METAR,51.0
KMIV 111854Z AUTO VRB04KT 10SM CLR 14/04 A3014 RMK AO2 SLP205 T01390039,KMIV,2020-12-11T18:54:00Z,39.37,-75.08,13.9,3.9,0,4,,10.0,30.138779,1020.5,,TRUE,TRUE,,,,,,,CLR,,,,,,,,VFR,,,,,,,,,,,,METAR,18.0
KMGJ 111854Z AUTO 22008KT 10SM CLR 10/03 A3005 RMK AO2 SLP180 T01000033,KMGJ,2020-12-11T18:54:00Z,41.52,-74.27,10.0,3.3,220,8,,10.0,30.050198,1018.0,,TRUE,TRUE,,,,,,,CLR,,,,,,,,VFR,,,,,,,,,,,,METAR,106.0
KMFI 111854Z AUTO 05010G16KT 10SM OVC110 02/M04 A3005 RMK AO2 SLP189 T00171039,KMFI,2020-12-11T18:54:00Z,44.63,-90.18,1.7,-3.9,50,10,16,10.0,30.050198,1018.9,,TRUE,TRUE,,,,,,,OVC,11000,,,,,,,VFR,,,,,,,,,,,,METAR,383.0
KMEM 111854Z 20015G21KT 10SM SCT085 BKN120 BKN250 20/11 A2994 RMK AO2 SLP136 T02000106 $,KMEM,2020-12-11T18:54:00Z,35.07,-89.98,20.0,10.6,200,15,21,10.0,29.940945,1013.6,,,TRUE,TRUE,,,,,,SCT,8500,BKN,12000,BKN,25000,,,VFR,,,,,,,,,,,,METAR,78.0
KLYH 111854Z 19009KT 10SM CLR 18/03 A3013 RMK AO2 SLP201 T01780033,KLYH,2020-12-11T18:54:00Z,37.32,-79.2,17.8,3.3,190,9,,10.0,30.129921,1020.1,,,TRUE,,,,,,,CLR,,,,,,,,VFR,,,,,,,,,,,,METAR,282.0
KLWT 111854Z AUTO 32003KT 1/4SM FZFG VV001 M05/M06 A2997 RMK AO2 SLP193 T10501056,KLWT,2020-12-11T18:54:00Z,47.05,-109.47,-5.0,-5.6,320,3,,0.25,29.970472,1019.3,,TRUE,TRUE,,,,,,FZFG,OVX,0,,,,,,,LIFR,,,,,,,,,,,100,METAR,1254.0
KLWM 111854Z 21010KT 10SM CLR 10/02 A3009 RMK AO2 SLP189 T01000017,KLWM,2020-12-11T18:54:00Z,42.72,-71.13,10.0,1.7,210,10,,10.0,30.088583,1018.9,,,TRUE,,,,,,,CLR,,,,,,,,VFR,,,,,,,,,,,,METAR,42.0
KLEX 111854Z 21009KT 10SM CLR 17/04 A3001 RMK AO2 SLP159 T01670044,KLEX,2020-12-11T18:54:00Z,38.03,-84.6,16.7,4.4,210,9,,10.0,30.008858,1015.9,,,TRUE,,,,,,,CLR,,,,,,,,VFR,,,,,,,,,,,,METAR,294.0
KLAF 111854Z 21005KT 10SM CLR 16/04 A2985 RMK AO2 SLP110 T01560044,KLAF,2020-12-11T18:54:00Z,40.42,-86.93,15.6,4.4,210,5,,10.0,29.84941,1011.0,,,TRUE,,,,,,,CLR,,,,,,,,VFR,,,,,,,,,,,,METAR,182.0
KJST 111854Z AUTO 25014KT 10SM CLR 14/00 A3002 RMK AO2 SLP171 T01440000,KJST,2020-12-11T18:54:00Z,40.32,-78.83,14.4,0.0,250,14,,10.0,30.02067,1017.1,,TRUE,TRUE,,,,,,,CLR,,,,,,,,VFR,,,,,,,,,,,,METAR,695.0
KJAN 111854Z 19011KT 10SM BKN050 20/11 A3001 RMK AO2 SLP162 T02000111,KJAN,2020-12-11T18:54:00Z,32.32,-90.08,20.0,11.1,190,11,,10.0,30.008858,1016.2,,,TRUE,,,,,,,BKN,5000,,,,,,,VFR,,,,,,,,,,,,METAR,92.0
KIZG 111854Z AUTO VRB04KT 10SM CLR 06/M02 A3005 RMK AO2 SLP181 T00561017,KIZG,2020-12-11T18:54:00Z,43.98,-70.95,5.6,-1.7,0,4,,10.0,30.050198,1018.1,,TRUE,TRUE,,,,,,,CLR,,,,,,,,VFR,,,,,,,,,,,,METAR,138.0
KISW 111854Z AUTO 06007KT 10SM CLR 02/M04 A3006 RMK AO2 SLP191 T00171039,KISW,2020-12-11T18:54:00Z,44.37,-89.83,1.7,-3.9,60,7,,10.0,30.059055,1019.1,,TRUE,TRUE,,,,,,,CLR,,,,,,,,VFR,,,,,,,,,,,,METAR,311.0
KIPT 111854Z 00000KT 7SM CLR 09/01 A3005 RMK AO2 SLP180 T00940011,KIPT,2020-12-11T18:54:00Z,41.25,-76.92,9.4,1.1,0,0,,7.0,30.050198,1018.0,,,TRUE,,,,,,,CLR,,,,,,,,VFR,,,,,,,,,,,,METAR,160.0
KINT 111854Z VRB04KT 10SM CLR 16/06 A3015 RMK AO2 SLP207 T01610061,KINT,2020-12-11T18:54:00Z,36.13,-80.22,16.1,6.1,0,4,,10.0,30.15059,1020.7,,,TRUE,,,,,,,CLR,,,,,,,,VFR,,,,,,,,,,,,METAR,292.0
KINL 111854Z AUTO 03004KT 10SM OVC011 M04/M07 A3018 RMK AO2 SLP242 T10391072,KINL,2020-12-11T18:54:00Z,48.57,-93.4,-3.9,-7.2,30,4,,10.0,30.180119,1024.2,,TRUE,TRUE,,,,,,,OVC,1100,,,,,,,MVFR,,,,,,,,,,,,METAR,353.0
KIND 111854Z 19012KT 10SM FEW200 BKN230 16/05 A2989 RMK AO2 SLP120 T01610050,KIND,2020-12-11T18:54:00Z,39.72,-86.27,16.1,5.0,190,12,,10.0,29.890747,1012.0,,,TRUE,,,,,,,FEW,20000,BKN,23000,,,,,VFR,,,,,,,,,,,,METAR,242.0
KIMT 111854Z AUTO 01009KT 10SM OVC024 01/M05 A3008 RMK AO2 SLP200 T00111050,KIMT,2020-12-11T18:54:00Z,45.82,-88.12,1.1,-5.0,10,9,,10.0,30.079725,1020.0,,TRUE,TRUE,,,,,,,OVC,2400,,,,,,,MVFR,,,,,,,,,,,,METAR,343.0
KILN 111854Z AUTO 20011KT 10SM CLR 17/04 A2996 RMK AO2 PRESFR SLP154 T01670044,KILN,2020-12-11T18:54:00Z,39.43,-83.8,16.7,4.4,200,11,,10.0,29.958662,1015.4,,TRUE,TRUE,,,,,,,CLR,,,,,,,,VFR,,,,,,,,,,,,METAR,325.0
KHWD 111854Z 17006KT 10SM CLR 12/05 A3021 RMK AO2 SLP241 T01220050,KHWD,2020-12-11T18:54:00Z,37.67,-122.12,12.2,5.0,170,6,,10.0,30.209646,1024.1,,,TRUE,,,,,,,CLR,,,,,,,,VFR,,,,,,,,,,,,METAR,9.0
KGSO 111854Z 22008KT 10SM FEW035 FEW250 17/08 A3013 RMK AO2 SLP201 T01670083,KGSO,2020-12-11T18:54:00Z,36.1,-79.95,16.7,8.3,220,8,,10.0,30.129921,1020.1,,,TRUE,,,,,,,FEW,3500,FEW,25000,,,,,VFR,,,,,,,,,,,,METAR,275.0
KGED 111854Z AUTO 21011KT 10SM CLR 17/08 A3014 RMK AO2 SLP205 T01720078,KGED,2020-12-11T18:54:00Z,38.68,-75.37,17.2,7.8,210,11,,10.0,30.138779,1020.5,,TRUE,TRUE,,,,,,,CLR,,,,,,,,VFR,,,,,,,,,,,,METAR,15.0
KGCN 111854Z 25011G18KT 10SM CLR 05/M03 A3003 RMK AO2 SLP149 T00501028,KGCN,2020-12-11T18:54:00Z,35.95,-112.15,5.0,-2.8,250,11,18,10.0,30.029528,1014.9,,,TRUE,,,,,,,CLR,,,,,,,,VFR,,,,,,,,,,,,METAR,1993.0
KGCK 111854Z 34013KT 10SM OVC012 00/M03 A2987 RMK AO2 SLP128 T00001028,KGCK,2020-12-11T18:54:00Z,37.92,-100.72,0.0,-2.8,340,13,,10.0,29.870079,1012.8,,,TRUE,,,,,,,OVC,1200,,,,,,,MVFR,,,,,,,,,,,,METAR,877.0
KFZY 111854Z AUTO 18008KT 10SM CLR 11/02 A2998 RMK AO2 SLP155 T01110022 $,KFZY,2020-12-11T18:54:00Z,43.35,-76.38,11.1,2.2,180,8,,10.0,29.97933,1015.5,,TRUE,TRUE,TRUE,,,,,,CLR,,,,,,,,VFR,,,,,,,,,,,,METAR,143.0
KFWA 111854Z 21007KT 10SM SCT180 BKN220 14/05 A2989 RMK AO2 SLP124 T01440050,KFWA,2020-12-11T18:54:00Z,40.98,-85.2,14.4,5.0,210,7,,10.0,29.890747,1012.4,,,TRUE,,,,,,,SCT,18000,BKN,22000,,,,,VFR,,,,,,,,,,,,METAR,243.0
KFIG 111854Z AUTO 20005KT 10SM CLR 12/02 A3001 RMK AO2 SLP172 T01170017,KFIG,2020-12-11T18:54:00Z,41.05,-78.42,11.7,1.7,200,5,,10.0,30.008858,1017.2,,TRUE,TRUE,,,,,,,CLR,,,,,,,,VFR,,,,,,,,,,,,METAR,461.0
KFFZ 111854Z 14005KT 10SM CLR 15/09 A3009 RMK AO2 SLP177 T01500094,KFFZ,2020-12-11T18:54:00Z,33.47,-111.72,15.0,9.4,140,5,,10.0,30.088583,1017.7,,,TRUE,,,,,,,CLR,,,,,,,,VFR,,,,,,,,,,,,METAR,420.0
KEWN 111854Z 13006KT 10SM BKN036 BKN049 BKN060 21/14 A3016 RMK AO2 SLP214 T02060139,KEWN,2020-12-11T18:54:00Z,35.07,-77.05,20.6,13.9,130,6,,10.0,30.159449,1021.4,,,TRUE,,,,,,,BKN,3600,BKN,4900,BKN,6000,,,VFR,,,,,,,,,,,,METAR,3.0
KEVV 111854Z 20011KT 10SM CLR 19/08 A2991 RMK AO2 SLP129 T01940078 $,KEVV,2020-12-11T18:54:00Z,38.05,-87.52,19.4,7.8,200,11,,10.0,29.911417,1012.9,,,TRUE,TRUE,,,,,,CLR,,,,,,,,VFR,,,,,,,,,,,,METAR,123.0
KEUG 111854Z 18008KT 10SM FEW029 BKN035 OVC045 07/04 A3012 RMK AO2 SLP200 T00670039,KEUG,2020-12-11T18:54:00Z,44.13,-123.22,6.7,3.9,180,8,,10.0,30.121063,1020.0,,,TRUE,,,,,,,FEW,2900,BKN,3500,OVC,4500,,,VFR,,,,,,,,,,,,METAR,109.0
KECG 111854Z 15006KT 10SM SCT039 OVC050 18/13 A3018 RMK AO2 SLP220 T01830128 $,KECG,2020-12-11T18:54:00Z,36.27,-76.18,18.3,12.8,150,6,,10.0,30.180119,1022.0,,,TRUE,TRUE,,,,,,SCT,3900,OVC,5000,,,,,VFR,,,,,,,,,,,,METAR,2.0
KDYL 111854Z AUTO 22007KT 10SM CLR 13/04 A3009 RMK AO2 SLP194 T01330044,KDYL,2020-12-11T18:54:00Z,40.33,-75.12,13.3,4.4,220,7,,10.0,30.088583,1019.4,,TRUE,TRUE,,,,,,,CLR,,,,,,,,VFR,,,,,,,,,,,,METAR,121.0
KDSV 111854Z AUTO VRB04KT 10SM SCT100 BKN120 16/03 A2994 RMK AO2 SLP152 T01560028,KDSV,2020-12-11T18:54:00Z,42.57,-77.72,15.6,2.8,0,4,,10.0,29.940945,1015.2,,TRUE,TRUE,,,,,,,SCT,10000,BKN,12000,,,,,VFR,,,,,,,,,,,,METAR,195.0
KDSM 111854Z 05012G21KT 6SM -RA BR OVC008 03/02 A2986 RMK AO2 CIG 007V012 SLP118 P0002 T00280017,KDSM,2020-12-11T18:54:00Z,41.53,-93.67,2.8,1.7,50,12,21,6.0,29.861221,1011.8,,,TRUE,,,,,,-RA BR,OVC,800,,,,,,,IFR,,,,,,0.02,,,,,,METAR,286.0
KDEC 111854Z 20007KT 10SM CLR 14/07 A2984 RMK AO2 SLP107 T01390072,KDEC,2020-12-11T18:54:00Z,39.83,-88.87,13.9,7.2,200,7,,10.0,29.840551,1010.7,,,TRUE,,,,,,,CLR,,,,,,,,VFR,,,,,,,,,,,,METAR,205.0
KDDH 111854Z AUTO 21007KT 10SM CLR 10/01 A3002 RMK AO2 SLP169 T01000011,KDDH,2020-12-11T18:54:00Z,42.9,-73.25,10.0,1.1,210,7,,10.0,30.02067,1016.9,,TRUE,TRUE,,,,,,,CLR,,,,,,,,VFR,,,,,,,,,,,,METAR,241.0
KCRW 111854Z 25007KT 10SM CLR 18/01 A3004 RMK AO2 SLP173 T01830011,KCRW,2020-12-11T18:54:00Z,38.38,-81.58,18.3,1.1,250,7,,10.0,30.041338,1017.3,,,TRUE,,,,,,,CLR,,,,,,,,VFR,,,,,,,,,,,,METAR,278.0
KCOU 111854Z 14006KT 10SM BKN021 BKN042 OVC065 11/08 A2976 RMK AO2 RAE20 SLP079 P0001 T01060083,KCOU,2020-12-11T18:54:00Z,38.82,-92.22,10.6,8.3,140,6,,10.0,29.760826,1007.9,,,TRUE,,,,,,,BKN,2100,BKN,4200,OVC,6500,,,MVFR,,,,,,0.01,,,,,,METAR,272.0
KCOS 111854Z 15003KT 1/2SM R17L/4000V5000FT -SN FZFG BKN006 OVC017 M03/M05 A2984 RMK AO2 TWR VIS 3/4 SLP145 P0002 T10281050,KCOS,2020-12-11T18:54:00Z,38.82,-104.68,-2.8,-5.0,150,3,,0.5,29.840551,1014.5,,,TRUE,,,,,,-SN FZFG,BKN,600,OVC,1700,,,,,LIFR,,,,,,0.02,,,,,,METAR,1886.0
KCEU 111854Z AUTO 17005KT 10SM CLR 16/06 A3014 RMK AO2 SLP203 T01610056,KCEU,2020-12-11T18:54:00Z,34.67,-82.88,16.1,5.6,170,5,,10.0,30.138779,1020.3,,TRUE,TRUE,,,,,,,CLR,,,,,,,,VFR,,,,,,,,,,,,METAR,270.0
KCAR 111854Z AUTO 16005KT 10SM OVC110 M01/M04 A3002 RMK AO2 SLP177 T10111044,KCAR,2020-12-11T18:54:00Z,46.87,-68.02,-1.1,-4.4,160,5,,10.0,30.02067,1017.7,,TRUE,TRUE,,,,,,,OVC,11000,,,,,,,VFR,,,,,,,,,,,,METAR,189.0
KBWI 111854Z 17006KT 10SM SCT250 16/04 A3010 RMK AO2 SLP192 T01610039,KBWI,2020-12-11T18:54:00Z,39.17,-76.68,16.1,3.9,170,6,,10.0,30.100393,1019.2,,,TRUE,,,,,,,SCT,25000,,,,,,,VFR,,,,,,,,,,,,METAR,42.0
KBUY 111854Z AUTO 17004KT 10SM FEW032 18/07 A3014 RMK AO2 SLP204 T01780067,KBUY,2020-12-11T18:54:00Z,36.05,-79.47,17.8,6.7,170,4,,10.0,30.138779,1020.4,,TRUE,TRUE,,,,,,,FEW,3200,,,,,,,VFR,,,,,,,,,,,,METAR,185.0
KBUF 111854Z 24014KT 10SM SCT110 BKN260 11/02 A2996 RMK AO2 SLP150 T01110022,KBUF,2020-12-11T18:54:00Z,42.93,-78.73,11.1,2.2,240,14,,10.0,29.958662,1015.0,,,TRUE,,,,,,,SCT,11000,BKN,26000,,,,,VFR,,,,,,,,,,,,METAR,217.0
KBTV 111854Z 19010G18KT 10SM BKN120 BKN140 07/M01 A2999 RMK AO2 SLP159 T00671006,KBTV,2020-12-11T18:54:00Z,44.47,-73.15,6.7,-0.6,190,10,18,10.0,29.991142,1015.9,,,TRUE,,,,,,,BKN,12000,BKN,14000,,,,,VFR,,,,,,,,,,,,METAR,101.0
KBOS 111854Z 21011KT 10SM FEW160 BKN250 11/02 A3009 RMK AO2 SLP189 T01060022,KBOS,2020-12-11T18:54:00Z,42.37,-71.02,10.6,2.2,210,11,,10.0,30.088583,1018.9,,,TRUE,,,,,,,FEW,16000,BKN,25000,,,,,VFR,,,,,,,,,,,,METAR,4.0
KBKB 111854Z AUTO 21004KT 10SM BKN043 21/13 A2993 RMK AO2 SLP163 T02110133,KBKB,2020-12-11T18:54:00Z,31.02,-92.92,21.1,13.3,210,4,,10.0,29.929134,1016.3,,TRUE,TRUE,,,,,,,BKN,4300,,,,,,,VFR,,,,,,,,,,,,METAR,74.0
KBFL 111854Z 30007KT 10SM CLR 13/M01 A3017 RMK AO2 SLP215 T01281006,KBFL,2020-12-11T18:54:00Z,35.43,-119.05,12.8,-0.6,300,7,,10.0,30.171259,1021.5,,,TRUE,,,,,,,CLR,,,,,,,,VFR,,,,,,,,,,,,SPECI,146.0
KAVP 111854Z 23003KT 8SM CLR 11/03 A3004 RMK AO2 SLP178 T01060028,KAVP,2020-12-11T18:54:00Z,41.33,-75.72,10.6,2.8,230,3,,8.0,30.041338,1017.8,,,TRUE,,,,,,,CLR,,,,,,,,VFR,,,,,,,,,,,,SPECI,290.0
KAVL 111854Z 14008KT 10SM CLR 17/04 A3011 RMK AO2 SLP192 T01670039,KAVL,2020-12-11T18:54:00Z,35.43,-82.53,16.7,3.9,140,8,,10.0,30.109253,1019.2,,,TRUE,,,,,,,CLR,,,,,,,,VFR,,,,,,,,,,,,METAR,646.0
KAUW 111854Z AUTO 02009KT 10SM OVC110 01/M05 A3006 RMK AO2 SLP195 T00111050,KAUW,2020-12-11T18:54:00Z,44.93,-89.62,1.1,-5.0,20,9,,10.0,30.059055,1019.5,,TRUE,TRUE,,,,,,,OVC,11000,,,,,,,VFR,,,,,,,,,,,,METAR,367.0
KAPN 111854Z 35008KT 10SM OVC015 04/01 A3004 RMK AO2 SLP179 T00440006,KAPN,2020-12-11T18:54:00Z,45.07,-83.57,4.4,0.6,350,8,,10.0,30.041338,1017.9,,,TRUE,,,,,,,OVC,1500,,,,,,,MVFR,,,,,,,,,,,,METAR,208.0
KAPC 111854Z 21005KT 10SM BKN100 BKN120 09/04 A3021 RMK AO2 SLP220 T00940044,KAPC,2020-12-11T18:54:00Z,38.2,-122.28,9.4,4.4,210,5,,10.0,30.209646,1022.0,,,TRUE,,,,,,,BKN,10000,BKN,12000,,,,,VFR,,,,,,,,,,,,SPECI,5.0
KALO 111854Z 06013KT 8SM UP OVC012 03/01 A2992 RMK AO2 RAB10E24UPB24 SLP140 P0001 T00280011,KALO,2020-12-11T18:54:00Z,42.55,-92.4,2.8,1.1,60,13,,8.0,29.920275,1014.0,,,TRUE,,,,,,UP,OVC,1200,,,,,,,MVFR,,,,,,0.01,,,,,,METAR,264.0
KAKR 111854Z AUTO 20012KT 10SM CLR 15/03 A2996 RMK AO2 SLP146 T01500033,KAKR,2020-12-11T18:54:00Z,41.03,-81.47,15.0,3.3,200,12,,10.0,29.958662,1014.6,,TRUE,TRUE,,,,,,,CLR,,,,,,,,VFR,,,,,,,,,,,,METAR,319.0
KAKQ 111854Z AUTO VRB06KT 10SM CLR 18/11 A3015 RMK AO2 SLP213 T01780106,KAKQ,2020-12-11T18:54:00Z,36.98,-77.0,17.8,10.6,0,6,,10.0,30.15059,1021.3,,TRUE,TRUE,,,,,,,CLR,,,,,,,,VFR,,,,,,,,,,,,METAR,34.0
KAKH 111854Z AUTO 25006KT 10SM CLR 19/07 A3014 RMK AO2 SLP207 T01890067,KAKH,2020-12-11T18:54:00Z,35.2,-81.15,18.9,6.7,250,6,,10.0,30.138779,1020.7,,TRUE,TRUE,,,,,,,CLR,,,,,,,,VFR,,,,,,,,,,,,METAR,242.0
KACY 111854Z AUTO 18008KT 10SM CLR 13/07 A3014 RMK AO2 SLP206 T01330067 TSNO,KACY,2020-12-11T18:54:00Z,39.45,-74.57,13.3,6.7,180,8,,10.0,30.138779,1020.6,,TRUE,TRUE,,,TRUE,,,,CLR,,,,,,,,VFR,,,,,,,,,,,,SPECI,18.0
KAAO 111854Z AUTO 31009KT 10SM OVC016 04/M01 A2981 RMK AO2 SLP101 T00391006,KAAO,2020-12-11T18:54:00Z,37.75,-97.22,3.9,-0.6,310,9,,10.0,29.811024,1010.1,,TRUE,TRUE,,,,,,,OVC,1600,,,,,,,MVFR,,,,,,,,,,,,METAR,429.0
K1V4 111854Z AUTO 05/M02 A2999 RMK AO1 SLP164 T00501017,K1V4,2020-12-11T18:54:00Z,44.42,-72.02,5.0,-1.7,,,,,29.991142,1016.4,,TRUE,TRUE,,,,,,,,,,,,,,,,,,,,,,,,,,,SPECI,213.0
K12N 111854Z AUTO 22004KT 11/04 A3009 RMK AO1 SLP195 T01110039,K12N,2020-12-11T18:54:00Z,41.02,-74.73,11.1,3.9,220,4,,,30.088583,1019.5,,TRUE,TRUE,,,,,,,,,,,,,,,,,,,,,,,,,,,METAR,178.0
TJNR 111853Z AUTO 06007KT 10SM OVC065 26/22 A2996 RMK AO2 SLP144 T02610217,TJNR,2020-12-11T18:53:00Z,18.25,-65.63,26.1,21.7,60,7,,10.0,29.958662,1014.4,,TRUE,TRUE,,,,,,,OVC,6500,,,,,,,VFR,,,,,,,,,,,,SPECI,7.0
TISX 111853Z 09014KT 10SM SCT030 29/22 A2993 RMK AO2 SLP135 T02940222,TISX,2020-12-11T18:53:00Z,17.7,-64.8,29.4,22.2,90,14,,10.0,29.929134,1013.5,,,TRUE,,,,,,,SCT,3000,,,,,,,VFR,,,,,,,,,,,,SPECI,16.0
TIST 111853Z 07007KT 030V100 10SM BKN075 BKN085 28/21 A2993 RMK AO2 SLP135 T02780211,TIST,2020-12-11T18:53:00Z,18.33,-64.98,27.8,21.1,70,7,,10.0,29.929134,1013.5,,,TRUE,,,,,,,BKN,7500,BKN,8500,,,,,VFR,,,,,,,,,,,,SPECI,5.0
PHTO 111853Z 23003KT 10SM CLR 26/16 A3010 RMK AO2 SLP190 T02610161,PHTO,2020-12-11T18:53:00Z,19.72,-155.05,26.1,16.1,230,3,,10.0,30.100393,1019.0,,,TRUE,,,,,,,CLR,,,,,,,,VFR,,,,,,,,,,,,METAR,9.0
PHNL 111853Z 34005KT 10SM FEW025 FEW035 24/19 A3009 RMK AO2 SLP188 T02440194,PHNL,2020-12-11T18:53:00Z,21.33,-157.93,24.4,19.4,340,5,,10.0,30.088583,1018.8,,,TRUE,,,,,,,FEW,2500,FEW,3500,,,,,VFR,,,,,,,,,,,,METAR,2.0
PHLI 111853Z 33003KT 10SM FEW024 SCT033 SCT043 24/22 A3010 RMK AO2 SLP191 T02440222,PHLI,2020-12-11T18:53:00Z,21.97,-159.33,24.4,22.2,330,3,,10.0,30.100393,1019.1,,,TRUE,,,,,,,FEW,2400,SCT,3300,SCT,4300,,,VFR,,,,,,,,,,,,METAR,32.0
PHKO 111853Z 15003KT 10SM CLR 27/17 A3006 RMK AO2 SLP176 T02720172,PHKO,2020-12-11T18:53:00Z,19.73,-156.05,27.2,17.2,150,3,,10.0,30.059055,1017.6,,,TRUE,,,,,,,CLR,,,,,,,,VFR,,,,,,,,,,,,METAR,11.0
PHJR 111853Z 06004KT 10SM CLR 26/19 A3010 RMK AO2 SLP198 T02560189,PHJR,2020-12-11T18:53:00Z,21.32,-158.07,25.6,18.9,60,4,,10.0,30.100393,1019.8,,,TRUE,,,,,,,CLR,,,,,,,,VFR,,,,,,,,,,,,METAR,9.0
PAWD 111853Z AUTO 35010KT 10SM CLR M07/M10 A3005 RMK AO2 SLP175 T10671100 TSNO,PAWD,2020-12-11T18:53:00Z,60.12,-149.42,-6.7,-10.0,350,10,,10.0,30.050198,1017.5,,TRUE,TRUE,,,TRUE,,,,CLR,,,,,,,,VFR,,,,,,,,,,,,METAR,3.0
PAVL 111853Z AUTO 05008KT 8SM CLR M27/M29 A3039 RMK AO2 SLP291 T12671294 TSNO,PAVL,2020-12-11T18:53:00Z,67.73,-164.55,-26.7,-29.4,50,8,,8.0,30.389763,1029.1,,TRUE,TRUE,,,TRUE,,,,CLR,,,,,,,,VFR,,,,,,,,,,,,METAR,6.0
PATK 111853Z 09004KT 10SM CLR M16/M19 A3007 RMK AO2 SLP192 T11611189,PATK,2020-12-11T18:53:00Z,62.32,-150.1,-16.1,-18.9,90,4,,10.0,30.070866,1019.2,,,TRUE,,,,,,,CLR,,,,,,,,VFR,,,,,,,,,,,,METAR,107.0
PASO 111853Z AUTO 00000KT 10SM CLR M08/M09 A3001 RMK AO2 SLP161 I1000 T10781094 TSNO,PASO,2020-12-11T18:53:00Z,59.45,-151.7,-7.8,-9.4,0,0,,10.0,30.008858,1016.1,,TRUE,TRUE,,,TRUE,,,,CLR,,,,,,,,VFR,,,,,,,,,,,,METAR,20.0
PASI 111853Z 09004KT 10SM BKN037 03/00 A3008 RMK AO2 SLP186 T00330000,PASI,2020-12-11T18:53:00Z,57.03,-135.35,3.3,0.0,90,4,,10.0,30.079725,1018.6,,,TRUE,,,,,,,BKN,3700,,,,,,,VFR,,,,,,,,,,,,METAR,2.0
PASC 111853Z 07016KT 3SM -SN OVC015 M19/M22 A3055 RMK AO2 SLP347 T11891217,PASC,2020-12-11T18:53:00Z,70.2,-148.47,-18.9,-21.7,70,16,,3.0,30.549213,1034.7,,,TRUE,,,,,,-SN,OVC,1500,,,,,,,MVFR,,,,,,,,,,,,METAR,17.0
PAOR 111853Z VRB03KT 10SM BKN008 OVC013 M16/M18 A3015 RMK AO2 SLP273 T11611183,PAOR,2020-12-11T18:53:00Z,62.97,-141.93,-16.1,-18.3,0,3,,10.0,30.15059,1027.3,,,TRUE,,,,,,,BKN,800,OVC,1300,,,,,IFR,,,,,,,,,,,,METAR,524.0
PAOM 111853Z 04015KT 10SM CLR M16/M21 A3015 RMK AO2 SLP211 T11561211,PAOM,2020-12-11T18:53:00Z,64.5,-165.43,-15.6,-21.1,40,15,,10.0,30.15059,1021.1,,,TRUE,,,,,,,CLR,,,,,,,,VFR,,,,,,,,,,,,METAR,6.0
PANC 111853Z 35006KT 10SM FEW005 SCT200 M10/M12 A3007 RMK AO2 SLP187 T11001117,PANC,2020-12-11T18:53:00Z,61.17,-150.02,-10.0,-11.7,350,6,,10.0,30.070866,1018.7,,,TRUE,,,,,,,FEW,500,SCT,20000,,,,,VFR,,,,,,,,,,,,METAR,39.0
PAMC 111853Z AUTO 30007KT 10SM CLR M29/M31 A3017 RMK AO2 SLP234 T12891311 TSNO $,PAMC,2020-12-11T18:53:00Z,62.97,-155.62,-28.9,-31.1,300,7,,10.0,30.171259,1023.4,,TRUE,TRUE,TRUE,,TRUE,,,,CLR,,,,,,,,VFR,,,,,,,,,,,,METAR,101.0
PALH 111853Z 00000KT 10SM CLR M11/M13 A3009 RMK AO2 SLP189 I1000 T11061128,PALH,2020-12-11T18:53:00Z,61.18,-149.97,-10.6,-12.8,0,0,,10.0,30.088583,1018.9,,,TRUE,,,,,,,CLR,,,,,,,,VFR,,,,,,,,,,,,METAR,26.0
PAKV 111853Z AUTO 00000KT 10SM CLR M34/ A3032 RMK AO2 SLP278 T1344 TSNO $,PAKV,2020-12-11T18:53:00Z,64.33,-158.72,-34.4,,0,0,,10.0,30.318897,1027.8,,TRUE,TRUE,TRUE,,TRUE,,,,CLR,,,,,,,,VFR,,,,,,,,,,,,METAR,53.0
PAKT 111853Z 22003KT 10SM CLR 01/00 A3012 RMK AO2 SLP199 HARBOR WND 00000KT T00110000,PAKT,2020-12-11T18:53:00Z,55.35,-131.72,1.1,0.0,220,3,,10.0,30.121063,1019.9,,,TRUE,,,,,,,CLR,,,,,,,,VFR,,,,,,,,,,,,METAR,27.0
PAIL 111853Z 36009KT 10SM CLR M10/M11 A2990 RMK AO2 SLP132 T11001111,PAIL,2020-12-11T18:53:00Z,59.75,-154.92,-10.0,-11.1,360,9,,10.0,29.899607,1013.2,,,TRUE,,,,,,,CLR,,,,,,,,VFR,,,,,,,,,,,,METAR,44.0
PAHO 111853Z 05003KT 10SM CLR M07/M08 A3001 RMK AO2 SLP163 T10721083 $,PAHO,2020-12-11T18:53:00Z,59.63,-151.48,-7.2,-8.3,50,3,,10.0,30.008858,1016.3,,,TRUE,TRUE,,,,,,CLR,,,,,,,,VFR,,,,,,,,,,,,METAR,6.0
PAGK 111853Z AUTO 00000KT 9SM OVC004 M19/M22 A3017 RMK AO2 SLP285 T11891217 TSNO,PAGK,2020-12-11T18:53:00Z,62.15,-145.45,-18.9,-21.7,0,0,,9.0,30.171259,1028.5,,TRUE,TRUE,,,TRUE,,,,OVC,400,,,,,,,LIFR,,,,,,,,,,,,METAR,481.0
PAFA 111853Z 00000KT 10SM FEW065 FEW200 M29/M33 A3027 RMK AO2 SLP268 T12941333,PAFA,2020-12-11T18:53:00Z,64.8,-147.87,-29.4,-33.3,0,0,,10.0,30.268702,1026.8,,,TRUE,,,,,,,FEW,6500,FEW,20000,,,,,VFR,,,,,,,,,,,,METAR,130.0
PAEN 111853Z 05006KT 10SM CLR M09/M11 A3008 RMK AO2 SLP191 T10891106,PAEN,2020-12-11T18:53:00Z,60.57,-151.25,-8.9,-10.6,50,6,,10.0,30.079725,1019.1,,,TRUE,,,,,,,CLR,,,,,,,,VFR,,,,,,,,,,,,METAR,30.0
PAEG 111853Z AUTO 00000KT 10SM CLR M25/M27 A3027 RMK AO2 SLP279 T12501272 TSNO,PAEG,2020-12-11T18:53:00Z,64.78,-141.15,-25.0,-27.2,0,0,,10.0,30.268702,1027.9,,TRUE,TRUE,,,TRUE,,,,CLR,,,,,,,,VFR,,,,,,,,,,,,METAR,273.0
PADQ 111853Z 07016KT 10SM OVC025 03/M01 A2989 RMK AO2 SLP121 T00281011,PADQ,2020-12-11T18:53:00Z,57.75,-152.5,2.8,-1.1,70,16,,10.0,29.890747,1012.1,,,TRUE,,,,,,,OVC,2500,,,,,,,MVFR,,,,,,,,,,,,METAR,5.0
PACV 111853Z 00000KT 10SM FEW065 SCT200 M10/M12 A3006 RMK AO2 SLP180 I1001 T11001122,PACV,2020-12-11T18:53:00Z,60.5,-145.47,-10.0,-12.2,0,0,,10.0,30.059055,1018.0,,,TRUE,,,,,,,FEW,6500,SCT,20000,,,,,VFR,,,,,,,,,,,,METAR,15.0
PABT 111853Z COR 00000KT 10SM -SN SCT050 M24/M27 A3034 RMK AO2 SLP301 PCPN VRY LGT T12441272 PNO,PABT,2020-12-11T18:53:00Z,66.92,-151.52,-24.4,-27.2,0,0,,10.0,30.339567,1030.1,TRUE,,TRUE,,,,,,-SN,SCT,5000,,,,,,,VFR,,,,,,,,,,,,METAR,195.0
PABR 111853Z 05010KT 10SM OVC060 M20/M24 A3061 RMK AO2 SLP366 T12001239,PABR,2020-12-11T18:53:00Z,71.28,-156.78,-20.0,-23.9,50,10,,10.0,30.611221,1036.6,,,TRUE,,,,,,,OVC,6000,,,,,,,VFR,,,,,,,,,,,,METAR,6.0
PABI 111853Z 11005KT 9SM -SN OVC013 M17/M20 A3018 RMK AO2 SLP275 PCPN VRY LGT P0000 T11721200,PABI,2020-12-11T18:53:00Z,64.0,-145.72,-17.2,-20.0,110,5,,9.0,30.180119,1027.5,,,TRUE,,,,,,-SN,OVC,1300,,,,,,,MVFR,,,,,,0.005,,,,,,METAR,388.0
PABE 111853Z 03018KT 10SM CLR M17/M20 A2983 RMK AO2 PK WND 02026/1808 SLP104 T11721200,PABE,2020-12-11T18:53:00Z,60.78,-161.83,-17.2,-20.0,30,18,,10.0,29.828741,1010.4,,,TRUE,,,,,,,CLR,,,,,,,,VFR,,,,,,,,,,,,METAR,28.0
PAAQ 111853Z 23003KT 10SM SCT200 M13/M16 A3006 RMK AO2 SLP186 T11331156,PAAQ,2020-12-11T18:53:00Z,61.6,-149.08,-13.3,-15.6,230,3,,10.0,30.059055,1018.6,,,TRUE,,,,,,,SCT,20000,,,,,,,VFR,,,,,,,,,,,,METAR,68.0
KZZV 111853Z AUTO 19006G15KT 10SM CLR 18/04 A2999 RMK AO2 SLP158 T01780039,KZZV,2020-12-11T18:53:00Z,39.95,-81.9,17.8,3.9,190,6,15,10.0,29.991142,1015.8,,TRUE,TRUE,,,,,,,CLR,,,,,,,,VFR,,,,,,,,,,,,METAR,268.0
KYIP 111853Z 06009KT 7SM CLR 12/03 A2993 RMK AO2 SLP137 T01220033,KYIP,2020-12-11T18:53:00Z,42.23,-83.53,12.2,3.3,60,9,,7.0,29.929134,1013.7,,,TRUE,,,,,,,CLR,,,,,,,,VFR,,,,,,,,,,,,METAR,215.0
KXNA 111853Z 20008G19KT 10SM OVC013 14/12 A2978 RMK AO2 SLP079 T01440117,KXNA,2020-12-11T18:53:00Z,36.28,-94.3,14.4,11.7,200,8,19,10.0,29.778543,1007.9,,,TRUE,,,,,,,OVC,1300,,,,,,,MVFR,,,,,,,,,,,,METAR,390.0
KWVI 111853Z AUTO 00000KT 10SM CLR 12/07 A3022 RMK AO2 SLP233 T01170067,KWVI,2020-12-11T18:53:00Z,36.93,-121.78,11.7,6.7,0,0,,10.0,30.221457,1023.3,,TRUE,TRUE,,,,,,,CLR,,,,,,,,VFR,,,,,,,,,,,,METAR,47.0
KWST 111853Z AUTO 20011KT 10SM CLR 10/05 A3014 RMK AO2 SLP206 T01000050,KWST,2020-12-11T18:53:00Z,41.35,-71.8,10.0,5.0,200,11,,10.0,30.138779,1020.6,,TRUE,TRUE,,,,,,,CLR,,,,,,,,VFR,,,,,,,,,,,,METAR,20.0
KWRL 111853Z AUTO 14005KT 10SM SCT017 BKN036 OVC060 00/M04 A2991 RMK AO2 SLP160 T00001044,KWRL,2020-12-11T18:53:00Z,43.97,-107.95,0.0,-4.4,140,5,,10.0,29.911417,1016.0,,TRUE,TRUE,,,,,,,SCT,1700,BKN,3600,OVC,6000,,,VFR,,,,,,,,,,,,METAR,1281.0
KVRB 111853Z 02008KT 10SM FEW060 23/12 A3013 RMK AO2 SLP200 T02330122,KVRB,2020-12-11T18:53:00Z,27.65,-80.42,23.3,12.2,20,8,,10.0,30.129921,1020.0,,,TRUE,,,,,,,FEW,6000,,,,,,,VFR,,,,,,,,,,,,METAR,7.0
KVPC 111853Z AUTO 16006KT 10SM CLR 19/05 A3009 RMK AO2 SLP184 T01940050,KVPC,2020-12-11T18:53:00Z,34.1,-84.85,19.4,5.0,160,6,,10.0,30.088583,1018.4,,TRUE,TRUE,,,,,,,CLR,,,,,,,,VFR,,,,,,,,,,,,METAR,234.0
KVLD 111853Z 00000KT 10SM CLR 21/07 A3013 RMK AO2 SLP211 T02110067,KVLD,2020-12-11T18:53:00Z,30.78,-83.27,21.1,6.7,0,0,,10.0,30.129921,1021.1,,,TRUE,,,,,,,CLR,,,,,,,,VFR,,,,,,,,,,,,METAR,59.0
KVIH 111853Z AUTO 14012KT 8SM -RA OVC080 11/09 A2978 RMK AO2 RAE28B52 SLP083 P0002 T01110094,KVIH,2020-12-11T18:53:00Z,38.13,-91.77,11.1,9.4,140,12,,8.0,29.778543,1008.3,,TRUE,TRUE,,,,,,-RA,OVC,8000,,,,,,,VFR,,,,,,0.02,,,,,,METAR,342.0
KVGT 111853Z 17005KT 10SM CLR 12/M10 A2999 RMK AO2 SLP173 T01221100,KVGT,2020-12-11T18:53:00Z,36.22,-115.2,12.2,-10.0,170,5,,10.0,29.991142,1017.3,,,TRUE,,,,,,,CLR,,,,,,,,VFR,,,,,,,,,,,,METAR,664.0
KVEL 111853Z AUTO VRB03KT 10SM OVC070 01/M11 A2991 RMK AO2 SLP153 T00061106,KVEL,2020-12-11T18:53:00Z,40.45,-109.52,0.6,-10.6,0,3,,10.0,29.911417,1015.3,,TRUE,TRUE,,,,,,,OVC,7000,,,,,,,VFR,,,,,,,,,,,,METAR,1604.0
KVCB 111853Z AUTO 00000KT 10SM OVC110 10/02 A3019 RMK AO2 SLP223 T01000022,KVCB,2020-12-11T18:53:00Z,38.38,-121.95,10.0,2.2,0,0,,10.0,30.188976,1022.3,,TRUE,TRUE,,,,,,,OVC,11000,,,,,,,VFR,,,,,,,,,,,,METAR,30.0
KUUU 111853Z AUTO 20011G21KT 5SM HZ CLR 10/06 A3013 RMK AO2 SLP204 T01000056,KUUU,2020-12-11T18:53:00Z,41.53,-71.28,10.0,5.6,200,11,21,5.0,30.129921,1020.4,,TRUE,TRUE,,,,,,HZ,CLR,,,,,,,,MVFR,,,,,,,,,,,,METAR,45.0
KUNV 111853Z 23007KT 10SM CLR 12/01 A3003,KUNV,2020-12-11T18:53:00Z,40.85,-77.83,12.0,1.0,230,7,,10.0,30.029528,,,,,,,,,,,CLR,,,,,,,,VFR,,,,,,,,,,,,METAR,365.0
KUIL 111853Z AUTO 08006KT 10SM CLR 06/03 A3005 RMK AO2 SLPNO T00560033,KUIL,2020-12-11T18:53:00Z,47.93,-124.55,5.6,3.3,80,6,,10.0,30.050198,,,TRUE,TRUE,,,,,,,CLR,,,,,,,,VFR,,,,,,,,,,,,METAR,58.0
KUAO 111853Z 20004KT 8SM -RA BKN019 OVC033 06/04 A3010 RMK AO2 RAB1754 SLP191 P0003 T00610044,KUAO,2020-12-11T18:53:00Z,45.25,-122.77,6.1,4.4,200,4,,8.0,30.100393,1019.1,,,TRUE,,,,,,-RA,BKN,1900,OVC,3300,,,,,MVFR,,,,,,0.03,,,,,,METAR,60.0
KTYS 111853Z 00000KT 10SM OVC250 16/04 A3007 RMK AO2 SLP180 T01610044,KTYS,2020-12-11T18:53:00Z,35.82,-83.98,16.1,4.4,0,0,,10.0,30.070866,1018.0,,,TRUE,,,,,,,OVC,25000,,,,,,,VFR,,,,,,,,,,,,METAR,300.0
KTYR 111853Z 20006KT 10SM BKN021 OVC075 17/16 A2985 RMK AO2 RAE45 SLP105 P0005 T01670156,KTYR,2020-12-11T18:53:00Z,32.37,-95.4,16.7,15.6,200,6,,10.0,29.84941,1010.5,,,TRUE,,,,,,,BKN,2100,OVC,7500,,,,,MVFR,,,,,,0.05,,,,,,METAR,161.0
KTVR 111853Z AUTO 18015G23KT 10SM CLR 23/11 A2998 RMK AO2 SLP157 T02280106,KTVR,2020-12-11T18:53:00Z,32.35,-91.03,22.8,10.6,180,15,23,10.0,29.97933,1015.7,,TRUE,TRUE,,,,,,,CLR,,,,,,,,VFR,,,,,,,,,,,,METAR,25.0
KTVL 111853Z AUTO 19012KT 10SM OVC100 06/M23 A3009 RMK AO2 SLP174 T00561228,KTVL,2020-12-11T18:53:00Z,38.9,-120.0,5.6,-22.8,190,12,,10.0,30.088583,1017.4,,TRUE,TRUE,,,,,,,OVC,10000,,,,,,,VFR,,,,,,,,,,,,METAR,1907.0
KTVC 111853Z 02011G21KT 10SM OVC019 04/M01 A3004 RMK AO2 SLP178 T00441006,KTVC,2020-12-11T18:53:00Z,44.73,-85.58,4.4,-0.6,20,11,21,10.0,30.041338,1017.8,,,TRUE,,,,,,,OVC,1900,,,,,,,MVFR,,,,,,,,,,,,METAR,188.0
KTUS 111853Z VRB04KT 10SM CLR 16/06 A3011 RMK AO2 SLP176 T01560061,KTUS,2020-12-11T18:53:00Z,32.13,-110.95,15.6,6.1,0,4,,10.0,30.109253,1017.6,,,TRUE,,,,,,,CLR,,,,,,,,VFR,,,,,,,,,,,,METAR,776.0
KTUP 111853Z 17011KT 10SM CLR 19/11 A3002 RMK AO2 SLP164 T01890106 $,KTUP,2020-12-11T18:53:00Z,34.27,-88.77,18.9,10.6,170,11,,10.0,30.02067,1016.4,,,TRUE,TRUE,,,,,,CLR,,,,,,,,VFR,,,,,,,,,,,,METAR,107.0
KTUL 111853Z 29009KT 10SM OVC029 09/05 A2982 RMK AO2 SLP095 T00890050,KTUL,2020-12-11T18:53:00Z,36.2,-95.88,8.9,5.0,290,9,,10.0,29.819881,1009.5,,,TRUE,,,,,,,OVC,2900,,,,,,,MVFR,,,,,,,,,,,,METAR,196.0
KTTN 111853Z 23009KT 210V270 10SM CLR 13/05 A3010 RMK AO2 SLP187 T01330050,KTTN,2020-12-11T18:53:00Z,40.28,-74.82,13.3,5.0,230,9,,10.0,30.100393,1018.7,,,TRUE,,,,,,,CLR,,,,,,,,VFR,,,,,,,,,,,,METAR,58.0
KTTD 111853Z AUTO 09003KT 7SM -RA BKN025 OVC033 07/06 A3011 RMK AO2 RAB1758 SLP195 P0002 T00670056,KTTD,2020-12-11T18:53:00Z,45.55,-122.42,6.7,5.6,90,3,,7.0,30.109253,1019.5,,TRUE,TRUE,,,,,,-RA,BKN,2500,OVC,3300,,,,,MVFR,,,,,,0.02,,,,,,METAR,8.0
KTRI 111853Z 00000KT 10SM BKN065 17/01 A3009 RMK AO2 SLP180 T01720006,KTRI,2020-12-11T18:53:00Z,36.48,-82.4,17.2,0.6,0,0,,10.0,30.088583,1018.0,,,TRUE,,,,,,,BKN,6500,,,,,,,VFR,,,,,,,,,,,,METAR,456.0
KTPA 111853Z 17006KT 10SM FEW045 22/08 A3012 RMK AO2 SLP200 T02170083,KTPA,2020-12-11T18:53:00Z,27.97,-82.53,21.7,8.3,170,6,,10.0,30.121063,1020.0,,,TRUE,,,,,,,FEW,4500,,,,,,,VFR,,,,,,,,,,,,METAR,2.0
KTOP 111853Z 33005KT 8SM OVC013 06/02 A2978 RMK AO2 SLP086 T00560022,KTOP,2020-12-11T18:53:00Z,39.07,-95.63,5.6,2.2,330,5,,8.0,29.778543,1008.6,,,TRUE,,,,,,,OVC,1300,,,,,,,MVFR,,,,,,,,,,,,METAR,268.0
KTOI 111853Z AUTO VRB06KT 10SM CLR 21/11 A3011 RMK AO2 SLP195 T02060111,KTOI,2020-12-11T18:53:00Z,31.85,-86.02,20.6,11.1,0,6,,10.0,30.109253,1019.5,,TRUE,TRUE,,,,,,,CLR,,,,,,,,VFR,,,,,,,,,,,,METAR,120.0
KTMB 111853Z AUTO 10008KT 10SM SCT038 OVC055 23/17 A3007 RMK AO2 SLP183 T02330167,KTMB,2020-12-11T18:53:00Z,25.65,-80.43,23.3,16.7,100,8,,10.0,30.070866,1018.3,,TRUE,TRUE,,,,,,,SCT,3800,OVC,5500,,,,,VFR,,,,,,,,,,,,METAR,2.0
KTLH 111853Z 14007KT 10SM SCT030 SCT250 19/13 A3012 RMK AO2 SLP200 T01940128 $,KTLH,2020-12-11T18:53:00Z,30.4,-84.35,19.4,12.8,140,7,,10.0,30.121063,1020.0,,,TRUE,TRUE,,,,,,SCT,3000,SCT,25000,,,,,VFR,,,,,,,,,,,,METAR,17.0
KTKI 111853Z 20007KT 5SM -RA BR OVC009 17/15 A2983 RMK AO2 CIG 006V012 SLP104 P0002 T01670150,KTKI,2020-12-11T18:53:00Z,33.18,-96.58,16.7,15.0,200,7,,5.0,29.828741,1010.4,,,TRUE,,,,,,-RA BR,OVC,900,,,,,,,IFR,,,,,,0.02,,,,,,METAR,173.0
KTIW 111853Z VRB05KT 10SM FEW009 SCT014 BKN022 06/02 A3007 RMK AO2 SLP187 T00610022,KTIW,2020-12-11T18:53:00Z,47.27,-122.58,6.1,2.2,0,5,,10.0,30.070866,1018.7,,,TRUE,,,,,,,FEW,900,SCT,1400,BKN,2200,,,MVFR,,,,,,,,,,,,METAR,89.0
KTHV 111853Z AUTO 22006KT 10SM CLR 14/03 A3007 RMK AO2 SLP190 T01390033,KTHV,2020-12-11T18:53:00Z,39.92,-76.88,13.9,3.3,220,6,,10.0,30.070866,1019.0,,TRUE,TRUE,,,,,,,CLR,,,,,,,,VFR,,,,,,,,,,,,METAR,141.0
KTDZ 111853Z AUTO 24005KT 9SM CLR 13/05 A2993 RMK AO2 SLP138 T01330050,KTDZ,2020-12-11T18:53:00Z,41.57,-83.48,13.3,5.0,240,5,,9.0,29.929134,1013.8,,TRUE,TRUE,,,,,,,CLR,,,,,,,,VFR,,,,,,,,,,,,METAR,189.0
KTCS 111853Z AUTO 28010KT 10SM CLR 13/M04 A2998 RMK AO2 SLP119 T01331044,KTCS,2020-12-11T18:53:00Z,33.23,-107.27,13.3,-4.4,280,10,,10.0,29.97933,1011.9,,TRUE,TRUE,,,,,,,CLR,,,,,,,,VFR,,,,,,,,,,,,METAR,1471.0
KTCL 111853Z VRB03KT 10SM CLR 18/12 A3008 RMK AO2 SLP184 T01830117,KTCL,2020-12-11T18:53:00Z,33.22,-87.62,18.3,11.7,0,3,,10.0,30.079725,1018.4,,,TRUE,,,,,,,CLR,,,,,,,,VFR,,,,,,,,,,,,METAR,48.0
KTCC 111853Z AUTO 06005KT 10SM CLR 07/M01 A2983 RMK AO2 SLP088 T00721006,KTCC,2020-12-11T18:53:00Z,35.18,-103.6,7.2,-0.6,60,5,,10.0,29.828741,1008.8,,TRUE,TRUE,,,,,,,CLR,,,,,,,,VFR,,,,,,,,,,,,METAR,1233.0
KSWO 111853Z 31009KT 10SM SCT080 08/01 A2983 RMK AO2 SLP101 T00830011 $,KSWO,2020-12-11T18:53:00Z,36.17,-97.08,8.3,1.1,310,9,,10.0,29.828741,1010.1,,,TRUE,TRUE,,,,,,SCT,8000,,,,,,,VFR,,,,,,,,,,,,METAR,293.0
KSTS 111853Z 14003KT 10SM BKN080 09/03 A3019 RMK AO2 RAB31E47 SLP218 P0000 T00940033,KSTS,2020-12-11T18:53:00Z,38.5,-122.82,9.4,3.3,140,3,,10.0,30.188976,1021.8,,,TRUE,,,,,,,BKN,8000,,,,,,,VFR,,,,,,0.005,,,,,,METAR,35.0
KSTJ 111853Z 01006KT 4SM BR OVC009 05/03 A2977 RMK AO2 RAE08 SLP086 P0000 T00500028,KSTJ,2020-12-11T18:53:00Z,39.77,-94.92,5.0,2.8,10,6,,4.0,29.769686,1008.6,,,TRUE,,,,,,BR,OVC,900,,,,,,,IFR,,,,,,0.005,,,,,,METAR,247.0
KSTC 111853Z 03005KT 10SM OVC012 M01/M04 A3013 RMK AO2 SLP223 T10061039,KSTC,2020-12-11T18:53:00Z,45.55,-94.05,-0.6,-3.9,30,5,,10.0,30.129921,1022.3,,,TRUE,,,,,,,OVC,1200,,,,,,,MVFR,,,,,,,,,,,,METAR,302.0
KSSI 111853Z AUTO 13006KT 10SM CLR 19/11 A3014 RMK AO2 SLP207 T01940111,KSSI,2020-12-11T18:53:00Z,31.15,-81.38,19.4,11.1,130,6,,10.0,30.138779,1020.7,,TRUE,TRUE,,,,,,,CLR,,,,,,,,VFR,,,,,,,,,,,,METAR,6.0
KSRQ 111853Z 09010KT 10SM SCT050 23/10 A3010 RMK AO2 SLP191 T02280100,KSRQ,2020-12-11T18:53:00Z,27.4,-82.57,22.8,10.0,90,10,,10.0,30.100393,1019.1,,,TRUE,,,,,,,SCT,5000,,,,,,,VFR,,,,,,,,,,,,METAR,5.0
KSPW 111853Z AUTO 05020G28KT 10SM BKN120 03/M02 A2995 RMK AO2 PK WND 05030/1813 SLP154 T00331022,KSPW,2020-12-11T18:53:00Z,43.17,-95.22,3.3,-2.2,50,20,28,10.0,29.949802,1015.4,,TRUE,TRUE,,,,,,,BKN,12000,,,,,,,VFR,,,,,,,,,,,,METAR,407.0
KSPG 111853Z 05004KT 10SM CLR 21/14 A3010 RMK AO2 SLP194 T02110139,KSPG,2020-12-11T18:53:00Z,27.77,-82.63,21.1,13.9,50,4,,10.0,30.100393,1019.4,,,TRUE,,,,,,,CLR,,,,,,,,VFR,,,,,,,,,,,,METAR,1.0
KSNY 111853Z AUTO 01008KT 10SM OVC055 00/M07 A2993 RMK AO2 SLP162 T00001067 $,KSNY,2020-12-11T18:53:00Z,41.1,-102.98,0.0,-6.7,10,8,,10.0,29.929134,1016.2,,TRUE,TRUE,TRUE,,,,,,OVC,5500,,,,,,,VFR,,,,,,,,,,,,METAR,1307.0
KSNA 111853Z 00000KT 10SM BKN030 16/07 A3014 RMK AO2 SLP205 T01560072,KSNA,2020-12-11T18:53:00Z,33.67,-117.87,15.6,7.2,0,0,,10.0,30.138779,1020.5,,,TRUE,,,,,,,BKN,3000,,,,,,,MVFR,,,,,,,,,,,,METAR,14.0
KSMQ 111853Z AUTO 20007KT 170V260 10SM CLR 13/04 A3008 RMK AO2 SLP188 T01330044,KSMQ,2020-12-11T18:53:00Z,40.62,-74.67,13.3,4.4,200,7,,10.0,30.079725,1018.8,,TRUE,TRUE,,,,,,,CLR,,,,,,,,VFR,,,,,,,,,,,,METAR,30.0
KSMF 111853Z VRB03KT 10SM SCT120 OVC200 07/02 A3018 RMK AO2 SLP220 T00720022,KSMF,2020-12-11T18:53:00Z,38.7,-121.6,7.2,2.2,0,3,,10.0,30.180119,1022.0,,,TRUE,,,,,,,SCT,12000,OVC,20000,,,,,VFR,,,,,,,,,,,,METAR,7.0
KSLN 111853Z 33011KT 10SM OVC017 04/M01 A2983 RMK AO2 SLP106 T00391006,KSLN,2020-12-11T18:53:00Z,38.8,-97.65,3.9,-0.6,330,11,,10.0,29.828741,1010.6,,,TRUE,,,,,,,OVC,1700,,,,,,,MVFR,,,,,,,,,,,,METAR,377.0
KSJC 111853Z 00000KT 10SM FEW030 SCT070 BKN120 12/03 A3021 RMK AO2 SLP229 T01170033,KSJC,2020-12-11T18:53:00Z,37.37,-121.92,11.7,3.3,0,0,,10.0,30.209646,1022.9,,,TRUE,,,,,,,FEW,3000,SCT,7000,BKN,12000,,,VFR,,,,,,,,,,,,METAR,13.0
KSIY 111853Z AUTO 00000KT 10SM OVC100 01/M03 A3014 RMK AO2 SLP236 T00061033,KSIY,2020-12-11T18:53:00Z,41.77,-122.47,0.6,-3.3,0,0,,10.0,30.138779,1023.6,,TRUE,TRUE,,,,,,,OVC,10000,,,,,,,VFR,,,,,,,,,,,,METAR,807.0
KSHR 111853Z AUTO 35006KT 10SM FEW060 BKN120 M03/M04 A2993 RMK AO2 SNE1758 SLP181 P0000 T10281044,KSHR,2020-12-11T18:53:00Z,44.77,-106.97,-2.8,-4.4,350,6,,10.0,29.929134,1018.1,,TRUE,TRUE,,,,,,,FEW,6000,BKN,12000,,,,,VFR,,,,,,0.005,,,,,,METAR,1212.0
KSGR 111853Z 15010KT 10SM OVC070 23/19 A2988 RMK AO2 SLP119 T02330189,KSGR,2020-12-11T18:53:00Z,29.62,-95.65,23.3,18.9,150,10,,10.0,29.878937,1011.9,,,TRUE,,,,,,,OVC,7000,,,,,,,VFR,,,,,,,,,,,,METAR,22.0
KSFF 111853Z 00000KT 1SM -SN BR FEW007 OVC020 01/M01 A3004 RMK AO2 SLP189 P0001 T00061006,KSFF,2020-12-11T18:53:00Z,47.68,-117.32,0.6,-0.6,0,0,,1.0,30.041338,1018.9,,,TRUE,,,,,,-SN BR,FEW,700,OVC,2000,,,,,IFR,,,,,,0.01,,,,,,METAR,593.0
KSFB 111853Z VRB03KT 10SM CLR 22/08 A3014 RMK AO2 SLP204 T02170083,KSFB,2020-12-11T18:53:00Z,28.77,-81.23,21.7,8.3,0,3,,10.0,30.138779,1020.4,,,TRUE,,,,,,,CLR,,,,,,,,VFR,,,,,,,,,,,,METAR,16.0
KSEG 111853Z AUTO 18008KT 8SM CLR 10/02 A3007 RMK AO2 SLP187 T01000022,KSEG,2020-12-11T18:53:00Z,40.82,-76.87,10.0,2.2,180,8,,8.0,30.070866,1018.7,,TRUE,TRUE,,,,,,,CLR,,,,,,,,VFR,,,,,,,,,,,,METAR,136.0
KSEA 111853Z 22009KT 10SM FEW010 SCT020 BKN130 06/03 A3007 RMK AO2 SLP193 T00610033 $,KSEA,2020-12-11T18:53:00Z,47.45,-122.32,6.1,3.3,220,9,,10.0,30.070866,1019.3,,,TRUE,TRUE,,,,,,FEW,1000,SCT,2000,BKN,13000,,,VFR,,,,,,,,,,,,METAR,115.0
KSDM 111853Z 00000KT 10SM CLR 17/06 A3012 RMK AO2 SLP198 T01670061,KSDM,2020-12-11T18:53:00Z,32.58,-117.0,16.7,6.1,0,0,,10.0,30.121063,1019.8,,,TRUE,,,,,,,CLR,,,,,,,,VFR,,,,,,,,,,,,METAR,161.0
KSDL 111853Z 15004KT 10SM CLR 16/09 A3009 RMK AO2 SLP181 T01560089,KSDL,2020-12-11T18:53:00Z,33.62,-111.92,15.6,8.9,150,4,,10.0,30.088583,1018.1,,,TRUE,,,,,,,CLR,,,,,,,,VFR,,,,,,,,,,,,METAR,438.0
KSDB 111853Z AUTO VRB05KT 10SM CLR 14/M11 A3013 RMK AO2 SLP173 T01441106,KSDB,2020-12-11T18:53:00Z,34.75,-118.72,14.4,-10.6,0,5,,10.0,30.129921,1017.3,,TRUE,TRUE,,,,,,,CLR,,,,,,,,VFR,,,,,,,,,,,,SPECI,1377.0
KSBM 111853Z AUTO 03017KT 10SM OVC020 04/M01 A3003 RMK AO2 PK WND 04026/1831 SLP173 T00441006,KSBM,2020-12-11T18:53:00Z,43.78,-87.85,4.4,-0.6,30,17,,10.0,30.029528,1017.3,,TRUE,TRUE,,,,,,,OVC,2000,,,,,,,MVFR,,,,,,,,,,,,METAR,225.0
KSBA 111853Z 24007KT 10SM SCT021 16/09 A3014 RMK AO2 SLP206 T01610094,KSBA,2020-12-11T18:53:00Z,34.43,-119.85,16.1,9.4,240,7,,10.0,30.138779,1020.6,,,TRUE,,,,,,,SCT,2100,,,,,,,VFR,,,,,,,,,,,,METAR,2.0
KSAV 111853Z VRB04KT 10SM SCT200 21/08 A3014 RMK AO2 SLP205 T02110078,KSAV,2020-12-11T18:53:00Z,32.12,-81.2,21.1,7.8,0,4,,10.0,30.138779,1020.5,,,TRUE,,,,,,,SCT,20000,,,,,,,VFR,,,,,,,,,,,,SPECI,10.0
KSAF 111853Z 28021G30KT 10SM CLR 06/M03 A2987 RMK AO2 PK WND 29030/1853 SLP091 T00561033,KSAF,2020-12-11T18:53:00Z,35.62,-106.1,5.6,-3.3,280,21,30,10.0,29.870079,1009.1,,,TRUE,,,,,,,CLR,,,,,,,,VFR,,,,,,,,,,,,METAR,1918.0
KSAC 111853Z 26004KT 10SM FEW120 10/01 A3020 RMK AO2 SLP226 T01000011,KSAC,2020-12-11T18:53:00Z,38.5,-121.5,10.0,1.1,260,4,,10.0,30.200787,1022.6,,,TRUE,,,,,,,FEW,12000,,,,,,,VFR,,,,,,,,,,,,METAR,5.0
KRXE 111853Z AUTO 22007KT BKN012 BKN060 M05/M08 A2995 RMK AO2 SLP201 T10501083 PWINO FZRANO $,KRXE,2020-12-11T18:53:00Z,43.83,-111.8,-5.0,-8.3,220,7,,,29.949802,1020.1,,TRUE,TRUE,TRUE,,,TRUE,TRUE,,BKN,1200,BKN,6000,,,,,,,,,,,,,,,,,METAR,1483.0
KRWI 111853Z AUTO VRB03KT 10SM CLR 19/11 A3015 RMK AO2 SLP211 T01940111,KRWI,2020-12-11T18:53:00Z,35.85,-77.9,19.4,11.1,0,3,,10.0,30.15059,1021.1,,TRUE,TRUE,,,,,,,CLR,,,,,,,,VFR,,,,,,,,,,,,METAR,46.0
KRUE 111853Z AUTO 14003KT 10SM OVC014 13/13 A2983 RMK AO2 RAE14 SLP097 P0001 T01330128,KRUE,2020-12-11T18:53:00Z,35.25,-93.1,13.3,12.8,140,3,,10.0,29.828741,1009.7,,TRUE,TRUE,,,,,,,OVC,1400,,,,,,,MVFR,,,,,,0.01,,,,,,METAR,119.0
KRSW 111853Z 04006KT 10SM CLR 23/11 A3010 RMK AO2 SLP190 T02280106,KRSW,2020-12-11T18:53:00Z,26.53,-81.75,22.8,10.6,40,6,,10.0,30.100393,1019.0,,,TRUE,,,,,,,CLR,,,,,,,,VFR,,,,,,,,,,,,METAR,8.0
KRQE 111853Z AUTO 30018G26KT 10SM CLR 06/M07 A2999 RMK AO2 PK WND 29026/1833 SLP127 T00561072 TSNO,KRQE,2020-12-11T18:53:00Z,35.65,-109.07,5.6,-7.2,300,18,26,10.0,29.991142,1012.7,,TRUE,TRUE,,,TRUE,,,,CLR,,,,,,,,VFR,,,,,,,,,,,,METAR,2056.0
KRMG 111853Z AUTO 00000KT 10SM CLR 19/07 A3009 RMK AO2 SLP186 T01890067,KRMG,2020-12-11T18:53:00Z,34.35,-85.17,18.9,6.7,0,0,,10.0,30.088583,1018.6,,TRUE,TRUE,,,,,,,CLR,,,,,,,,VFR,,,,,,,,,,,,METAR,196.0
KRME 111853Z 17004KT 10SM CLR 11/02 A3000 RMK AO2 SLP160 T01110022,KRME,2020-12-11T18:53:00Z,43.22,-75.4,11.1,2.2,170,4,,10.0,30.0,1016.0,,,TRUE,,,,,,,CLR,,,,,,,,VFR,,,,,,,,,,,,METAR,146.0
KRKP 111853Z AUTO 18005KT 7SM FEW033 SCT046 BKN055 23/19 A2985 RMK AO2 SLP109 T02280194,KRKP,2020-12-11T18:53:00Z,28.08,-97.05,22.8,19.4,180,5,,7.0,29.84941,1010.9,,TRUE,TRUE,,,,,,,FEW,3300,SCT,4600,BKN,5500,,,VFR,,,,,,,,,,,,METAR,8.0
KRIW 111853Z AUTO 07008KT 4SM -SN BR OVC007 M04/M06 A2989 RMK AO2 CIG 004V011 SLP156 P0001 T10441056,KRIW,2020-12-11T18:53:00Z,43.07,-108.43,-4.4,-5.6,70,8,,4.0,29.890747,1015.6,,TRUE,TRUE,,,,,,-SN BR,OVC,700,,,,,,,IFR,,,,,,0.01,,,,,,METAR,1662.0
KRHI 111853Z AUTO VRB05KT 10SM OVC022 00/M06 A3007 RMK AO2 SLP201 T00001056,KRHI,2020-12-11T18:53:00Z,45.63,-89.48,0.0,-5.6,0,5,,10.0,30.070866,1020.1,,TRUE,TRUE,,,,,,,OVC,2200,,,,,,,MVFR,,,,,,,,,,,,METAR,493.0
KRDD 111853Z 00000KT 10SM OVC100 11/M02 A3015 RMK AO2 SLP210 T01061022,KRDD,2020-12-11T18:53:00Z,40.52,-122.3,10.6,-2.2,0,0,,10.0,30.15059,1021.0,,,TRUE,,,,,,,OVC,10000,,,,,,,VFR,,,,,,,,,,,,METAR,152.0
KRBG 111853Z AUTO 11003KT 10SM FEW049 FEW065 07/03 A3013 RMK AO2 RAE01 SLP205 P0000 T00670028,KRBG,2020-12-11T18:53:00Z,43.23,-123.35,6.7,2.8,110,3,,10.0,30.129921,1020.5,,TRUE,TRUE,,,,,,,FEW,4900,FEW,6500,,,,,VFR,,,,,,0.005,,,,,,METAR,152.0
KRBD 111853Z 21007KT 7SM BKN006 BKN045 OVC100 17/16 A2981 RMK AO2 RAE48 SLP092 P0002 T01720156,KRBD,2020-12-11T18:53:00Z,32.68,-96.87,17.2,15.6,210,7,,7.0,29.811024,1009.2,,,TRUE,,,,,,,BKN,600,BKN,4500,OVC,10000,,,IFR,,,,,,0.02,,,,,,METAR,200.0
KRAL 111853Z 00000KT 10SM BKN028 13/06 A3013 RMK AO2 SLP193 T01330056,KRAL,2020-12-11T18:53:00Z,33.95,-117.45,13.3,5.6,0,0,,10.0,30.129921,1019.3,,,TRUE,,,,,,,BKN,2800,,,,,,,MVFR,,,,,,,,,,,,METAR,254.0
KRAC 111853Z AUTO 03017G27KT 8SM -RA BKN014 OVC055 04/02 A2999 RMK AO2 PK WND 03028/1829 RAB27 SLP160 P0002 T00440022,KRAC,2020-12-11T18:53:00Z,42.77,-87.82,4.4,2.2,30,17,27,8.0,29.991142,1016.0,,TRUE,TRUE,,,,,,-RA,BKN,1400,OVC,5500,,,,,MVFR,,,,,,0.02,,,,,,METAR,203.0
KPWA 111853Z 32010KT 10SM BKN110 08/01 A2985 RMK AO2 SLP109 T00780011,KPWA,2020-12-11T18:53:00Z,35.53,-97.65,7.8,1.1,320,10,,10.0,29.84941,1010.9,,,TRUE,,,,,,,BKN,11000,,,,,,,VFR,,,,,,,,,,,,METAR,390.0
KPUC 111853Z AUTO 14003KT 10SM BKN060 OVC075 02/M12 A2991 RMK AO2 SLP160 T00171117,KPUC,2020-12-11T18:53:00Z,39.62,-110.75,1.7,-11.7,140,3,,10.0,29.911417,1016.0,,TRUE,TRUE,,,,,,,BKN,6000,OVC,7500,,,,,VFR,,,,,,,,,,,,METAR,1777.0
KPTK 111853Z 02007KT 8SM BKN160 OVC230 09/02 A2993 RMK AO2 SLP141 T00940017,KPTK,2020-12-11T18:53:00Z,42.67,-83.42,9.4,1.7,20,7,,8.0,29.929134,1014.1,,,TRUE,,,,,,,BKN,16000,OVC,23000,,,,,VFR,,,,,,,,,,,,METAR,295.0
KPSP 111853Z 20003KT 10SM CLR 18/01 A3007 RMK AO2 SLP184 T01830011 $,KPSP,2020-12-11T18:53:00Z,33.82,-116.5,18.3,1.1,200,3,,10.0,30.070866,1018.4,,,TRUE,TRUE,,,,,,CLR,,,,,,,,VFR,,,,,,,,,,,,METAR,123.0
KPSC 111853Z 00000KT 10SM FEW085 FEW110 04/00 A3010 RMK AO2 SLP194 T00440000,KPSC,2020-12-11T18:53:00Z,46.27,-119.12,4.4,0.0,0,0,,10.0,30.100393,1019.4,,,TRUE,,,,,,,FEW,8500,FEW,11000,,,,,VFR,,,,,,,,,,,,METAR,121.0
KPRC 111853Z 08005KT 10SM CLR 08/02 A3008 RMK AO2 SLP163 T00780017,KPRC,2020-12-11T18:53:00Z,34.65,-112.42,7.8,1.7,80,5,,10.0,30.079725,1016.3,,,TRUE,,,,,,,CLR,,,,,,,,VFR,,,,,,,,,,,,METAR,1528.0
KPQL 111853Z 17009KT 10SM CLR 24/14 A3006 RMK AO2 SLP180 T02390139,KPQL,2020-12-11T18:53:00Z,30.47,-88.53,23.9,13.9,170,9,,10.0,30.059055,1018.0,,,TRUE,,,,,,,CLR,,,,,,,,VFR,,,,,,,,,,,,METAR,4.0
KPOU 111853Z VRB03KT 10SM CLR 11/02 A3007 RMK AO2 SLP179 T01110022,KPOU,2020-12-11T18:53:00Z,41.63,-73.88,11.1,2.2,0,3,,10.0,30.070866,1017.9,,,TRUE,,,,,,,CLR,,,,,,,,VFR,,,,,,,,,,,,METAR,45.0
KPOF 111853Z AUTO 22008KT 10SM OVC033 16/10 A2988 RMK AO2 SLP120 T01560100,KPOF,2020-12-11T18:53:00Z,36.77,-90.32,15.6,10.0,220,8,,10.0,29.878937,1012.0,,TRUE,TRUE,,,,,,,OVC,3300,,,,,,,VFR,,,,,,,,,,,,METAR,99.0
KPNS 111853Z 11010KT 10SM BKN047 BKN055 22/14 A3009 RMK AO2 SLP190 T02170144,KPNS,2020-12-11T18:53:00Z,30.48,-87.18,21.7,14.4,110,10,,10.0,30.088583,1019.0,,,TRUE,,,,,,,BKN,4700,BKN,5500,,,,,VFR,,,,,,,,,,,,METAR,34.0
KPNC 111853Z AUTO 33008KT 10SM OVC022 07/01 A2982 RMK AO2 PRESFR SLP097 T00720006,KPNC,2020-12-11T18:53:00Z,36.73,-97.1,7.2,0.6,330,8,,10.0,29.819881,1009.7,,TRUE,TRUE,,,,,,,OVC,2200,,,,,,,MVFR,,,,,,,,,,,,METAR,304.0
KPMP 111853Z 08009KT 10SM SCT034 BKN065 23/16 A3009 RMK AO2 SLP189 T02330161,KPMP,2020-12-11T18:53:00Z,26.25,-80.12,23.3,16.1,80,9,,10.0,30.088583,1018.9,,,TRUE,,,,,,,SCT,3400,BKN,6500,,,,,VFR,,,,,,,,,,,,METAR,4.0
KPMD 111853Z 29009KT 10SM CLR 18/M18 A3006 RMK AO2 SLP168 T01831178,KPMD,2020-12-11T18:53:00Z,34.63,-118.08,18.3,-17.8,290,9,,10.0,30.059055,1016.8,,,TRUE,,,,,,,CLR,,,,,,,,VFR,,,,,,,,,,,,METAR,764.0
KPKB 111853Z 20012G15KT 10SM CLR 18/03 A3002 RMK AO2 SLP167 T01780028,KPKB,2020-12-11T18:53:00Z,39.35,-81.43,17.8,2.8,200,12,15,10.0,30.02067,1016.7,,,TRUE,,,,,,,CLR,,,,,,,,VFR,,,,,,,,,,,,METAR,245.0
KPIR 111853Z AUTO 03006KT 10SM OVC005 M03/M06 A3010 RMK AO2 SLP212 T10281056,KPIR,2020-12-11T18:53:00Z,44.38,-100.28,-2.8,-5.6,30,6,,10.0,30.100393,1021.2,,TRUE,TRUE,,,,,,,OVC,500,,,,,,,IFR,,,,,,,,,,,,METAR,524.0
KPIL 111853Z AUTO 19019G27KT 10SM CLR 27/19 A2982 RMK AO2 PK WND 18031/1836 SLP099 T02720189,KPIL,2020-12-11T18:53:00Z,26.17,-97.33,27.2,18.9,190,19,27,10.0,29.819881,1009.9,,TRUE,TRUE,,,,,,,CLR,,,,,,,,VFR,,,,,,,,,,,,METAR,5.0
KPIH 111853Z 23019KT 10SM OVC012 M03/M07 A3001 RMK AO2 SLP202 T10281067,KPIH,2020-12-11T18:53:00Z,42.92,-112.57,-2.8,-6.7,230,19,,10.0,30.008858,1020.2,,,TRUE,,,,,,,OVC,1200,,,,,,,MVFR,,,,,,,,,,,,METAR,1357.0
KPIE 111853Z 14010KT 10SM CLR 22/09 A3012 RMK AO2 SLP200 T02170094 $,KPIE,2020-12-11T18:53:00Z,27.92,-82.68,21.7,9.4,140,10,,10.0,30.121063,1020.0,,,TRUE,TRUE,,,,,,CLR,,,,,,,,VFR,,,,,,,,,,,,METAR,1.0
KPHD 111853Z AUTO 24008KT 10SM CLR 16/03 A2999 RMK AO2 SLP158 T01610033,KPHD,2020-12-11T18:53:00Z,40.47,-81.42,16.1,3.3,240,8,,10.0,29.991142,1015.8,,TRUE,TRUE,,,,,,,CLR,,,,,,,,VFR,,,,,,,,,,,,METAR,272.0
KPGD 111853Z 00000KT 10SM SCT050 23/11 A3011 RMK AO2 SLP196 T02280111,KPGD,2020-12-11T18:53:00Z,26.92,-82.0,22.8,11.1,0,0,,10.0,30.109253,1019.6,,,TRUE,,,,,,,SCT,5000,,,,,,,VFR,,,,,,,,,,,,METAR,7.0
KPGA 111853Z AUTO 36003KT 10SM CLR 09/M01 A2998 RMK AO2 SLP144 T00891011 TSNO,KPGA,2020-12-11T18:53:00Z,36.92,-111.45,8.9,-1.1,360,3,,10.0,29.97933,1014.4,,TRUE,TRUE,,,TRUE,,,,CLR,,,,,,,,VFR,,,,,,,,,,,,METAR,1310.0
KPEO 111853Z AUTO 19007KT 10SM CLR 12/02 A2997 RMK AO2 SLP151 T01170017,KPEO,2020-12-11T18:53:00Z,42.65,-77.05,11.7,1.7,190,7,,10.0,29.970472,1015.1,,TRUE,TRUE,,,,,,,CLR,,,,,,,,VFR,,,,,,,,,,,,METAR,268.0
KPDX 111853Z 14004KT 10SM -RA SCT013 BKN022 OVC029 07/04 A3010 RMK AO2 SLP193 P0003 T00670039,KPDX,2020-12-11T18:53:00Z,45.6,-122.62,6.7,3.9,140,4,,10.0,30.100393,1019.3,,,TRUE,,,,,,-RA,SCT,1300,BKN,2200,OVC,2900,,,MVFR,,,,,,0.03,,,,,,METAR,7.0
KPDT 111853Z 00000KT 10SM SCT060 BKN070 04/00 A3007 RMK AO2 SLP188 T00390000,KPDT,2020-12-11T18:53:00Z,45.7,-118.83,3.9,0.0,0,0,,10.0,30.070866,1018.8,,,TRUE,,,,,,,SCT,6000,BKN,7000,,,,,VFR,,,,,,,,,,,,METAR,453.0
KPDK 111853Z 13004KT 10SM CLR 18/06 A3010 RMK AO2 SLP196 T01780056,KPDK,2020-12-11T18:53:00Z,33.88,-84.3,17.8,5.6,130,4,,10.0,30.100393,1019.6,,,TRUE,,,,,,,CLR,,,,,,,,VFR,,,,,,,,,,,,METAR,299.0
KPBI 111853Z 04008KT 10SM SCT036 BKN043 BKN055 24/14 A3011 RMK AO2 SLP197 T02440139,KPBI,2020-12-11T18:53:00Z,26.68,-80.1,24.4,13.9,40,8,,10.0,30.109253,1019.7,,,TRUE,,,,,,,SCT,3600,BKN,4300,BKN,5500,,,VFR,,,,,,,,,,,,SPECI,4.0
KPBG 111853Z AUTO 13008KT 10SM SCT090 07/01 A2998 RMK AO2 SLP153 T00720006,KPBG,2020-12-11T18:53:00Z,44.65,-73.47,7.2,0.6,130,8,,10.0,29.97933,1015.3,,TRUE,TRUE,,,,,,,SCT,9000,,,,,,,VFR,,,,,,,,,,,,METAR,61.0
KPBF 111853Z AUTO 19013G21KT 10SM -RA CLR 19/11 A2989 RMK AO2 PK WND 20026/1840 RAB36 SLP119 P0000 T01940111,KPBF,2020-12-11T18:53:00Z,34.18,-91.93,19.4,11.1,190,13,21,10.0,29.890747,1011.9,,TRUE,TRUE,,,,,,-RA,CLR,,,,,,,,VFR,,,,,,0.005,,,,,,METAR,63.0
KPAH 111853Z 20007G19KT 10SM BKN034 BKN060 18/09 A2991 RMK AO2 SLP127 T01830094,KPAH,2020-12-11T18:53:00Z,37.07,-88.77,18.3,9.4,200,7,19,10.0,29.911417,1012.7,,,TRUE,,,,,,,BKN,3400,BKN,6000,,,,,VFR,,,,,,,,,,,,METAR,125.0
KP68 111853Z AUTO 07007KT 01/M13 A3006 RMK AO1 SLP198 T00111133,KP68,2020-12-11T18:53:00Z,39.6,-116.0,1.1,-13.3,70,7,,,30.059055,1019.8,,TRUE,TRUE,,,,,,,,,,,,,,,,,,,,,,,,,,,METAR,1813.0
KOXB 111853Z AUTO 20006KT 10SM CLR 14/08 A3017 RMK AO2 SLP215 T01390078,KOXB,2020-12-11T18:53:00Z,38.32,-75.12,13.9,7.8,200,6,,10.0,30.171259,1021.5,,TRUE,TRUE,,,,,,,CLR,,,,,,,,VFR,,,,,,,,,,,,METAR,2.0
KOWD 111853Z 20012G17KT 10SM CLR 12/03 A3010 RMK AO2 SLP192 T01170028,KOWD,2020-12-11T18:53:00Z,42.18,-71.17,11.7,2.8,200,12,17,10.0,30.100393,1019.2,,,TRUE,,,,,,,CLR,,,,,,,,VFR,,,,,,,,,,,,METAR,14.0
KOVE 111853Z AUTO 15004KT 10SM CLR 11/02 A3019 RMK AO2 SLP227 T01110022,KOVE,2020-12-11T18:53:00Z,39.5,-121.62,11.1,2.2,150,4,,10.0,30.188976,1022.7,,TRUE,TRUE,,,,,,,CLR,,,,,,,,VFR,,,,,,,,,,,,METAR,56.0
KOSU 111853Z 21008KT 10SM CLR 17/05 A2997 RMK AO2 SLP147 T01720050,KOSU,2020-12-11T18:53:00Z,40.08,-83.08,17.2,5.0,210,8,,10.0,29.970472,1014.7,,,TRUE,,,,,,,CLR,,,,,,,,VFR,,,,,,,,,,,,METAR,276.0
KOSH 111853Z 03015G23KT 10SM OVC020 02/M02 A3003 RMK AO2 SLP181 T00221017,KOSH,2020-12-11T18:53:00Z,43.98,-88.55,2.2,-1.7,30,15,23,10.0,30.029528,1018.1,,,TRUE,,,,,,,OVC,2000,,,,,,,MVFR,,,,,,,,,,,,METAR,239.0
KORL 111853Z 07006KT 10SM FEW044 22/09 A3013 RMK AO2 SLP208 T02220094,KORL,2020-12-11T18:53:00Z,28.55,-81.33,22.2,9.4,70,6,,10.0,30.129921,1020.8,,,TRUE,,,,,,,FEW,4400,,,,,,,VFR,,,,,,,,,,,,METAR,32.0
KOQT 111853Z AUTO 21004KT 10SM CLR 16/04 A3008 RMK AO2 SLP190 T01610044,KOQT,2020-12-11T18:53:00Z,36.02,-84.23,16.1,4.4,210,4,,10.0,30.079725,1019.0,,TRUE,TRUE,,,,,,,CLR,,,,,,,,VFR,,,,,,,,,,,,METAR,276.0
KOPF 111853Z 07008KT 10SM BKN040 OVC050 24/15 A3008 RMK AO2 SLP186 T02390150,KOPF,2020-12-11T18:53:00Z,25.92,-80.28,23.9,15.0,70,8,,10.0,30.079725,1018.6,,,TRUE,,,,,,,BKN,4000,OVC,5000,,,,,VFR,,,,,,,,,,,,METAR,1.0
KONO 111853Z AUTO 17004KT 10SM CLR 04/M04 A3010 RMK AO2 SLP213 T00391044,KONO,2020-12-11T18:53:00Z,44.02,-117.02,3.9,-4.4,170,4,,10.0,30.100393,1021.3,,TRUE,TRUE,,,,,,,CLR,,,,,,,,VFR,,,,,,,,,,,,METAR,668.0
KOGB 111853Z AUTO VRB04KT 10SM CLR 19/08 A3015 RMK AO2 SLP207 T01890083,KOGB,2020-12-11T18:53:00Z,33.47,-80.85,18.9,8.3,0,4,,10.0,30.15059,1020.7,,TRUE,TRUE,,,,,,,CLR,,,,,,,,VFR,,,,,,,,,,,,METAR,59.0
KODX 111853Z AUTO 36014KT 10SM OVC010 00/M03 A2992 RMK AO2 SNE1756 SLP153 P0000 T00001028,KODX,2020-12-11T18:53:00Z,41.62,-98.95,0.0,-2.8,360,14,,10.0,29.920275,1015.3,,TRUE,TRUE,,,,,,,OVC,1000,,,,,,,MVFR,,,,,,0.005,,,,,,METAR,628.0
KODO 111853Z AUTO 27017G23KT 10SM CLR 17/03 A2991 RMK AO2 SLP100 T01720033,KODO,2020-12-11T18:53:00Z,31.92,-102.4,17.2,3.3,270,17,23,10.0,29.911417,1010.0,,TRUE,TRUE,,,,,,,CLR,,,,,,,,VFR,,,,,,,,,,,,METAR,912.0
KOAK 111853Z 16006KT 10SM SCT030 BKN110 BKN220 13/06 A3022 RMK AO2 SLP233 T01280061,KOAK,2020-12-11T18:53:00Z,37.72,-122.23,12.8,6.1,160,6,,10.0,30.221457,1023.3,,,TRUE,,,,,,,SCT,3000,BKN,11000,BKN,22000,,,VFR,,,,,,,,,,,,METAR,3.0
KNUI 111853Z AUTO 20007KT 10SM CLR 18/09 A3013 RMK AO2 SLP203 T01780089,KNUI,2020-12-11T18:53:00Z,38.15,-76.43,17.8,8.9,200,7,,10.0,30.129921,1020.3,,TRUE,TRUE,,,,,,,CLR,,,,,,,,VFR,,,,,,,,,,,,METAR,4.0
KNSI 111853Z 29011KT 10SM SCT015 BKN250 14/08 A3014 RMK AO2 SLP202 T01440083 $,KNSI,2020-12-11T18:53:00Z,33.23,-119.45,14.4,8.3,290,11,,10.0,30.138779,1020.2,,,TRUE,TRUE,,,,,,SCT,1500,BKN,25000,,,,,VFR,,,,,,,,,,,,METAR,161.0
KNQX 111853Z 04011KT 10SM FEW030 22/16 A3006 RMK AO2 SLP177 T02220156,KNQX,2020-12-11T18:53:00Z,24.57,-81.67,22.2,15.6,40,11,,10.0,30.059055,1017.7,,,TRUE,,,,,,,FEW,3000,,,,,,,VFR,,,,,,,,,,,,METAR,2.0
KNIP 111853Z 22005KT 10SM FEW250 19/08 A3015 RMK AO2 SLP203 T01940083,KNIP,2020-12-11T18:53:00Z,30.23,-81.67,19.4,8.3,220,5,,10.0,30.15059,1020.3,,,TRUE,,,,,,,FEW,25000,,,,,,,VFR,,,,,,,,,,,,METAR,3.0
KNEW 111853Z 17009KT 10SM FEW045 24/12 A3004 RMK AO2 SLP165 T02390117,KNEW,2020-12-11T18:53:00Z,30.05,-90.03,23.9,11.7,170,9,,10.0,30.041338,1016.5,,,TRUE,,,,,,,FEW,4500,,,,,,,VFR,,,,,,,,,,,,METAR,1.0
KMYV 111853Z AUTO 10003KT 10SM FEW120 09/02 A3018 RMK AO2 SLP224 T00940022,KMYV,2020-12-11T18:53:00Z,39.1,-121.57,9.4,2.2,100,3,,10.0,30.180119,1022.4,,TRUE,TRUE,,,,,,,FEW,12000,,,,,,,VFR,,,,,,,,,,,,METAR,18.0
KMYF 111853Z 24005KT 10SM CLR 16/07 A3013 RMK AO2 SLP200 T01610067,KMYF,2020-12-11T18:53:00Z,32.82,-117.13,16.1,6.7,240,5,,10.0,30.129921,1020.0,,,TRUE,,,,,,,CLR,,,,,,,,VFR,,,,,,,,,,,,METAR,128.0
KMVY 111853Z 22010G19KT 10SM CLR 12/06 A3015 RMK AO2 SLP210 T01220061,KMVY,2020-12-11T18:53:00Z,41.4,-70.62,12.2,6.1,220,10,19,10.0,30.15059,1021.0,,,TRUE,,,,,,,CLR,,,,,,,,VFR,,,,,,,,,,,,METAR,18.0
KMTO 111853Z AUTO 18010KT 10SM CLR 16/07 A2984 RMK AO2 SLP106 T01560072,KMTO,2020-12-11T18:53:00Z,39.47,-88.27,15.6,7.2,180,10,,10.0,29.840551,1010.6,,TRUE,TRUE,,,,,,,CLR,,,,,,,,VFR,,,,,,,,,,,,METAR,216.0
KMTJ 111853Z AUTO 11006KT 10SM SCT039 BKN065 OVC100 00/M02 A2992 RMK AO2 SNB15E28 SLP134 P0000 T00001022,KMTJ,2020-12-11T18:53:00Z,38.5,-107.9,0.0,-2.2,110,6,,10.0,29.920275,1013.4,,TRUE,TRUE,,,,,,,SCT,3900,BKN,6500,OVC,10000,,,VFR,,,,,,0.005,,,,,,METAR,1755.0
KMTH 111853Z AUTO 03009KT 10SM FEW050 OVC070 22/16 A3005 RMK AO2 SLP175 T02220156,KMTH,2020-12-11T18:53:00Z,24.73,-81.05,22.2,15.6,30,9,,10.0,30.050198,1017.5,,TRUE,TRUE,,,,,,,FEW,5000,OVC,7000,,,,,VFR,,,,,,,,,,,,METAR,1.0
KMSY 111853Z 16009KT 10SM SCT055 BKN250 24/11 A3002 RMK AO2 SLP169 T02390111,KMSY,2020-12-11T18:53:00Z,30.0,-90.25,23.9,11.1,160,9,,10.0,30.02067,1016.9,,,TRUE,,,,,,,SCT,5500,BKN,25000,,,,,VFR,,,,,,,,,,,,METAR,0.0
KMSO 111853Z 00000KT 6SM -SN BR OVC045 M04/M06 A3000 RMK AO2 SNB53 SLP199 P0000 T10441061,KMSO,2020-12-11T18:53:00Z,46.92,-114.1,-4.4,-6.1,0,0,,6.0,30.0,1019.9,,,TRUE,,,,,,-SN BR,OVC,4500,,,,,,,VFR,,,,,,0.005,,,,,,METAR,974.0
KMSL 111853Z AUTO 23010KT 10SM BKN046 19/10 A3004 RMK AO2 SLP170 T01890100,KMSL,2020-12-11T18:53:00Z,34.75,-87.6,18.9,10.0,230,10,,10.0,30.041338,1017.0,,TRUE,TRUE,,,,,,,BKN,4600,,,,,,,VFR,,,,,,,,,,,,METAR,170.0
KMRB 111853Z 10005KT 10SM CLR 16/04 A3006 RMK AO2 SLP180 T01610044,KMRB,2020-12-11T18:53:00Z,39.4,-77.98,16.1,4.4,100,5,,10.0,30.059055,1018.0,,,TRUE,,,,,,,CLR,,,,,,,,VFR,,,,,,,,,,,,METAR,165.0
KMPO 111853Z AUTO 21009KT 10SM CLR 07/01 A3005 RMK AO2 SLP190 T00670011,KMPO,2020-12-11T18:53:00Z,41.13,-75.38,6.7,1.1,210,9,,10.0,30.050198,1019.0,,TRUE,TRUE,,,,,,,CLR,,,,,,,,VFR,,,,,,,,,,,,METAR,576.0
KMOD 111853Z 34005KT 10SM CLR 12/04 A3018 RMK AO2 SLP219 T01170039,KMOD,2020-12-11T18:53:00Z,37.62,-120.95,11.7,3.9,340,5,,10.0,30.180119,1021.9,,,TRUE,,,,,,,CLR,,,,,,,,VFR,,,,,,,,,,,,METAR,25.0
KMNN 111853Z AUTO 22011KT 10SM CLR 16/04 A2996 RMK AO2 SLP147 T01560044,KMNN,2020-12-11T18:53:00Z,40.62,-83.07,15.6,4.4,220,11,,10.0,29.958662,1014.7,,TRUE,TRUE,,,,,,,CLR,,,,,,,,VFR,,,,,,,,,,,,METAR,301.0
KMMK 111853Z AUTO 18009KT 10SM CLR 11/03 A3011 RMK AO2 SLP196 T01060028 $,KMMK,2020-12-11T18:53:00Z,41.52,-72.83,10.6,2.8,180,9,,10.0,30.109253,1019.6,,TRUE,TRUE,TRUE,,,,,,CLR,,,,,,,,VFR,,,,,,,,,,,,METAR,30.0
KMLU 111853Z 18011G17KT 10SM SCT070 22/12 A2994 RMK AO2 SLP138 T02220122,KMLU,2020-12-11T18:53:00Z,32.52,-92.03,22.2,12.2,180,11,17,10.0,29.940945,1013.8,,,TRUE,,,,,,,SCT,7000,,,,,,,VFR,,,,,,,,,,,,METAR,22.0
KMLS 111853Z AUTO 05006KT 1/4SM FZFG VV002 M06/M07 A3006 RMK AO2 SLP219 T10611072,KMLS,2020-12-11T18:53:00Z,46.43,-105.88,-6.1,-7.2,50,6,,0.25,30.059055,1021.9,,TRUE,TRUE,,,,,,FZFG,OVX,0,,,,,,,LIFR,,,,,,,,,,,200,METAR,800.0
KMLB 111853Z 03007KT 10SM FEW039 FEW048 23/13 A3013 RMK AO2 SLP203 T02280133 $,KMLB,2020-12-11T18:53:00Z,28.1,-80.65,22.8,13.3,30,7,,10.0,30.129921,1020.3,,,TRUE,TRUE,,,,,,FEW,3900,FEW,4800,,,,,VFR,,,,,,,,,,,,METAR,7.0
KMKO 111853Z AUTO 27008KT 8SM OVC009 11/09 A2982 RMK AO2 RAE18 SLP095 P0000 T01060094,KMKO,2020-12-11T18:53:00Z,35.65,-95.37,10.6,9.4,270,8,,8.0,29.819881,1009.5,,TRUE,TRUE,,,,,,,OVC,900,,,,,,,IFR,,,,,,0.005,,,,,,METAR,184.0
KMKL 111853Z 20011G17KT 10SM CLR 19/09 A2997 RMK AO2 SLP148 T01890094,KMKL,2020-12-11T18:53:00Z,35.6,-88.92,18.9,9.4,200,11,17,10.0,29.970472,1014.8,,,TRUE,,,,,,,CLR,,,,,,,,VFR,,,,,,,,,,,,METAR,130.0
KMIW 111853Z AUTO 06017G24KT 5SM -RA BR OVC008 02/01 A2988 RMK AO2 UPB02E08 SLP126 P0002 T00220011 $,KMIW,2020-12-11T18:53:00Z,42.12,-92.92,2.2,1.1,60,17,24,5.0,29.878937,1012.6,,TRUE,TRUE,TRUE,,,,,-RA BR,OVC,800,,,,,,,IFR,,,,,,0.02,,,,,,METAR,296.0
KMIE 111853Z 22010KT 10SM CLR 17/04 A2990 RMK AO2 SLP120 T01670044,KMIE,2020-12-11T18:53:00Z,40.23,-85.4,16.7,4.4,220,10,,10.0,29.899607,1012.0,,,TRUE,,,,,,,CLR,,,,,,,,VFR,,,,,,,,,,,,METAR,286.0
KMIA 111853Z 08010KT 10SM FEW035 BKN040 OVC055 24/14 A3007 RMK AO2 SLP184 T02390144 $,KMIA,2020-12-11T18:53:00Z,25.8,-80.32,23.9,14.4,80,10,,10.0,30.070866,1018.4,,,TRUE,TRUE,,,,,,FEW,3500,BKN,4000,OVC,5500,,,VFR,,,,,,,,,,,,METAR,1.0
KMHT 111853Z 19004KT 10SM FEW200 BKN250 08/M01 A3005 RMK AO2 SLP194 T00781006,KMHT,2020-12-11T18:53:00Z,42.93,-71.43,7.8,-0.6,190,4,,10.0,30.050198,1019.4,,,TRUE,,,,,,,FEW,20000,BKN,25000,,,,,VFR,,,,,,,,,,,,METAR,68.0
KMHE 111853Z AUTO 03013KT 10SM CLR 03/M03 A3006 RMK AO2 SLP194 T00281033 TSNO,KMHE,2020-12-11T18:53:00Z,43.77,-98.03,2.8,-3.3,30,13,,10.0,30.059055,1019.4,,TRUE,TRUE,,,TRUE,,,,CLR,,,,,,,,VFR,,,,,,,,,,,,METAR,397.0
KMGY 111853Z AUTO 18010KT 10SM CLR 16/04 A2995 RMK AO2 SLP141 T01560044 $,KMGY,2020-12-11T18:53:00Z,39.6,-84.23,15.6,4.4,180,10,,10.0,29.949802,1014.1,,TRUE,TRUE,TRUE,,,,,,CLR,,,,,,,,VFR,,,,,,,,,,,,METAR,290.0
KMGW 111853Z 23005KT 10SM CLR 17/02 A3005 RMK AO2 SLP178 T01720017,KMGW,2020-12-11T18:53:00Z,39.65,-79.92,17.2,1.7,230,5,,10.0,30.050198,1017.8,,,TRUE,,,,,,,CLR,,,,,,,,VFR,,,,,,,,,,,,METAR,375.0
KMGM 111853Z 00000KT 10SM CLR 19/10 A3011 RMK AO2 SLP195 T01940100,KMGM,2020-12-11T18:53:00Z,32.3,-86.4,19.4,10.0,0,0,,10.0,30.109253,1019.5,,,TRUE,,,,,,,CLR,,,,,,,,VFR,,,,,,,,,,,,METAR,64.0
KMFE 111853Z 28007KT 10SM CLR 29/16 A2983 RMK AO2 SLP101 T02890156,KMFE,2020-12-11T18:53:00Z,26.18,-98.25,28.9,15.6,280,7,,10.0,29.828741,1010.1,,,TRUE,,,,,,,CLR,,,,,,,,VFR,,,,,,,,,,,,METAR,29.0
KMDW 111853Z 02012KT 10SM OVC012 07/02 A2993 RMK AO2 PK WND 01027/1801 SLP141 T00670022,KMDW,2020-12-11T18:53:00Z,41.78,-87.75,6.7,2.2,20,12,,10.0,29.929134,1014.1,,,TRUE,,,,,,,OVC,1200,,,,,,,MVFR,,,,,,,,,,,,METAR,186.0
KMCW 111853Z AUTO 05018G25KT 10SM BKN120 04/M02 A2996 RMK AO2 PK WND 05028/1815 SLP150 T00391022,KMCW,2020-12-11T18:53:00Z,43.15,-93.33,3.9,-2.2,50,18,25,10.0,29.958662,1015.0,,TRUE,TRUE,,,,,,,BKN,12000,,,,,,,VFR,,,,,,,,,,,,METAR,363.0
KMCO 111853Z 14004KT 10SM FEW050 FEW060 21/09 A3013 RMK AO2 SLP202 FU PLUME NE T02110094,KMCO,2020-12-11T18:53:00Z,28.42,-81.33,21.1,9.4,140,4,,10.0,30.129921,1020.2,,,TRUE,,,,,,,FEW,5000,FEW,6000,,,,,VFR,,,,,,,,,,,,SPECI,27.0
KMCN 111853Z VRB04KT 10SM CLR 21/05 A3012 RMK AO2 SLP198 T02110050,KMCN,2020-12-11T18:53:00Z,32.68,-83.65,21.1,5.0,0,4,,10.0,30.121063,1019.8,,,TRUE,,,,,,,CLR,,,,,,,,VFR,,,,,,,,,,,,METAR,104.0
KMCK 111853Z AUTO 35018KT 8SM OVC050 00/M03 A2989 RMK AO2 SLP140 T00001028,KMCK,2020-12-11T18:53:00Z,40.2,-100.58,0.0,-2.8,350,18,,8.0,29.890747,1014.0,,TRUE,TRUE,,,,,,,OVC,5000,,,,,,,VFR,,,,,,,,,,,,METAR,780.0
KMCE 111853Z AUTO 34009KT 10SM CLR 12/03 A3018 RMK AO2 SLP220 T01220028,KMCE,2020-12-11T18:53:00Z,37.28,-120.5,12.2,2.8,340,9,,10.0,30.180119,1022.0,,TRUE,TRUE,,,,,,,CLR,,,,,,,,VFR,,,,,,,,,,,,METAR,49.0
KMCB 111853Z AUTO VRB05KT 10SM OVC050 20/13 A3002 RMK AO2 SLP163 T02000128,KMCB,2020-12-11T18:53:00Z,31.18,-90.47,20.0,12.8,0,5,,10.0,30.02067,1016.3,,TRUE,TRUE,,,,,,,OVC,5000,,,,,,,VFR,,,,,,,,,,,,METAR,124.0
KMBS 111853Z 02012KT 10SM OVC017 06/02 A3001 RMK AO2 SLP168 T00610017,KMBS,2020-12-11T18:53:00Z,43.53,-84.08,6.1,1.7,20,12,,10.0,30.008858,1016.8,,,TRUE,,,,,,,OVC,1700,,,,,,,MVFR,,,,,,,,,,,,METAR,201.0
KMAI 111853Z AUTO 10004KT 10SM SCT048 21/08 A3010 RMK AO2 SLP192 T02060083,KMAI,2020-12-11T18:53:00Z,30.83,-85.18,20.6,8.3,100,4,,10.0,30.100393,1019.2,,TRUE,TRUE,,,,,,,SCT,4800,,,,,,,VFR,,,,,,,,,,,,METAR,33.0
KMAF 111853Z 28014KT 10SM CLR 17/04 A2989 RMK AO2 SLP095 T01720044,KMAF,2020-12-11T18:53:00Z,31.95,-102.2,17.2,4.4,280,14,,10.0,29.890747,1009.5,,,TRUE,,,,,,,CLR,,,,,,,,VFR,,,,,,,,,,,,METAR,874.0
KMAE 111853Z AUTO 31008KT 10SM CLR 12/03 A3020 RMK AO2 SLP227 T01170033,KMAE,2020-12-11T18:53:00Z,36.98,-120.12,11.7,3.3,310,8,,10.0,30.200787,1022.7,,TRUE,TRUE,,,,,,,CLR,,,,,,,,VFR,,,,,,,,,,,,METAR,77.0
KLXV 111853Z AUTO 32008KT 10SM FEW025 BKN080 BKN095 M06/M11 A2975 RMK AO2 SNE1755B16E26 SLP049 P0000 T10561111,KLXV,2020-12-11T18:53:00Z,39.23,-106.32,-5.6,-11.1,320,8,,10.0,29.749016,1004.9,,TRUE,TRUE,,,,,,,FEW,2500,BKN,8000,BKN,9500,,,VFR,,,,,,0.005,,,,,,METAR,3027.0
KLWV 111853Z AUTO 20020G25KT 10SM CLR 18/M01 A2989 RMK AO2 SLP121 T01831006,KLWV,2020-12-11T18:53:00Z,38.77,-87.6,18.3,-0.6,200,20,25,10.0,29.890747,1012.1,,TRUE,TRUE,,,,,,,CLR,,,,,,,,VFR,,,,,,,,,,,,METAR,128.0
KLWD 111853Z AUTO 05011G22KT 3SM -RA BR OVC005 03/02 A2978 RMK AO2 SLP093 P0003 T00330017,KLWD,2020-12-11T18:53:00Z,40.63,-93.9,3.3,1.7,50,11,22,3.0,29.778543,1009.3,,TRUE,TRUE,,,,,,-RA BR,OVC,500,,,,,,,IFR,,,,,,0.03,,,,,,METAR,345.0
KLVS 111853Z AUTO 29027G41KT 10SM FEW060 04/M07 A2981 RMK AO2 PK WND 28043/1839 SLP072 T00391067,KLVS,2020-12-11T18:53:00Z,35.65,-105.13,3.9,-6.7,290,27,41,10.0,29.811024,1007.2,,TRUE,TRUE,,,,,,,FEW,6000,,,,,,,VFR,,,,,,,,,,,,METAR,2095.0
KLVK 111853Z 00000KT 10SM CLR 11/04 A3019 RMK AO2 SLP222 T01110039,KLVK,2020-12-11T18:53:00Z,37.7,-121.82,11.1,3.9,0,0,,10.0,30.188976,1022.2,,,TRUE,,,,,,,CLR,,,,,,,,VFR,,,,,,,,,,,,METAR,120.0
KLVJ 111853Z AUTO 16010KT 10SM BKN032 OVC043 23/17 A2991 RMK AO2 SLP127 T02330172,KLVJ,2020-12-11T18:53:00Z,29.52,-95.25,23.3,17.2,160,10,,10.0,29.911417,1012.7,,TRUE,TRUE,,,,,,,BKN,3200,OVC,4300,,,,,VFR,,,,,,,,,,,,METAR,11.0
KLUK 111853Z 20012KT 10SM CLR 18/03 A2997 RMK AO2 SLP148 T01780033,KLUK,2020-12-11T18:53:00Z,39.1,-84.42,17.8,3.3,200,12,,10.0,29.970472,1014.8,,,TRUE,,,,,,,CLR,,,,,,,,VFR,,,,,,,,,,,,METAR,144.0
KLSE 111853Z 05007KT 10SM FEW120 04/M03 A3003 RMK AO2 SLP178 T00441028,KLSE,2020-12-11T18:53:00Z,43.88,-91.25,4.4,-2.8,50,7,,10.0,30.029528,1017.8,,,TRUE,,,,,,,FEW,12000,,,,,,,VFR,,,,,,,,,,,,METAR,198.0
KLPR 111853Z AUTO 22008KT 10SM CLR 14/04 A2995 RMK AO2 SLP144 T01390039,KLPR,2020-12-11T18:53:00Z,41.35,-82.18,13.9,3.9,220,8,,10.0,29.949802,1014.4,,TRUE,TRUE,,,,,,,CLR,,,,,,,,VFR,,,,,,,,,,,,METAR,241.0
KLOZ 111853Z AUTO 19011KT 10SM CLR 18/03 A3004 RMK AO2 SLP171 T01780033,KLOZ,2020-12-11T18:53:00Z,37.08,-84.07,17.8,3.3,190,11,,10.0,30.041338,1017.1,,TRUE,TRUE,,,,,,,CLR,,,,,,,,VFR,,,,,,,,,,,,METAR,361.0
KLOU 111853Z 22015KT 10SM CLR 19/04 A2996 RMK AO2 SLP143 T01940039 $,KLOU,2020-12-11T18:53:00Z,38.22,-85.67,19.4,3.9,220,15,,10.0,29.958662,1014.3,,,TRUE,TRUE,,,,,,CLR,,,,,,,,VFR,,,,,,,,,,,,METAR,165.0
KLOL 111853Z AUTO 21003KT 10SM CLR 03/M08 A3012 RMK AO2 SLP225 T00331083,KLOL,2020-12-11T18:53:00Z,40.07,-118.57,3.3,-8.3,210,3,,10.0,30.121063,1022.5,,TRUE,TRUE,,,,,,,CLR,,,,,,,,VFR,,,,,,,,,,,,METAR,1191.0
KLNS 111853Z 18005KT 10SM CLR 13/04 A3009 RMK AO2 SLP190 T01330044,KLNS,2020-12-11T18:53:00Z,40.12,-76.3,13.3,4.4,180,5,,10.0,30.088583,1019.0,,,TRUE,,,,,,,CLR,,,,,,,,VFR,,,,,,,,,,,,METAR,122.0
KLND 111853Z AUTO 32005KT 9SM OVC010 M04/M06 A2988 RMK AO2 SNE48 SLP150 P0000 T10391061,KLND,2020-12-11T18:53:00Z,42.82,-108.73,-3.9,-6.1,320,5,,9.0,29.878937,1015.0,,TRUE,TRUE,,,,,,,OVC,1000,,,,,,,MVFR,,,,,,0.005,,,,,,METAR,1700.0
KLMT 111853Z 15006KT 10SM SCT110 M01/M06 A3009 RMK AO2 SLP214 T10111056 $,KLMT,2020-12-11T18:53:00Z,42.15,-121.72,-1.1,-5.6,150,6,,10.0,30.088583,1021.4,,,TRUE,TRUE,,,,,,SCT,11000,,,,,,,VFR,,,,,,,,,,,,METAR,1246.0
KLLQ 111853Z AUTO 18013G22KT 10SM FEW060 21/12 A2991 RMK AO2 SLP128 T02060117 $,KLLQ,2020-12-11T18:53:00Z,33.63,-91.75,20.6,11.7,180,13,22,10.0,29.911417,1012.8,,TRUE,TRUE,TRUE,,,,,,FEW,6000,,,,,,,VFR,,,,,,,,,,,,METAR,86.0
KLKV 111853Z AUTO 18008KT 10SM CLR 00/M06 A3006 RMK AO2 SLP212 T00001056 FZRANO $,KLKV,2020-12-11T18:53:00Z,42.17,-120.4,0.0,-5.6,180,8,,10.0,30.059055,1021.2,,TRUE,TRUE,TRUE,,,TRUE,,,CLR,,,,,,,,VFR,,,,,,,,,,,,METAR,1440.0
KLIT 111853Z 18008KT 10SM SCT041 BKN055 BKN090 18/12 A2986 RMK AO2 SLP113 T01830122,KLIT,2020-12-11T18:53:00Z,34.73,-92.23,18.3,12.2,180,8,,10.0,29.861221,1011.3,,,TRUE,,,,,,,SCT,4100,BKN,5500,BKN,9000,,,VFR,,,,,,,,,,,,METAR,77.0
KLHQ 111853Z AUTO 21011KT 10SM CLR 17/03 A3000 RMK AO2 SLP159 T01720028,KLHQ,2020-12-11T18:53:00Z,39.75,-82.67,17.2,2.8,210,11,,10.0,30.0,1015.9,,TRUE,TRUE,,,,,,,CLR,,,,,,,,VFR,,,,,,,,,,,,METAR,259.0
KLGB 111853Z 00000KT 8SM OVC030 14/07 A3014 RMK AO2 SLP205 T01440072,KLGB,2020-12-11T18:53:00Z,33.82,-118.15,14.4,7.2,0,0,,8.0,30.138779,1020.5,,,TRUE,,,,,,,OVC,3000,,,,,,,MVFR,,,,,,,,,,,,METAR,10.0
KLFT 111853Z 15009G19KT 120V190 10SM SCT065 23/12 A2999 RMK AO2 SLP155 T02280117,KLFT,2020-12-11T18:53:00Z,30.2,-91.97,22.8,11.7,150,9,19,10.0,29.991142,1015.5,,,TRUE,,,,,,,SCT,6500,,,,,,,VFR,,,,,,,,,,,,METAR,9.0
KLFK 111853Z AUTO 15010KT 10SM FEW045 FEW085 21/16 A2987 RMK AO2 SLP114 T02110156,KLFK,2020-12-11T18:53:00Z,31.23,-94.75,21.1,15.6,150,10,,10.0,29.870079,1011.4,,TRUE,TRUE,,,,,,,FEW,4500,FEW,8500,,,,,VFR,,,,,,,,,,,,METAR,87.0
KLEE 111853Z VRB04KT 10SM CLR 21/11 A3014 RMK AO2 SLP203 T02110106,KLEE,2020-12-11T18:53:00Z,28.82,-81.82,21.1,10.6,0,4,,10.0,30.138779,1020.3,,,TRUE,,,,,,,CLR,,,,,,,,VFR,,,,,,,,,,,,METAR,21.0
KLEB 111853Z 20007KT 10SM SCT095 07/M01 A3002 RMK AO2 SLP172 T00671011,KLEB,2020-12-11T18:53:00Z,43.63,-72.3,6.7,-1.1,200,7,,10.0,30.02067,1017.2,,,TRUE,,,,,,,SCT,9500,,,,,,,VFR,,,,,,,,,,,,METAR,169.0
KLCH 111853Z AUTO 16010KT 10SM OVC043 22/14 A2996 RMK AO2 SLP151 T02220139,KLCH,2020-12-11T18:53:00Z,30.13,-93.22,22.2,13.9,160,10,,10.0,29.958662,1015.1,,TRUE,TRUE,,,,,,,OVC,4300,,,,,,,VFR,,,,,,,,,,,,METAR,2.0
KLBX 111853Z AUTO 16015KT 10SM SCT032 BKN039 OVC065 24/17 A2989 RMK AO2 RAB01E10 PRESFR SLP121 P0000 T02390172,KLBX,2020-12-11T18:53:00Z,29.12,-95.47,23.9,17.2,160,15,,10.0,29.890747,1012.1,,TRUE,TRUE,,,,,,,SCT,3200,BKN,3900,OVC,6500,,,VFR,,,,,,0.005,,,,,,METAR,4.0
KLBF 111853Z AUTO 02014KT 10SM FEW020 BKN075 03/M04 A2992 RMK AO2 SLP150 T00281044,KLBF,2020-12-11T18:53:00Z,41.12,-100.67,2.8,-4.4,20,14,,10.0,29.920275,1015.0,,TRUE,TRUE,,,,,,,FEW,2000,BKN,7500,,,,,VFR,,,,,,,,,,,,METAR,843.0
KLBB 111853Z 00000KT 10SM FEW050 09/02 A2988 RMK AO2 SLP102 T00940017,KLBB,2020-12-11T18:53:00Z,33.67,-101.82,9.4,1.7,0,0,,10.0,29.878937,1010.2,,,TRUE,,,,,,,FEW,5000,,,,,,,VFR,,,,,,,,,,,,METAR,996.0
KLAX 111853Z 00000KT 6SM HZ FEW019 BKN029 14/07 A3014 RMK AO2 SLP205 T01440072 $,KLAX,2020-12-11T18:53:00Z,33.93,-118.38,14.4,7.2,0,0,,6.0,30.138779,1020.5,,,TRUE,TRUE,,,,,HZ,FEW,1900,BKN,2900,,,,,MVFR,,,,,,,,,,,,METAR,30.0
KLAW 111853Z 01009KT 10SM BKN100 11/02 A2986 RMK AO2 SLP110 T01110022,KLAW,2020-12-11T18:53:00Z,34.55,-98.42,11.1,2.2,10,9,,10.0,29.861221,1011.0,,,TRUE,,,,,,,BKN,10000,,,,,,,VFR,,,,,,,,,,,,METAR,328.0
KLAN 111853Z 02010KT 4SM BR OVC009 04/02 A2998 RMK AO2 SLP160 T00390017,KLAN,2020-12-11T18:53:00Z,42.78,-84.58,3.9,1.7,20,10,,4.0,29.97933,1016.0,,,TRUE,,,,,,BR,OVC,900,,,,,,,IFR,,,,,,,,,,,,METAR,261.0
KJLN 111853Z 21016G23KT 9SM -RA OVC009 14/12 A2974 RMK AO2 RAB05 SLP068 P0001 T01390122,KJLN,2020-12-11T18:53:00Z,37.15,-94.5,13.9,12.2,210,16,23,9.0,29.740158,1006.8,,,TRUE,,,,,,-RA,OVC,900,,,,,,,IFR,,,,,,0.01,,,,,,METAR,297.0
KJKL 111853Z AUTO VRB06KT 10SM CLR 19/01 A3004 RMK AO2 SLP166 T01890011,KJKL,2020-12-11T18:53:00Z,37.6,-83.32,18.9,1.1,0,6,,10.0,30.041338,1016.6,,TRUE,TRUE,,,,,,,CLR,,,,,,,,VFR,,,,,,,,,,,,METAR,414.0
KJER 111853Z AUTO 26012KT 10SM OVC018 M01/M04 A3003 RMK AO2 SLP196 T10111039,KJER,2020-12-11T18:53:00Z,42.72,-114.45,-1.1,-3.9,260,12,,10.0,30.029528,1019.6,,TRUE,TRUE,,,,,,,OVC,1800,,,,,,,MVFR,,,,,,,,,,,,METAR,1226.0
KJBR 111853Z AUTO 18012KT 10SM SCT047 BKN055 17/11 A2990 RMK AO2 SLP125 T01720106 TSNO $,KJBR,2020-12-11T18:53:00Z,35.83,-90.65,17.2,10.6,180,12,,10.0,29.899607,1012.5,,TRUE,TRUE,TRUE,,TRUE,,,,SCT,4700,BKN,5500,,,,,VFR,,,,,,,,,,,,METAR,79.0
KIWI 111853Z AUTO 22007KT 10SM FEW021 06/02 A3008 RMK AO2 SLP187 T00610017,KIWI,2020-12-11T18:53:00Z,43.97,-69.72,6.1,1.7,220,7,,10.0,30.079725,1018.7,,TRUE,TRUE,,,,,,,FEW,2100,,,,,,,VFR,,,,,,,,,,,,METAR,16.0
KIPL 111853Z AUTO 00000KT 10SM CLR 16/07 A3006 RMK AO2 SLP178 T01610067,KIPL,2020-12-11T18:53:00Z,32.83,-115.58,16.1,6.7,0,0,,10.0,30.059055,1017.8,,TRUE,TRUE,,,,,,,CLR,,,,,,,,VFR,,,,,,,,,,,,METAR,-16.0
KINK 111853Z AUTO 25017KT 10SM CLR 18/02 A2989 RMK AO2 SLP096 T01830017,KINK,2020-12-11T18:53:00Z,31.78,-103.2,18.3,1.7,250,17,,10.0,29.890747,1009.6,,TRUE,TRUE,,,,,,,CLR,,,,,,,,VFR,,,,,,,,,,,,METAR,857.0
KILM 111853Z 23004KT 10SM OVC045 21/12 A3015 RMK AO2 SLP209 T02110122,KILM,2020-12-11T18:53:00Z,34.27,-77.9,21.1,12.2,230,4,,10.0,30.15059,1020.9,,,TRUE,,,,,,,OVC,4500,,,,,,,VFR,,,,,,,,,,,,METAR,9.0
KIDA 111853Z 20012KT 10SM FEW010 BKN022 BKN027 M04/M07 A2997 RMK AO2 SNB17E29 SLP199 P0000 T10441072,KIDA,2020-12-11T18:53:00Z,43.52,-112.07,-4.4,-7.2,200,12,,10.0,29.970472,1019.9,,,TRUE,,,,,,,FEW,1000,BKN,2200,BKN,2700,,,MVFR,,,,,,0.005,,,,,,METAR,1444.0
KICT 111853Z 35012KT 10SM OVC018 04/00 A2981 RMK AO2 SLP098 T00440000,KICT,2020-12-11T18:53:00Z,37.65,-97.43,4.4,0.0,350,12,,10.0,29.811024,1009.8,,,TRUE,,,,,,,OVC,1800,,,,,,,MVFR,,,,,,,,,,,,METAR,428.0
KIAH 111853Z 15011KT 10SM FEW030 SCT045 BKN075 OVC130 23/18 A2989 RMK AO2 RAE24 SLP120 TCU DSNT SW AND NW P0000 T02280178,KIAH,2020-12-11T18:53:00Z,30.0,-95.37,22.8,17.8,150,11,,10.0,29.890747,1012.0,,,TRUE,,,,,,,FEW,3000,SCT,4500,BKN,7500,OVC,13000,VFR,,,,,,0.005,,,,,,METAR,27.0
KIAG 111853Z 23008KT 10SM OVC120 11/04 A2995 RMK AO2 SLP153 T01110044,KIAG,2020-12-11T18:53:00Z,43.12,-78.93,11.1,4.4,230,8,,10.0,29.949802,1015.3,,,TRUE,,,,,,,OVC,12000,,,,,,,VFR,,,,,,,,,,,,METAR,179.0
KHZY 111853Z AUTO 21006KT 10SM CLR 12/04 A2997 RMK AO2 SLP151 T01220044,KHZY,2020-12-11T18:53:00Z,41.78,-80.7,12.2,4.4,210,6,,10.0,29.970472,1015.1,,TRUE,TRUE,,,,,,,CLR,,,,,,,,VFR,,,,,,,,,,,,METAR,279.0
KHYR 111853Z AUTO 03009KT 10SM OVC024 02/M04 A3011 RMK AO2 SLP210 T00221044,KHYR,2020-12-11T18:53:00Z,46.02,-91.45,2.2,-4.4,30,9,,10.0,30.109253,1021.0,,TRUE,TRUE,,,,,,,OVC,2400,,,,,,,MVFR,,,,,,,,,,,,METAR,369.0
KHWO 111853Z 06011KT 10SM BKN036 BKN044 OVC070 24/16 A3009 RMK AO2 SLP188 T02440161 $,KHWO,2020-12-11T18:53:00Z,26.0,-80.23,24.4,16.1,60,11,,10.0,30.088583,1018.8,,,TRUE,TRUE,,,,,,BKN,3600,BKN,4400,OVC,7000,,,VFR,,,,,,,,,,,,METAR,2.0
KHVR 111853Z AUTO 04009KT 10SM OVC014 M02/M03 A3007 RMK AO2 SLP212 T10171033,KHVR,2020-12-11T18:53:00Z,48.55,-109.77,-1.7,-3.3,40,9,,10.0,30.070866,1021.2,,TRUE,TRUE,,,,,,,OVC,1400,,,,,,,MVFR,,,,,,,,,,,,METAR,789.0
KHVN 111853Z 19006KT 6SM HZ CLR 12/06 A3012 RMK AO2 SLP198 T01170061,KHVN,2020-12-11T18:53:00Z,41.27,-72.88,11.7,6.1,190,6,,6.0,30.121063,1019.8,,,TRUE,,,,,,HZ,CLR,,,,,,,,VFR,,,,,,,,,,,,METAR,4.0
KHUL 111853Z AUTO 17005KT 10SM SCT120 M01/M03 A3004 RMK AO2 SLP181 T10061028,KHUL,2020-12-11T18:53:00Z,46.12,-67.8,-0.6,-2.8,170,5,,10.0,30.041338,1018.1,,TRUE,TRUE,,,,,,,SCT,12000,,,,,,,VFR,,,,,,,,,,,,METAR,148.0
KHUF 111853Z AUTO 19012KT 10SM CLR 17/07 A2987 RMK AO2 SLP114 T01720072,KHUF,2020-12-11T18:53:00Z,39.45,-87.32,17.2,7.2,190,12,,10.0,29.870079,1011.4,,TRUE,TRUE,,,,,,,CLR,,,,,,,,VFR,,,,,,,,,,,,METAR,174.0
KHTL 111853Z AUTO 35009KT 10SM OVC018 04/M01 A3002 RMK AO2 SLP178 T00391006,KHTL,2020-12-11T18:53:00Z,44.35,-84.67,3.9,-0.6,350,9,,10.0,30.02067,1017.8,,TRUE,TRUE,,,,,,,OVC,1800,,,,,,,MVFR,,,,,,,,,,,,METAR,350.0
KHSV 111853Z 19005KT 10SM SCT045 OVC250 18/09 A3006 RMK AO2 SLP178 T01830094,KHSV,2020-12-11T18:53:00Z,34.65,-86.78,18.3,9.4,190,5,,10.0,30.059055,1017.8,,,TRUE,,,,,,,SCT,4500,OVC,25000,,,,,VFR,,,,,,,,,,,,METAR,190.0
KHSI 111853Z AUTO 01012KT 2SM -SN BR OVC007 00/M01 A2986 RMK AO2 CIG 005V011 SLP128 P0000 T00001011,KHSI,2020-12-11T18:53:00Z,40.6,-98.43,0.0,-1.1,10,12,,2.0,29.861221,1012.8,,TRUE,TRUE,,,,,,-SN BR,OVC,700,,,,,,,IFR,,,,,,0.005,,,,,,METAR,592.0
KHRO 111853Z AUTO 20005KT 10SM BKN019 OVC060 14/11 A2981 RMK AO2 SLP087 T01440111,KHRO,2020-12-11T18:53:00Z,36.27,-93.15,14.4,11.1,200,5,,10.0,29.811024,1008.7,,TRUE,TRUE,,,,,,,BKN,1900,OVC,6000,,,,,MVFR,,,,,,,,,,,,METAR,417.0
KHRI 111853Z AUTO 32004KT 10SM OVC080 05/M01 A3009 RMK AO2 SLP192 T00501006,KHRI,2020-12-11T18:53:00Z,45.83,-119.27,5.0,-0.6,320,4,,10.0,30.088583,1019.2,,TRUE,TRUE,,,,,,,OVC,8000,,,,,,,VFR,,,,,,,,,,,,METAR,194.0
KHOU 111853Z 15011KT 10SM SCT040 BKN065 OVC140 24/17 A2988 RMK AO2 SLP124 T02390172,KHOU,2020-12-11T18:53:00Z,29.63,-95.28,23.9,17.2,150,11,,10.0,29.878937,1012.4,,,TRUE,,,,,,,SCT,4000,BKN,6500,OVC,14000,,,VFR,,,,,,,,,,,,METAR,13.0
KHLG 111853Z 21010KT 10SM CLR 16/02 A3001 RMK AO2 SLP168 T01610017,KHLG,2020-12-11T18:53:00Z,40.17,-80.65,16.1,1.7,210,10,,10.0,30.008858,1016.8,,,TRUE,,,,,,,CLR,,,,,,,,VFR,,,,,,,,,,,,METAR,365.0
KHKY 111853Z 20005KT 10SM CLR 16/06 A3013 RMK AO2 SLP191 T01560056 $,KHKY,2020-12-11T18:53:00Z,35.75,-81.38,15.6,5.6,200,5,,10.0,30.129921,1019.1,,,TRUE,TRUE,,,,,,CLR,,,,,,,,VFR,,,,,,,,,,,,METAR,357.0
KHKS 111853Z 19009KT 10SM OVC055 19/11 A3002 RMK AO2 SLP160 T01940106,KHKS,2020-12-11T18:53:00Z,32.33,-90.22,19.4,10.6,190,9,,10.0,30.02067,1016.0,,,TRUE,,,,,,,OVC,5500,,,,,,,VFR,,,,,,,,,,,,METAR,103.0
KHKA 111853Z AUTO 19015G21KT 10SM FEW046 BKN060 20/10 A2992 RMK AO2 SLP130 T02000100 $,KHKA,2020-12-11T18:53:00Z,35.93,-89.83,20.0,10.0,190,15,21,10.0,29.920275,1013.0,,TRUE,TRUE,TRUE,,,,,,FEW,4600,BKN,6000,,,,,VFR,,,,,,,,,,,,METAR,78.0
KHJO 111853Z AUTO 32005KT 5SM HZ CLR 11/02 A3020 RMK AO2 SLP228 T01110022,KHJO,2020-12-11T18:53:00Z,36.32,-119.62,11.1,2.2,320,5,,5.0,30.200787,1022.8,,TRUE,TRUE,,,,,,HZ,CLR,,,,,,,,MVFR,,,,,,,,,,,,METAR,73.0
KHIO 111853Z 14005KT 5SM -RA BR OVC009 05/04 A3008 RMK AO2 SLP189 P0007 T00500044,KHIO,2020-12-11T18:53:00Z,45.55,-122.95,5.0,4.4,140,5,,5.0,30.079725,1018.9,,,TRUE,,,,,,-RA BR,OVC,900,,,,,,,IFR,,,,,,0.07,,,,,,METAR,62.0
KHIB 111853Z AUTO VRB05KT 10SM OVC013 M02/M06 A3015 RMK AO2 SLP230 T10221056,KHIB,2020-12-11T18:53:00Z,47.38,-92.83,-2.2,-5.6,0,5,,10.0,30.15059,1023.0,,TRUE,TRUE,,,,,,,OVC,1300,,,,,,,MVFR,,,,,,,,,,,,METAR,409.0
KHGR 111853Z 28003KT 9SM CLR 14/04 A3007 RMK AO2 SLP195 T01390039,KHGR,2020-12-11T18:53:00Z,39.7,-77.73,13.9,3.9,280,3,,9.0,30.070866,1019.5,,,TRUE,,,,,,,CLR,,,,,,,,VFR,,,,,,,,,,,,METAR,206.0
KHFD 111853Z 19010G17KT 7SM CLR 11/02 A3010 RMK AO2 SLP194 T01110022,KHFD,2020-12-11T18:53:00Z,41.73,-72.65,11.1,2.2,190,10,17,7.0,30.100393,1019.4,,,TRUE,,,,,,,CLR,,,,,,,,VFR,,,,,,,,,,,,METAR,3.0
KHBR 111853Z AUTO 35009KT 10SM CLR 11/01 A2988 RMK AO2 SLP117 T01060011,KHBR,2020-12-11T18:53:00Z,34.98,-99.05,10.6,1.1,350,9,,10.0,29.878937,1011.7,,TRUE,TRUE,,,,,,,CLR,,,,,,,,VFR,,,,,,,,,,,,METAR,475.0
KHBG 111853Z AUTO 17005KT 10SM SCT043 OVC055 21/12 A3005 RMK AO2 SLP173 T02110122,KHBG,2020-12-11T18:53:00Z,31.27,-89.25,21.1,12.2,170,5,,10.0,30.050198,1017.3,,TRUE,TRUE,,,,,,,SCT,4300,OVC,5500,,,,,VFR,,,,,,,,,,,,METAR,45.0
KHAO 111853Z AUTO 21007KT 10SM CLR 18/04 A2997 RMK AO2 SLP147 T01780044,KHAO,2020-12-11T18:53:00Z,39.37,-84.52,17.8,4.4,210,7,,10.0,29.970472,1014.7,,TRUE,TRUE,,,,,,,CLR,,,,,,,,VFR,,,,,,,,,,,,METAR,185.0
KGZH 111853Z AUTO 00000KT 10SM BKN048 BKN055 22/12 A3010 RMK AO2 SLP189 T02170117,KGZH,2020-12-11T18:53:00Z,31.42,-87.05,21.7,11.7,0,0,,10.0,30.100393,1018.9,,TRUE,TRUE,,,,,,,BKN,4800,BKN,5500,,,,,VFR,,,,,,,,,,,,METAR,77.0
KGWO 111853Z AUTO 19014KT 10SM CLR 23/11 A2998 RMK AO2 SLP151 T02280111,KGWO,2020-12-11T18:53:00Z,33.5,-90.08,22.8,11.1,190,14,,10.0,29.97933,1015.1,,TRUE,TRUE,,,,,,,CLR,,,,,,,,VFR,,,,,,,,,,,,METAR,42.0
KGVL 111853Z AUTO 00000KT 10SM CLR 17/03 A3014 RMK AO2 SLP200 T01720033,KGVL,2020-12-11T18:53:00Z,34.27,-83.83,17.2,3.3,0,0,,10.0,30.138779,1020.0,,TRUE,TRUE,,,,,,,CLR,,,,,,,,VFR,,,,,,,,,,,,METAR,387.0
KGUP 111853Z AUTO 25019G26KT 10SM FEW060 07/M06 A2999 RMK AO2 PK WND 26027/1755 SLP132 T00671056,KGUP,2020-12-11T18:53:00Z,35.52,-108.8,6.7,-5.6,250,19,26,10.0,29.991142,1013.2,,TRUE,TRUE,,,,,,,FEW,6000,,,,,,,VFR,,,,,,,,,,,,METAR,1972.0
KGSP 111853Z 17004KT 10SM CLR 18/05 A3013 RMK AO2 SLP202 T01830050,KGSP,2020-12-11T18:53:00Z,34.9,-82.22,18.3,5.0,170,4,,10.0,30.129921,1020.2,,,TRUE,,,,,,,CLR,,,,,,,,VFR,,,,,,,,,,,,METAR,285.0
KGSH 111853Z AUTO 00000KT 9SM CLR 11/04 A2988 RMK AO2 SLP120 T01110039,KGSH,2020-12-11T18:53:00Z,41.53,-85.78,11.1,3.9,0,0,,9.0,29.878937,1012.0,,TRUE,TRUE,,,,,,,CLR,,,,,,,,VFR,,,,,,,,,,,,METAR,252.0
KGRR 111853Z 04013KT 8SM BKN015 BKN110 OVC250 05/01 A2996 RMK AO2 SLP153 T00500011,KGRR,2020-12-11T18:53:00Z,42.88,-85.52,5.0,1.1,40,13,,8.0,29.958662,1015.3,,,TRUE,,,,,,,BKN,1500,BKN,11000,OVC,25000,,,MVFR,,,,,,,,,,,,METAR,239.0
KGRI 111853Z 01017KT 2 1/2SM -SN BR OVC012 01/M02 A2988 RMK AO2 SLP136 P0001 T00061017,KGRI,2020-12-11T18:53:00Z,40.97,-98.32,0.6,-1.7,10,17,,2.5,29.878937,1013.6,,,TRUE,,,,,,-SN BR,OVC,1200,,,,,,,IFR,,,,,,0.01,,,,,,METAR,562.0
KGRB 111853Z 04012KT 10SM OVC023 03/M03 A3006 RMK AO2 SLP187 T00281028,KGRB,2020-12-11T18:53:00Z,44.48,-88.13,2.8,-2.8,40,12,,10.0,30.059055,1018.7,,,TRUE,,,,,,,OVC,2300,,,,,,,MVFR,,,,,,,,,,,,METAR,209.0
KGPT 111853Z 14010KT 10SM SCT060 21/14 A3004 RMK AO2 SLP172 T02110144,KGPT,2020-12-11T18:53:00Z,30.42,-89.08,21.1,14.4,140,10,,10.0,30.041338,1017.2,,,TRUE,,,,,,,SCT,6000,,,,,,,VFR,,,,,,,,,,,,METAR,5.0
KGOK 111853Z AUTO 32007KT 10SM SCT110 08/02 A2985 RMK AO2 SLP109 T00830017,KGOK,2020-12-11T18:53:00Z,35.85,-97.4,8.3,1.7,320,7,,10.0,29.84941,1010.9,,TRUE,TRUE,,,,,,,SCT,11000,,,,,,,VFR,,,,,,,,,,,,METAR,326.0
KGNV 111853Z 14008KT 10SM CLR 21/08 A3016 RMK AO2 SLP212 T02060083,KGNV,2020-12-11T18:53:00Z,29.7,-82.28,20.6,8.3,140,8,,10.0,30.159449,1021.2,,,TRUE,,,,,,,CLR,,,,,,,,VFR,,,,,,,,,,,,METAR,41.0
KGMU 111853Z VRB04KT 10SM CLR 18/06 A3013 RMK AO2 SLP204 T01780061,KGMU,2020-12-11T18:53:00Z,34.85,-82.35,17.8,6.1,0,4,,10.0,30.129921,1020.4,,,TRUE,,,,,,,CLR,,,,,,,,VFR,,,,,,,,,,,,METAR,309.0
KGLH 111853Z 19017G24KT 10SM CLR 21/12 A2994 RMK AO2 PK WND 19026/1805 SLP147 T02060122,KGLH,2020-12-11T18:53:00Z,33.47,-90.98,20.6,12.2,190,17,24,10.0,29.940945,1014.7,,,TRUE,,,,,,,CLR,,,,,,,,VFR,,,,,,,,,,,,METAR,40.0
KGLD 111853Z AUTO 34013KT 10SM OVC008 M02/M04 A2987 RMK AO2 SLP137 T10171039 $,KGLD,2020-12-11T18:53:00Z,39.37,-101.7,-1.7,-3.9,340,13,,10.0,29.870079,1013.7,,TRUE,TRUE,TRUE,,,,,,OVC,800,,,,,,,IFR,,,,,,,,,,,,METAR,1111.0
KGKJ 111853Z AUTO 20008KT 10SM CLR 11/03 A2996 RMK AO2 SLP151 T01110028,KGKJ,2020-12-11T18:53:00Z,41.63,-80.22,11.1,2.8,200,8,,10.0,29.958662,1015.1,,TRUE,TRUE,,,,,,,CLR,,,,,,,,VFR,,,,,,,,,,,,METAR,428.0
KGJT 111853Z VRB03KT 10SM FEW090 04/M05 A2990 RMK AO2 SLP124 T00441050,KGJT,2020-12-11T18:53:00Z,39.13,-108.53,4.4,-5.0,0,3,,10.0,29.899607,1012.4,,,TRUE,,,,,,,FEW,9000,,,,,,,VFR,,,,,,,,,,,,METAR,1475.0
KGIF 111853Z AUTO 17010KT 10SM CLR 22/08 A3014 RMK AO2 SLP204 T02220083,KGIF,2020-12-11T18:53:00Z,28.07,-81.75,22.2,8.3,170,10,,10.0,30.138779,1020.4,,TRUE,TRUE,,,,,,,CLR,,,,,,,,VFR,,,,,,,,,,,,METAR,44.0
KGGG 111853Z 20008KT 6SM -RA BKN022 OVC070 18/15 A2984 RMK AO2 RAE01B24 SLP102 P0003 T01830150,KGGG,2020-12-11T18:53:00Z,32.38,-94.72,18.3,15.0,200,8,,6.0,29.840551,1010.2,,,TRUE,,,,,,-RA,BKN,2200,OVC,7000,,,,,MVFR,,,,,,0.03,,,,,,METAR,107.0
KGFL 111853Z AUTO 19005KT CLR 07/00 A3002 RMK AO2 SLP172 T00720000 $,KGFL,2020-12-11T18:53:00Z,43.33,-73.62,7.2,0.0,190,5,,,30.02067,1017.2,,TRUE,TRUE,TRUE,,,,,,CLR,,,,,,,,,,,,,,,,,,,,METAR,99.0
KGEZ 111853Z AUTO 16014KT 10SM CLR 17/04 A2990 RMK AO2 SLP126 T01720044,KGEZ,2020-12-11T18:53:00Z,39.58,-85.8,17.2,4.4,160,14,,10.0,29.899607,1012.6,,TRUE,TRUE,,,,,,,CLR,,,,,,,,VFR,,,,,,,,,,,,METAR,245.0
KGEG 111853Z 00000KT 1/2SM R21/4000V5000FT -SN BR SCT001 BKN006 OVC016 M01/M02 A3001 RMK AO2 SFC VIS 1 SLP183 P0002 T10061017,KGEG,2020-12-11T18:53:00Z,47.62,-117.53,-0.6,-1.7,0,0,,0.5,30.008858,1018.3,,,TRUE,,,,,,-SN BR,SCT,100,BKN,600,OVC,1600,,,LIFR,,,,,,0.02,,,,,,METAR,718.0
KGCC 111853Z AUTO 19013KT 10SM OVC065 M01/M07 A2996 RMK AO2 SLP185 T10111067,KGCC,2020-12-11T18:53:00Z,44.33,-105.55,-1.1,-6.7,190,13,,10.0,29.958662,1018.5,,TRUE,TRUE,,,,,,,OVC,6500,,,,,,,VFR,,,,,,,,,,,,METAR,1328.0
KGAG 111853Z AUTO 31012KT 10SM BKN029 OVC080 06/M01 A2988 RMK AO2 SLP121 T00561011,KGAG,2020-12-11T18:53:00Z,36.3,-99.77,5.6,-1.1,310,12,,10.0,29.878937,1012.1,,TRUE,TRUE,,,,,,,BKN,2900,OVC,8000,,,,,MVFR,,,,,,,,,,,,METAR,670.0
KFXE 111853Z 07011KT 10SM BKN034 BKN045 OVC050 23/16 A3008 RMK AO2 SLP188 T02330156 $,KFXE,2020-12-11T18:53:00Z,26.2,-80.18,23.3,15.6,70,11,,10.0,30.079725,1018.8,,,TRUE,TRUE,,,,,,BKN,3400,BKN,4500,OVC,5000,,,VFR,,,,,,,,,,,,METAR,3.0
KFWN 111853Z AUTO 24004KT 9SM CLR 10/03 A3008 RMK AO2 SLP189 T01000033,KFWN,2020-12-11T18:53:00Z,41.2,-74.63,10.0,3.3,240,4,,9.0,30.079725,1018.9,,TRUE,TRUE,,,,,,,CLR,,,,,,,,VFR,,,,,,,,,,,,METAR,129.0
KFVE 111853Z AUTO 15006KT 10SM FEW055 FEW080 OVC100 M03/M05 A2999 RMK AO2 SLP167 T10281050,KFVE,2020-12-11T18:53:00Z,47.28,-68.3,-2.8,-5.0,150,6,,10.0,29.991142,1016.7,,TRUE,TRUE,,,,,,,FEW,5500,FEW,8000,OVC,10000,,,VFR,,,,,,,,,,,,METAR,299.0
KFTY 111853Z 18007KT 140V210 10SM CLR 19/04 A3010 RMK AO2 SLP191 T01890044,KFTY,2020-12-11T18:53:00Z,33.78,-84.52,18.9,4.4,180,7,,10.0,30.100393,1019.1,,,TRUE,,,,,,,CLR,,,,,,,,VFR,,,,,,,,,,,,METAR,245.0
KFST 111853Z AUTO 29013G21KT 10SM CLR 18/03 A2994 RMK AO2 SLP107 T01780033,KFST,2020-12-11T18:53:00Z,30.92,-102.92,17.8,3.3,290,13,21,10.0,29.940945,1010.7,,TRUE,TRUE,,,,,,,CLR,,,,,,,,VFR,,,,,,,,,,,,METAR,917.0
KFSM 111853Z 09004KT 6SM -RA BR SCT075 OVC090 14/13 A2980 RMK AO2 SLP091 P0005 T01390128,KFSM,2020-12-11T18:53:00Z,35.33,-94.37,13.9,12.8,90,4,,6.0,29.799213,1009.1,,,TRUE,,,,,,-RA BR,SCT,7500,OVC,9000,,,,,VFR,,,,,,0.05,,,,,,METAR,136.0
KFRG 111853Z 22015G23KT 10SM CLR 12/07 A3013 RMK AO2 SLP201 T01220067,KFRG,2020-12-11T18:53:00Z,40.73,-73.42,12.2,6.7,220,15,23,10.0,30.129921,1020.1,,,TRUE,,,,,,,CLR,,,,,,,,VFR,,,,,,,,,,,,METAR,23.0
KFPR 111853Z 06006KT 10SM OVC060 22/12 A3013 RMK AO2 SLP201 T02220122,KFPR,2020-12-11T18:53:00Z,27.5,-80.38,22.2,12.2,60,6,,10.0,30.129921,1020.1,,,TRUE,,,,,,,OVC,6000,,,,,,,VFR,,,,,,,,,,,,METAR,7.0
KFOK 111853Z VRB06G17KT 10SM CLR 12/06 A3015 RMK AO2 SLP210 T01170061,KFOK,2020-12-11T18:53:00Z,40.85,-72.62,11.7,6.1,0,6,17,10.0,30.15059,1021.0,,,TRUE,,,,,,,CLR,,,,,,,,VFR,,,,,,,,,,,,METAR,13.0
KFOE 111853Z 32007KT 7SM OVC011 06/03 A2976 RMK AO2 SLP082 T00560028,KFOE,2020-12-11T18:53:00Z,38.93,-95.65,5.6,2.8,320,7,,7.0,29.760826,1008.2,,,TRUE,,,,,,,OVC,1100,,,,,,,MVFR,,,,,,,,,,,,METAR,315.0
KFNT 111853Z 04010KT 5SM HZ OVC010 06/02 A2997 RMK AO2 SLP155 T00610022 $,KFNT,2020-12-11T18:53:00Z,42.97,-83.75,6.1,2.2,40,10,,5.0,29.970472,1015.5,,,TRUE,TRUE,,,,,HZ,OVC,1000,,,,,,,MVFR,,,,,,,,,,,,METAR,235.0
KFNB 111853Z AUTO 03009KT 9SM OVC012 04/02 A2979 RMK AO2 SLP090 T00440017,KFNB,2020-12-11T18:53:00Z,40.07,-95.58,4.4,1.7,30,9,,9.0,29.790354,1009.0,,TRUE,TRUE,,,,,,,OVC,1200,,,,,,,MVFR,,,,,,,,,,,,METAR,301.0
KFMY 111853Z 05009KT 10SM CLR 23/12 A3009 RMK AO2 SLP191 T02330122,KFMY,2020-12-11T18:53:00Z,26.58,-81.87,23.3,12.2,50,9,,10.0,30.088583,1019.1,,,TRUE,,,,,,,CLR,,,,,,,,VFR,,,,,,,,,,,,METAR,4.0
KFMN 111853Z 28015G21KT 10SM FEW010 03/M01 A2994 RMK AO2 SLP150 T00331011,KFMN,2020-12-11T18:53:00Z,36.75,-108.23,3.3,-1.1,280,15,21,10.0,29.940945,1015.0,,,TRUE,,,,,,,FEW,1000,,,,,,,VFR,,,,,,,,,,,,METAR,1677.0
KFLO 111853Z VRB03KT 10SM CLR 18/09 A3015 RMK AO2 SLP206 T01830089,KFLO,2020-12-11T18:53:00Z,34.18,-79.73,18.3,8.9,0,3,,10.0,30.15059,1020.6,,,TRUE,,,,,,,CLR,,,,,,,,VFR,,,,,,,,,,,,METAR,43.0
KFLL 111853Z 07010KT 10SM SCT045 BKN060 23/17 A3007 RMK AO2 SLP182 T02330167,KFLL,2020-12-11T18:53:00Z,26.07,-80.15,23.3,16.7,70,10,,10.0,30.070866,1018.2,,,TRUE,,,,,,,SCT,4500,BKN,6000,,,,,VFR,,,,,,,,,,,,SPECI,1.0
KFHR 111853Z AUTO 16005KT 10SM OVC032 06/04 A3008 RMK AO2 SLP186 T00610039 TSNO,KFHR,2020-12-11T18:53:00Z,48.52,-123.03,6.1,3.9,160,5,,10.0,30.079725,1018.6,,TRUE,TRUE,,,TRUE,,,,OVC,3200,,,,,,,VFR,,,,,,,,,,,,METAR,34.0
KFFT 111853Z AUTO 20012KT 10SM CLR 19/04 A2998 RMK AO2 SLP151 T01890039,KFFT,2020-12-11T18:53:00Z,38.18,-84.9,18.9,3.9,200,12,,10.0,29.97933,1015.1,,TRUE,TRUE,,,,,,,CLR,,,,,,,,VFR,,,,,,,,,,,,METAR,235.0
KFFC 111853Z AUTO 13006KT 10SM CLR 19/04 A3011 RMK AO2 SLP196 T01940044,KFFC,2020-12-11T18:53:00Z,33.35,-84.57,19.4,4.4,130,6,,10.0,30.109253,1019.6,,TRUE,TRUE,,,,,,,CLR,,,,,,,,VFR,,,,,,,,,,,,METAR,242.0
KFDY 111853Z AUTO 19010KT 10SM CLR 16/05 A2991 RMK AO2 SLP126 T01560050,KFDY,2020-12-11T18:53:00Z,41.02,-83.67,15.6,5.0,190,10,,10.0,29.911417,1012.6,,TRUE,TRUE,,,,,,,CLR,,,,,,,,VFR,,,,,,,,,,,,METAR,247.0
KFDR 111853Z AUTO 34010KT 10SM CLR 11/02 A2986 RMK AO2 SLP103 T01110022,KFDR,2020-12-11T18:53:00Z,34.35,-98.98,11.1,2.2,340,10,,10.0,29.861221,1010.3,,TRUE,TRUE,,,,,,,CLR,,,,,,,,VFR,,,,,,,,,,,,METAR,378.0
KFCM 111853Z VRB06G16KT 10SM FEW017 02/M03 A3008 RMK AO2 SLP196 T00221028,KFCM,2020-12-11T18:53:00Z,44.83,-93.47,2.2,-2.8,0,6,16,10.0,30.079725,1019.6,,,TRUE,,,,,,,FEW,1700,,,,,,,VFR,,,,,,,,,,,,METAR,276.0
KFAY 111853Z 14005KT 10SM CLR 19/11 A3013 RMK AO2 SLP199 T01940106,KFAY,2020-12-11T18:53:00Z,34.98,-78.88,19.4,10.6,140,5,,10.0,30.129921,1019.9,,,TRUE,,,,,,,CLR,,,,,,,,VFR,,,,,,,,,,,,METAR,57.0
KFAT 111853Z 30004KT 4SM HZ FEW100 OVC200 10/01 A3019 RMK AO2 SLP224 T01000011,KFAT,2020-12-11T18:53:00Z,36.78,-119.72,10.0,1.1,300,4,,4.0,30.188976,1022.4,,,TRUE,,,,,,HZ,FEW,10000,OVC,20000,,,,,MVFR,,,,,,,,,,,,METAR,102.0
KFAR 111853Z 05007KT 9SM OVC005 M03/M04 A3017 RMK AO2 SLP232 T10281044,KFAR,2020-12-11T18:53:00Z,46.9,-96.82,-2.8,-4.4,50,7,,9.0,30.171259,1023.2,,,TRUE,,,,,,,OVC,500,,,,,,,IFR,,,,,,,,,,,,METAR,276.0
KEYW 111853Z 05012KT 10SM CLR 22/15 A3006 RMK AO2 SLP178 T02220150,KEYW,2020-12-11T18:53:00Z,24.55,-81.75,22.2,15.0,50,12,,10.0,30.059055,1017.8,,,TRUE,,,,,,,CLR,,,,,,,,VFR,,,,,,,,,,,,METAR,1.0
KEYE 111853Z AUTO 18010KT 10SM CLR 16/04 A2988 RMK AO2 SLP120 T01610044,KEYE,2020-12-11T18:53:00Z,39.83,-86.3,16.1,4.4,180,10,,10.0,29.878937,1012.0,,TRUE,TRUE,,,,,,,CLR,,,,,,,,VFR,,,,,,,,,,,,METAR,248.0
KEWB 111853Z 22017G23KT 10SM CLR 11/05 A3012 RMK AO2 SLP200 T01110050,KEWB,2020-12-11T18:53:00Z,41.68,-70.95,11.1,5.0,220,17,23,10.0,30.121063,1020.0,,,TRUE,,,,,,,CLR,,,,,,,,VFR,,,,,,,,,,,,METAR,22.0
KESF 111853Z AUTO 14007KT 10SM FEW048 23/12 A2995 RMK AO2 SLP140 T02280122,KESF,2020-12-11T18:53:00Z,31.4,-92.28,22.8,12.2,140,7,,10.0,29.949802,1014.0,,TRUE,TRUE,,,,,,,FEW,4800,,,,,,,VFR,,,,,,,,,,,,METAR,27.0
KEQY 111853Z AUTO 23008KT 10SM CLR 17/08 A3014 RMK AO2 SLP219 T01720083,KEQY,2020-12-11T18:53:00Z,35.02,-80.62,17.2,8.3,230,8,,10.0,30.138779,1021.9,,TRUE,TRUE,,,,,,,CLR,,,,,,,,VFR,,,,,,,,,,,,METAR,205.0
KEPH 111853Z AUTO 05003KT 6SM BR OVC004 02/01 A3005 RMK AO2 SLP187 T00170006,KEPH,2020-12-11T18:53:00Z,47.3,-119.52,1.7,0.6,50,3,,6.0,30.050198,1018.7,,TRUE,TRUE,,,,,,BR,OVC,400,,,,,,,LIFR,,,,,,,,,,,,METAR,382.0
KENW 111853Z 03014G21KT 10SM -RA OVC012 06/02 A2996 RMK AO2 RAB14 SLP154 P0000 T00560022,KENW,2020-12-11T18:53:00Z,42.6,-87.93,5.6,2.2,30,14,21,10.0,29.958662,1015.4,,,TRUE,,,,,,-RA,OVC,1200,,,,,,,MVFR,,,,,,0.005,,,,,,METAR,222.0
KEMP 111853Z AUTO 33010KT 10SM OVC021 06/01 A2977 RMK AO2 SLP087 T00610011,KEMP,2020-12-11T18:53:00Z,38.33,-96.2,6.1,1.1,330,10,,10.0,29.769686,1008.7,,TRUE,TRUE,,,,,,,OVC,2100,,,,,,,MVFR,,,,,,,,,,,,METAR,366.0
KELY 111853Z AUTO 32007KT 10SM CLR 02/M18 A3004 RMK AO2 SLP191 T00171178,KELY,2020-12-11T18:53:00Z,39.3,-114.85,1.7,-17.8,320,7,,10.0,30.041338,1019.1,,TRUE,TRUE,,,,,,,CLR,,,,,,,,VFR,,,,,,,,,,,,METAR,1906.0
KELN 111853Z AUTO 00000KT 1/4SM FZFG VV002 M01/M02 A3004 RMK AO2 SLP187 I1000 T10061022 TSNO,KELN,2020-12-11T18:53:00Z,47.03,-120.53,-0.6,-2.2,0,0,,0.25,30.041338,1018.7,,TRUE,TRUE,,,TRUE,,,FZFG,OVX,0,,,,,,,LIFR,,,,,,,,,,,200,METAR,532.0
KELM 111853Z 24007KT 10SM CLR 13/02 A2998 RMK AO2 SLP159 T01280017,KELM,2020-12-11T18:53:00Z,42.15,-76.9,12.8,1.7,240,7,,10.0,29.97933,1015.9,,,TRUE,,,,,,,CLR,,,,,,,,VFR,,,,,,,,,,,,METAR,287.0
KELD 111853Z AUTO 18010G17KT 10SM FEW120 19/12 A2990 RMK AO2 SLP121 T01940122,KELD,2020-12-11T18:53:00Z,33.22,-92.82,19.4,12.2,180,10,17,10.0,29.899607,1012.1,,TRUE,TRUE,,,,,,,FEW,12000,,,,,,,VFR,,,,,,,,,,,,METAR,76.0
KEET 111853Z AUTO VRB05KT 10SM FEW030 19/12 A3008 RMK AO2 SLP186 T01890117,KEET,2020-12-11T18:53:00Z,33.18,-86.78,18.9,11.7,0,5,,10.0,30.079725,1018.6,,TRUE,TRUE,,,,,,,FEW,3000,,,,,,,VFR,,,,,,,,,,,,METAR,172.0
KEEO 111853Z AUTO 28005KT 10SM FEW046 BKN055 01/M09 A2987 RMK AO2 SLP129 T00061094,KEEO,2020-12-11T18:53:00Z,40.05,-107.88,0.6,-9.4,280,5,,10.0,29.870079,1012.9,,TRUE,TRUE,,,,,,,FEW,4600,BKN,5500,,,,,VFR,,,,,,,,,,,,METAR,1957.0
KECP 111853Z 17007KT 10SM CLR 22/10 A3010 RMK AO2 SLP203 T02220100,KECP,2020-12-11T18:53:00Z,30.35,-85.8,22.2,10.0,170,7,,10.0,30.100393,1020.3,,,TRUE,,,,,,,CLR,,,,,,,,VFR,,,,,,,,,,,,METAR,17.0
KDXR 111853Z 22011KT 9SM CLR 12/03 A3009 RMK AO2 SLP193 T01170028,KDXR,2020-12-11T18:53:00Z,41.37,-73.48,11.7,2.8,220,11,,9.0,30.088583,1019.3,,,TRUE,,,,,,,CLR,,,,,,,,VFR,,,,,,,,,,,,METAR,138.0
KDWH 111853Z 16005KT 10SM FEW040 BKN049 OVC075 22/17 A2988 RMK AO2 RAE1754B15E45 SLP117 P0000 T02170172,KDWH,2020-12-11T18:53:00Z,30.07,-95.55,21.7,17.2,160,5,,10.0,29.878937,1011.7,,,TRUE,,,,,,,FEW,4000,BKN,4900,OVC,7500,,,VFR,,,,,,0.005,,,,,,METAR,46.0
KDVT 111853Z AUTO 00000KT 10SM CLR 14/09 A3009 RMK AO2 SLP180 T01440089,KDVT,2020-12-11T18:53:00Z,33.68,-112.07,14.4,8.9,0,0,,10.0,30.088583,1018.0,,TRUE,TRUE,,,,,,,CLR,,,,,,,,VFR,,,,,,,,,,,,METAR,454.0
KDUJ 111853Z AUTO 24014KT 10SM CLR 13/02 A2999 RMK AO2 SLP161 T01330022,KDUJ,2020-12-11T18:53:00Z,41.17,-78.9,13.3,2.2,240,14,,10.0,29.991142,1016.1,,TRUE,TRUE,,,,,,,CLR,,,,,,,,VFR,,,,,,,,,,,,METAR,552.0
KDTW 111853Z 04007KT 5SM HZ SCT140 OVC250 11/03 A2993 RMK AO2 SLP140 T01060028,KDTW,2020-12-11T18:53:00Z,42.23,-83.33,10.6,2.8,40,7,,5.0,29.929134,1014.0,,,TRUE,,,,,,HZ,SCT,14000,OVC,25000,,,,,MVFR,,,,,,,,,,,,METAR,192.0
KDTS 111853Z 13009KT 10SM FEW047 21/14 A3010 RMK AO2 SLP193 T02060144,KDTS,2020-12-11T18:53:00Z,30.4,-86.47,20.6,14.4,130,9,,10.0,30.100393,1019.3,,,TRUE,,,,,,,FEW,4700,,,,,,,VFR,,,,,,,,,,,,METAR,5.0
KDTN 111853Z 17011KT 10SM SCT065 OVC080 21/14 A2987 RMK AO2 SLP114 T02110144,KDTN,2020-12-11T18:53:00Z,32.55,-93.75,21.1,14.4,170,11,,10.0,29.870079,1011.4,,,TRUE,,,,,,,SCT,6500,OVC,8000,,,,,VFR,,,,,,,,,,,,METAR,53.0
KDRT 111853Z AUTO 20003KT 10SM CLR 22/12 A2988 RMK AO2 SLP106 T02170117,KDRT,2020-12-11T18:53:00Z,29.37,-100.92,21.7,11.7,200,3,,10.0,29.878937,1010.6,,TRUE,TRUE,,,,,,,CLR,,,,,,,,VFR,,,,,,,,,,,,METAR,303.0
KDRO 111853Z AUTO 24016G24KT 10SM SCT031 SCT055 BKN090 01/M03 A2988 RMK AO2 PK WND 26026/1758 UPE1756 SLP132 P0000 T00061028,KDRO,2020-12-11T18:53:00Z,37.15,-107.77,0.6,-2.8,240,16,24,10.0,29.878937,1013.2,,TRUE,TRUE,,,,,,,SCT,3100,SCT,5500,BKN,9000,,,VFR,,,,,,0.005,,,,,,METAR,2021.0
KDRA 111853Z AUTO 00000KT 10SM CLR 11/M13 A3003 RMK AO2 SLP157 T01061133,KDRA,2020-12-11T18:53:00Z,36.62,-116.03,10.6,-13.3,0,0,,10.0,30.029528,1015.7,,TRUE,TRUE,,,,,,,CLR,,,,,,,,VFR,,,,,,,,,,,,METAR,988.0
KDNL 111853Z AUTO 00000KT 10SM CLR 19/08 A3014 RMK AO2 SLP204 T01890078,KDNL,2020-12-11T18:53:00Z,33.47,-82.03,18.9,7.8,0,0,,10.0,30.138779,1020.4,,TRUE,TRUE,,,,,,,CLR,,,,,,,,VFR,,,,,,,,,,,,METAR,126.0
KDMO 111853Z AUTO 17009KT 10SM -RA OVC021 13/11 A2974 RMK AO2 SLP071 P0000 T01280111,KDMO,2020-12-11T18:53:00Z,38.72,-93.17,12.8,11.1,170,9,,10.0,29.740158,1007.1,,TRUE,TRUE,,,,,,-RA,OVC,2100,,,,,,,MVFR,,,,,,0.005,,,,,,METAR,271.0
KDMN 111853Z AUTO 27016G21KT 10SM FEW026 SCT035 12/04 A3005 RMK AO2 SLP147 T01170039,KDMN,2020-12-11T18:53:00Z,32.27,-107.72,11.7,3.9,270,16,21,10.0,30.050198,1014.7,,TRUE,TRUE,,,,,,,FEW,2600,SCT,3500,,,,,VFR,,,,,,,,,,,,METAR,1310.0
KDLS 111853Z AUTO 00000KT 10SM SCT012 03/00 A3012 RMK AO2 SLP202 T00280000,KDLS,2020-12-11T18:53:00Z,45.62,-121.17,2.8,0.0,0,0,,10.0,30.121063,1020.2,,TRUE,TRUE,,,,,,,SCT,1200,,,,,,,VFR,,,,,,,,,,,,METAR,71.0
KDKK 111853Z AUTO 25007KT 10SM BKN120 13/03 A2996 RMK AO2 SLP149 T01280028,KDKK,2020-12-11T18:53:00Z,42.5,-79.28,12.8,2.8,250,7,,10.0,29.958662,1014.9,,TRUE,TRUE,,,,,,,BKN,12000,,,,,,,VFR,,,,,,,,,,,,METAR,205.0
KDHN 111853Z 00000KT 10SM BKN043 21/10 A3014 RMK AO2 SLP204 T02110100,KDHN,2020-12-11T18:53:00Z,31.32,-85.45,21.1,10.0,0,0,,10.0,30.138779,1020.4,,,TRUE,,,,,,,BKN,4300,,,,,,,VFR,,,,,,,,,,,,METAR,113.0
KDFW 111853Z 21009KT 10SM BKN008 BKN100 17/17 A2981 RMK AO2 RAE37 SLP088 P0001 T01720167,KDFW,2020-12-11T18:53:00Z,32.9,-97.02,17.2,16.7,210,9,,10.0,29.811024,1008.8,,,TRUE,,,,,,,BKN,800,BKN,10000,,,,,IFR,,,,,,0.01,,,,,,METAR,168.0
KDFI 111853Z AUTO 19006KT 10SM CLR 14/04 A2990 RMK AO2 SLP128 T01390044,KDFI,2020-12-11T18:53:00Z,41.33,-84.43,13.9,4.4,190,6,,10.0,29.899607,1012.8,,TRUE,TRUE,,,,,,,CLR,,,,,,,,VFR,,,,,,,,,,,,METAR,215.0
KDEW 111853Z AUTO 05003KT 10SM BKN007 BKN022 OVC028 00/M02 A3003 RMK AO2 CIG 006V012 SLP190 T00001017,KDEW,2020-12-11T18:53:00Z,47.97,-117.43,0.0,-1.7,50,3,,10.0,30.029528,1019.0,,TRUE,TRUE,,,,,,,BKN,700,BKN,2200,OVC,2800,,,IFR,,,,,,,,,,,,METAR,672.0
KDET 111853Z 06007KT 7SM CLR 10/03 A2994 RMK AO2 SLP142 T01000028,KDET,2020-12-11T18:53:00Z,42.4,-83.02,10.0,2.8,60,7,,7.0,29.940945,1014.2,,,TRUE,,,,,,,CLR,,,,,,,,VFR,,,,,,,,,,,,METAR,190.0
KDCU 111853Z AUTO 19007KT 10SM BKN045 18/09 A3007 RMK AO2 SLP181 T01780094,KDCU,2020-12-11T18:53:00Z,34.65,-86.95,17.8,9.4,190,7,,10.0,30.070866,1018.1,,TRUE,TRUE,,,,,,,BKN,4500,,,,,,,VFR,,,,,,,,,,,,METAR,180.0
KDBQ 111853Z 05016G25KT 4SM -RA BR OVC006 03/02 A2992 RMK AO2 CIG 004V010 SLP140 P0008 T00280017,KDBQ,2020-12-11T18:53:00Z,42.4,-90.7,2.8,1.7,50,16,25,4.0,29.920275,1014.0,,,TRUE,,,,,,-RA BR,OVC,600,,,,,,,IFR,,,,,,0.08,,,,,,METAR,317.0
KDAN 111853Z AUTO 24006KT 10SM CLR 18/06 A3014 RMK AO2 SLP201 T01780061,KDAN,2020-12-11T18:53:00Z,36.57,-79.33,17.8,6.1,240,6,,10.0,30.138779,1020.1,,TRUE,TRUE,,,,,,,CLR,,,,,,,,VFR,,,,,,,,,,,,METAR,170.0
KDAB 111853Z 07007KT 10SM FEW055 22/11 A3014 RMK AO2 SLP205 T02170111,KDAB,2020-12-11T18:53:00Z,29.18,-81.07,21.7,11.1,70,7,,10.0,30.138779,1020.5,,,TRUE,,,,,,,FEW,5500,,,,,,,VFR,,,,,,,,,,,,SPECI,8.0
KCYS 111853Z 10007KT 1 1/2SM -SN BR SCT011 BKN023 OVC034 M06/M08 A2989 RMK AO2 SLP173 P0001 T10611083,KCYS,2020-12-11T18:53:00Z,41.15,-104.8,-6.1,-8.3,100,7,,1.5,29.890747,1017.3,,,TRUE,,,,,,-SN BR,SCT,1100,BKN,2300,OVC,3400,,,IFR,,,,,,0.01,,,,,,METAR,1868.0
KCXO 111853Z 16009KT 10SM OVC065 21/17 A2989 RMK AO2 SLP119 T02110167,KCXO,2020-12-11T18:53:00Z,30.35,-95.42,21.1,16.7,160,9,,10.0,29.890747,1011.9,,,TRUE,,,,,,,OVC,6500,,,,,,,VFR,,,,,,,,,,,,METAR,69.0
KCUT 111853Z AUTO 08006KT 10SM OVC055 M03/M12 A2993 RMK AO2 SLP175 T10331117,KCUT,2020-12-11T18:53:00Z,43.73,-103.62,-3.3,-11.7,80,6,,10.0,29.929134,1017.5,,TRUE,TRUE,,,,,,,OVC,5500,,,,,,,VFR,,,,,,,,,,,,METAR,1700.0
KCUB 111853Z AUTO 00000KT 10SM CLR 19/09 A3015 RMK AO2 SLP209 T01890089,KCUB,2020-12-11T18:53:00Z,33.97,-81.0,18.9,8.9,0,0,,10.0,30.15059,1020.9,,TRUE,TRUE,,,,,,,CLR,,,,,,,,VFR,,,,,,,,,,,,METAR,55.0
KCSV 111853Z AUTO 20006KT 10SM CLR 16/04 A3007 RMK AO2 SLP178 T01560044,KCSV,2020-12-11T18:53:00Z,35.95,-85.08,15.6,4.4,200,6,,10.0,30.070866,1017.8,,TRUE,TRUE,,,,,,,CLR,,,,,,,,VFR,,,,,,,,,,,,METAR,569.0
KCSM 111853Z 32015G19KT 10SM FEW070 09/00 A2988 RMK AO2 SLP116 T00890000,KCSM,2020-12-11T18:53:00Z,35.35,-99.2,8.9,0.0,320,15,19,10.0,29.878937,1011.6,,,TRUE,,,,,,,FEW,7000,,,,,,,VFR,,,,,,,,,,,,METAR,586.0
KCRS 111853Z AUTO 20007KT 10SM OVC004 17/16 A2987 RMK AO2 RAE16 SLP112 P0000 T01670161,KCRS,2020-12-11T18:53:00Z,32.03,-96.4,16.7,16.1,200,7,,10.0,29.870079,1011.2,,TRUE,TRUE,,,,,,,OVC,400,,,,,,,LIFR,,,,,,0.005,,,,,,METAR,136.0
KCRQ 111853Z VRB05KT 10SM CLR 14/07 A3012 RMK AO2 SLP199 T01440067,KCRQ,2020-12-11T18:53:00Z,33.13,-117.28,14.4,6.7,0,5,,10.0,30.121063,1019.9,,,TRUE,,,,,,,CLR,,,,,,,,VFR,,,,,,,,,,,,METAR,96.0
KCRG 111853Z 20009KT 10SM CLR 22/07 A3014 RMK AO2 SLP205 T02220067,KCRG,2020-12-11T18:53:00Z,30.33,-81.52,22.2,6.7,200,9,,10.0,30.138779,1020.5,,,TRUE,,,,,,,CLR,,,,,,,,VFR,,,,,,,,,,,,METAR,12.0
KCRE 111853Z 16005KT 10SM CLR 19/13 A3014 RMK AO1 SLP206 T01940133,KCRE,2020-12-11T18:53:00Z,33.82,-78.72,19.4,13.3,160,5,,10.0,30.138779,1020.6,,,TRUE,,,,,,,CLR,,,,,,,,VFR,,,,,,,,,,,,METAR,9.0
KCQC 111853Z AUTO 27030G41KT 9SM BKN032 BKN042 03/M04 A2987 RMK AO2 PK WND 27043/1815 UPB28E29SNB17E28B29E53 SLP105 P0000 T00281044,KCQC,2020-12-11T18:53:00Z,35.0,-105.67,2.8,-4.4,270,30,41,9.0,29.870079,1010.5,,TRUE,TRUE,,,,,,,BKN,3200,BKN,4200,,,,,VFR,,,,,,0.005,,,,,,SPECI,2163.0
KCPS 111853Z 17003KT 10SM BKN050 BKN065 OVC095 16/08 A2982 RMK AO2 PRESFR SLP098 T01560078,KCPS,2020-12-11T18:53:00Z,38.53,-90.15,15.6,7.8,170,3,,10.0,29.819881,1009.8,,,TRUE,,,,,,,BKN,5000,BKN,6500,OVC,9500,,,VFR,,,,,,,,,,,,METAR,125.0
KCOT 111853Z AUTO 00000KT 10SM CLR 24/16 A2986 RMK AO2 SLP106 T02440156,KCOT,2020-12-11T18:53:00Z,28.45,-99.22,24.4,15.6,0,0,,10.0,29.861221,1010.6,,TRUE,TRUE,,,,,,,CLR,,,,,,,,VFR,,,,,,,,,,,,METAR,144.0
KCNY 111853Z AUTO 27011KT 10SM CLR 05/M10 A2993 RMK AO2 SLP144 T00501100,KCNY,2020-12-11T18:53:00Z,38.77,-109.75,5.0,-10.0,270,11,,10.0,29.929134,1014.4,,TRUE,TRUE,,,,,,,CLR,,,,,,,,VFR,,,,,,,,,,,,METAR,1392.0
KCNO 111853Z VRB03KT 10SM BKN031 BKN200 16/06 A3014 RMK AO2 SLP204 T01610056,KCNO,2020-12-11T18:53:00Z,33.98,-117.62,16.1,5.6,0,3,,10.0,30.138779,1020.4,,,TRUE,,,,,,,BKN,3100,BKN,20000,,,,,VFR,,,,,,,,,,,,METAR,191.0
KCNM 111853Z AUTO 26018KT 10SM CLR 17/00 A2989 RMK AO2 PK WND 25026/1820 SLP087 T01670000,KCNM,2020-12-11T18:53:00Z,32.33,-104.25,16.7,0.0,260,18,,10.0,29.890747,1008.7,,TRUE,TRUE,,,,,,,CLR,,,,,,,,VFR,,,,,,,,,,,,METAR,993.0
KCMX 111853Z AUTO 02006KT 10SM OVC023 01/M05 A3014 RMK AO2 SLP218 T00111050,KCMX,2020-12-11T18:53:00Z,47.17,-88.48,1.1,-5.0,20,6,,10.0,30.138779,1021.8,,TRUE,TRUE,,,,,,,OVC,2300,,,,,,,MVFR,,,,,,,,,,,,METAR,326.0
KCMI 111853Z 20009KT 10SM CLR 14/06 A2984 RMK AO2 SLP108 T01440061,KCMI,2020-12-11T18:53:00Z,40.03,-88.27,14.4,6.1,200,9,,10.0,29.840551,1010.8,,,TRUE,,,,,,,CLR,,,,,,,,VFR,,,,,,,,,,,,METAR,227.0
KCLM 111853Z AUTO 00000KT 10SM CLR 07/03 A3006 RMK AO2 SLP181 T00670028,KCLM,2020-12-11T18:53:00Z,48.12,-123.5,6.7,2.8,0,0,,10.0,30.059055,1018.1,,TRUE,TRUE,,,,,,,CLR,,,,,,,,VFR,,,,,,,,,,,,METAR,81.0
KCKB 111853Z 24011KT 10SM CLR 17/02 A3005 RMK AO2 SLP173 T01720017,KCKB,2020-12-11T18:53:00Z,39.3,-80.22,17.2,1.7,240,11,,10.0,30.050198,1017.3,,,TRUE,,,,,,,CLR,,,,,,,,VFR,,,,,,,,,,,,METAR,368.0
KCHO 111853Z 22010G15KT 10SM CLR 17/04 A3010 RMK AO2 SLP192 T01720039,KCHO,2020-12-11T18:53:00Z,38.13,-78.45,17.2,3.9,220,10,15,10.0,30.100393,1019.2,,,TRUE,,,,,,,CLR,,,,,,,,VFR,,,,,,,,,,,,METAR,193.0
KCHA 111853Z 20010G16KT 10SM BKN250 19/06 A3008 RMK AO2 SLP185 T01890056 $,KCHA,2020-12-11T18:53:00Z,35.03,-85.2,18.9,5.6,200,10,16,10.0,30.079725,1018.5,,,TRUE,TRUE,,,,,,BKN,25000,,,,,,,VFR,,,,,,,,,,,,METAR,203.0
KCGI 111853Z 20017G25KT 10SM FEW034 BKN055 OVC070 17/11 A2989 RMK AO2 SLP119 T01720106,KCGI,2020-12-11T18:53:00Z,37.23,-89.58,17.2,10.6,200,17,25,10.0,29.890747,1011.9,,,TRUE,,,,,,,FEW,3400,BKN,5500,OVC,7000,,,VFR,,,,,,,,,,,,METAR,103.0
KCEW 111853Z AUTO 00000KT 10SM FEW042 BKN050 22/12 A3011 RMK AO2 SLP195 T02170122,KCEW,2020-12-11T18:53:00Z,30.78,-86.52,21.7,12.2,0,0,,10.0,30.109253,1019.5,,TRUE,TRUE,,,,,,,FEW,4200,BKN,5000,,,,,VFR,,,,,,,,,,,,METAR,47.0
KCDW 111853Z 21005KT 10SM CLR 13/03 A3010 RMK AO2 SLP199 T01280033,KCDW,2020-12-11T18:53:00Z,40.88,-74.28,12.8,3.3,210,5,,10.0,30.100393,1019.9,,,TRUE,,,,,,,CLR,,,,,,,,VFR,,,,,,,,,,,,METAR,52.0
KCDS 111853Z AUTO 02006KT 10SM CLR 11/01 A2989 RMK AO2 SLP115 T01060006,KCDS,2020-12-11T18:53:00Z,34.43,-100.28,10.6,0.6,20,6,,10.0,29.890747,1011.5,,TRUE,TRUE,,,,,,,CLR,,,,,,,,VFR,,,,,,,,,,,,METAR,595.0
KCDR 111853Z AUTO 02004KT 10SM OVC085 M01/M06 A3002 RMK AO2 SLP208 T10061061,KCDR,2020-12-11T18:53:00Z,42.83,-103.1,-0.6,-6.1,20,4,,10.0,30.02067,1020.8,,TRUE,TRUE,,,,,,,OVC,8500,,,,,,,VFR,,,,,,,,,,,,METAR,1002.0
KCDC 111853Z AUTO VRB03KT 10SM CLR 05/M16 A3004 RMK AO2 SLP179 T00501156,KCDC,2020-12-11T18:53:00Z,37.7,-113.1,5.0,-15.6,0,3,,10.0,30.041338,1017.9,,TRUE,TRUE,,,,,,,CLR,,,,,,,,VFR,,,,,,,,,,,,METAR,1703.0
KCCR 111853Z 00000KT 10SM FEW110 12/06 A3021 RMK AO2 SLP216 T01170056,KCCR,2020-12-11T18:53:00Z,38.0,-122.05,11.7,5.6,0,0,,10.0,30.209646,1021.6,,,TRUE,,,,,,,FEW,11000,,,,,,,VFR,,,,,,,,,,,,METAR,6.0
KCAG 111853Z AUTO 27006KT 10SM OVC070 M01/M04 A2989 RMK AO2 SLP157 T10111044,KCAG,2020-12-11T18:53:00Z,40.5,-107.52,-1.1,-4.4,270,6,,10.0,29.890747,1015.7,,TRUE,TRUE,,,,,,,OVC,7000,,,,,,,VFR,,,,,,,,,,,,METAR,1888.0
KBYG 111853Z AUTO 17016KT 10SM FEW038 BKN070 OVC110 M03/M07 A2992 RMK AO2 SLP167 T10281072,KBYG,2020-12-11T18:53:00Z,44.38,-106.72,-2.8,-7.2,170,16,,10.0,29.920275,1016.7,,TRUE,TRUE,,,,,,,FEW,3800,BKN,7000,OVC,11000,,,VFR,,,,,,,,,,,,METAR,1503.0
KBWG 111853Z AUTO 19011KT 10SM CLR 17/08 A3001 RMK AO2 SLP160 T01670078,KBWG,2020-12-11T18:53:00Z,36.97,-86.42,16.7,7.8,190,11,,10.0,30.008858,1016.0,,TRUE,TRUE,,,,,,,CLR,,,,,,,,VFR,,,,,,,,,,,,METAR,159.0
KBVY 111853Z 21012KT 10SM CLR 11/02 A3007 RMK AO2 SLP180 T01060022 PNO,KBVY,2020-12-11T18:53:00Z,42.58,-70.92,10.6,2.2,210,12,,10.0,30.070866,1018.0,,,TRUE,,,,,,,CLR,,,,,,,,VFR,,,,,,,,,,,,METAR,28.0
KBVO 111853Z AUTO 28005KT 10SM SCT080 09/02 A2981 RMK AO2 SLP091 T00890022,KBVO,2020-12-11T18:53:00Z,36.77,-96.02,8.9,2.2,280,5,,10.0,29.811024,1009.1,,TRUE,TRUE,,,,,,,SCT,8000,,,,,,,VFR,,,,,,,,,,,,METAR,210.0
KBTR 111853Z 17009KT 10SM OVC060 23/11 A3001 RMK AO2 SLP160 T02280106,KBTR,2020-12-11T18:53:00Z,30.53,-91.15,22.8,10.6,170,9,,10.0,30.008858,1016.0,,,TRUE,,,,,,,OVC,6000,,,,,,,VFR,,,,,,,,,,,,METAR,20.0
KBTM 111853Z AUTO 32004KT 10SM BKN030 BKN050 OVC075 M07/M09 A2990 RMK AO2 SNE28 SLP190 P0000 T10671089,KBTM,2020-12-11T18:53:00Z,45.97,-112.5,-6.7,-8.9,320,4,,10.0,29.899607,1019.0,,TRUE,TRUE,,,,,,,BKN,3000,BKN,5000,OVC,7500,,,MVFR,,,,,,0.005,,,,,,METAR,1680.0
KBTL 111853Z 06006KT 8SM CLR 09/03 A2992 RMK AO2 SLP137 T00890028,KBTL,2020-12-11T18:53:00Z,42.32,-85.25,8.9,2.8,60,6,,8.0,29.920275,1013.7,,,TRUE,,,,,,,CLR,,,,,,,,VFR,,,,,,,,,,,,METAR,282.0
KBRO 111853Z 18024G30KT 10SM CLR 28/18 A2983 RMK AO2 PK WND 19033/1831 SLP099 T02830178,KBRO,2020-12-11T18:53:00Z,25.92,-97.42,28.3,17.8,180,24,30,10.0,29.828741,1009.9,,,TRUE,,,,,,,CLR,,,,,,,,VFR,,,,,,,,,,,,SPECI,6.0
KBPT 111853Z 16013G20KT 10SM BKN048 OVC060 22/16 A2992 RMK AO2 SLP133 T02220156,KBPT,2020-12-11T18:53:00Z,29.95,-94.03,22.2,15.6,160,13,20,10.0,29.920275,1013.3,,,TRUE,,,,,,,BKN,4800,OVC,6000,,,,,VFR,,,,,,,,,,,,METAR,6.0
KBOI 111853Z 00000KT 10SM OVC065 02/M03 A3008 RMK AO2 SLP205 T00171033,KBOI,2020-12-11T18:53:00Z,43.57,-116.23,1.7,-3.3,0,0,,10.0,30.079725,1020.5,,,TRUE,,,,,,,OVC,6500,,,,,,,VFR,,,,,,,,,,,,METAR,860.0
KBNO 111853Z AUTO 13003KT 10SM OVC039 M03/M07 A3008 RMK AO2 SLP217 T10331067,KBNO,2020-12-11T18:53:00Z,43.6,-118.95,-3.3,-6.7,130,3,,10.0,30.079725,1021.7,,TRUE,TRUE,,,,,,,OVC,3900,,,,,,,VFR,,,,,,,,,,,,METAR,1263.0
KBNA 111853Z 20014G22KT 10SM SCT042 SCT200 OVC240 18/08 A3003 RMK AO2 SLP168 T01830078,KBNA,2020-12-11T18:53:00Z,36.12,-86.68,18.3,7.8,200,14,22,10.0,30.029528,1016.8,,,TRUE,,,,,,,SCT,4200,SCT,20000,OVC,24000,,,VFR,,,,,,,,,,,,METAR,168.0
KBMQ 111853Z AUTO 18005KT 5SM BR FEW004 18/17 A2989 RMK AO2 RAE31 SLP112 P0001 T01780167 $,KBMQ,2020-12-11T18:53:00Z,30.73,-98.23,17.8,16.7,180,5,,5.0,29.890747,1011.2,,TRUE,TRUE,TRUE,,,,,BR,FEW,400,,,,,,,MVFR,,,,,,0.01,,,,,,METAR,387.0
KBMG 111853Z 21015G24KT 10SM FEW043 18/07 A2990 RMK AO2 SLP121 T01780067,KBMG,2020-12-11T18:53:00Z,39.15,-86.62,17.8,6.7,210,15,24,10.0,29.899607,1012.1,,,TRUE,,,,,,,FEW,4300,,,,,,,VFR,,,,,,,,,,,,METAR,254.0
KBLI 111853Z 17006KT 10SM -RA FEW018 BKN028 OVC036 07/03 A3007 RMK AO2 RAB00 SLP191 P0000 T00670033,KBLI,2020-12-11T18:53:00Z,48.8,-122.53,6.7,3.3,170,6,,10.0,30.070866,1019.1,,,TRUE,,,,,,-RA,FEW,1800,BKN,2800,OVC,3600,,,MVFR,,,,,,0.005,,,,,,METAR,46.0
KBKV 111853Z 11007KT 10SM CLR 22/09 A3013 RMK AO2 SLP201 T02220089,KBKV,2020-12-11T18:53:00Z,28.47,-82.45,22.2,8.9,110,7,,10.0,30.129921,1020.1,,,TRUE,,,,,,,CLR,,,,,,,,VFR,,,,,,,,,,,,METAR,21.0
KBKL 111853Z 19008KT 10SM CLR 15/04 A2994 RMK AO2 SLP138 T01500039,KBKL,2020-12-11T18:53:00Z,41.53,-81.67,15.0,3.9,190,8,,10.0,29.940945,1013.8,,,TRUE,,,,,,,CLR,,,,,,,,VFR,,,,,,,,,,,,METAR,177.0
KBKE 111853Z AUTO 04004KT 10SM OVC060 04/M06 A3002 RMK AO2 SLP189 T00441061,KBKE,2020-12-11T18:53:00Z,44.85,-117.82,4.4,-6.1,40,4,,10.0,30.02067,1018.9,,TRUE,TRUE,,,,,,,OVC,6000,,,,,,,VFR,,,,,,,,,,,,METAR,1025.0
KBIV 111853Z AUTO 05009G17KT 10SM CLR 06/01 A2996 RMK AO2 SLP150 T00610006,KBIV,2020-12-11T18:53:00Z,42.75,-86.1,6.1,0.6,50,9,17,10.0,29.958662,1015.0,,TRUE,TRUE,,,,,,,CLR,,,,,,,,VFR,,,,,,,,,,,,METAR,207.0
KBIL 111853Z 00000KT 10SM BKN007 M03/M06 A2998 RMK AO2 SLP189 T10331061,KBIL,2020-12-11T18:53:00Z,45.8,-108.55,-3.3,-6.1,0,0,,10.0,29.97933,1018.9,,,TRUE,,,,,,,BKN,700,,,,,,,IFR,,,,,,,,,,,,METAR,1089.0
KBHM 111853Z 21009KT 10SM FEW042 OVC250 19/09 A3010 RMK AO2 SLP189 T01940094,KBHM,2020-12-11T18:53:00Z,33.57,-86.75,19.4,9.4,210,9,,10.0,30.100393,1018.9,,,TRUE,,,,,,,FEW,4200,OVC,25000,,,,,VFR,,,,,,,,,,,,METAR,191.0
KBGR 111853Z 18010KT 10SM FEW035 OVC120 04/M01 A3006 RMK AO2 SLP182 T00441006,KBGR,2020-12-11T18:53:00Z,44.8,-68.82,4.4,-0.6,180,10,,10.0,30.059055,1018.2,,,TRUE,,,,,,,FEW,3500,OVC,12000,,,,,VFR,,,,,,,,,,,,METAR,45.0
KBGM 111853Z 22007KT 10SM SCT100 09/02 A2999 RMK AO2 SLP166 T00940017,KBGM,2020-12-11T18:53:00Z,42.22,-75.98,9.4,1.7,220,7,,10.0,29.991142,1016.6,,,TRUE,,,,,,,SCT,10000,,,,,,,VFR,,,,,,,,,,,,METAR,485.0
KBFM 111853Z 15008KT 10SM FEW041 SCT060 22/13 A3008 RMK AO2 SLP186 T02170128,KBFM,2020-12-11T18:53:00Z,30.62,-88.07,21.7,12.8,150,8,,10.0,30.079725,1018.6,,,TRUE,,,,,,,FEW,4100,SCT,6000,,,,,VFR,,,,,,,,,,,,METAR,7.0
KBFI 111853Z VRB03KT 10SM BKN016 07/03 A3009 RMK AO2 SLP189 T00670033,KBFI,2020-12-11T18:53:00Z,47.55,-122.32,6.7,3.3,0,3,,10.0,30.088583,1018.9,,,TRUE,,,,,,,BKN,1600,,,,,,,MVFR,,,,,,,,,,,,METAR,7.0
KBFF 111853Z AUTO 03004KT 10SM OVC055 00/M08 A2998 RMK AO2 SLP178 T00001078,KBFF,2020-12-11T18:53:00Z,41.87,-103.6,0.0,-7.8,30,4,,10.0,29.97933,1017.8,,TRUE,TRUE,,,,,,,OVC,5500,,,,,,,VFR,,,,,,,,,,,,METAR,1204.0
KBFD 111853Z AUTO 21007KT 10SM CLR 12/01 A2997 RMK AO2 SLP157 T01170011,KBFD,2020-12-11T18:53:00Z,41.8,-78.63,11.7,1.1,210,7,,10.0,29.970472,1015.7,,TRUE,TRUE,,,,,,,CLR,,,,,,,,VFR,,,,,,,,,,,,METAR,642.0
KBEH 111853Z AUTO 02004G15KT FEW120 09/03 A2988 RMK AO2 SLP123 T00890028 PNO $,KBEH,2020-12-11T18:53:00Z,42.13,-86.42,8.9,2.8,20,4,15,,29.878937,1012.3,,TRUE,TRUE,TRUE,,,,,,FEW,12000,,,,,,,,,,,,,,,,,,,METAR,196.0
KBDE 111853Z AUTO 34005KT 10SM OVC010 M05/M07 A3019 RMK AO2 SLP245 T10501072,KBDE,2020-12-11T18:53:00Z,48.73,-94.62,-5.0,-7.2,340,5,,10.0,30.188976,1024.5,,TRUE,TRUE,,,,,,,OVC,1000,,,,,,,MVFR,,,,,,,,,,,,METAR,330.0
KBCE 111853Z AUTO 30014G27KT 10SM CLR 01/M18 A2998 RMK AO2 PK WND 30033/1800 SLP154 T00111178,KBCE,2020-12-11T18:53:00Z,37.7,-112.15,1.1,-17.8,300,14,27,10.0,29.97933,1015.4,,TRUE,TRUE,,,,,,,CLR,,,,,,,,VFR,,,,,,,,,,,,METAR,2311.0
KBBW 111853Z AUTO 36018KT 10SM OVC010 00/M03 A2992 RMK AO2 SLP153 T00001028,KBBW,2020-12-11T18:53:00Z,41.43,-99.63,0.0,-2.8,360,18,,10.0,29.920275,1015.3,,TRUE,TRUE,,,,,,,OVC,1000,,,,,,,MVFR,,,,,,,,,,,,METAR,771.0
KBAF 111853Z 18015KT 10SM CLR 11/02 A3007 RMK AO2 SLP187 T01060022,KBAF,2020-12-11T18:53:00Z,42.17,-72.72,10.6,2.2,180,15,,10.0,30.070866,1018.7,,,TRUE,,,,,,,CLR,,,,,,,,VFR,,,,,,,,,,,,METAR,80.0
KAZO 111853Z 03007KT 6SM HZ CLR 09/02 A2992 RMK AO2 SLP138 T00890022,KAZO,2020-12-11T18:53:00Z,42.23,-85.55,8.9,2.2,30,7,,6.0,29.920275,1013.8,,,TRUE,,,,,,HZ,CLR,,,,,,,,VFR,,,,,,,,,,,,METAR,264.0
KAXN 111853Z AUTO 04008KT 10SM OVC005 M02/M03 A3012 RMK AO2 SLP222 T10221033 TSNO,KAXN,2020-12-11T18:53:00Z,45.87,-95.4,-2.2,-3.3,40,8,,10.0,30.121063,1022.2,,TRUE,TRUE,,,TRUE,,,,OVC,500,,,,,,,IFR,,,,,,,,,,,,METAR,433.0
KAWM 111853Z AUTO 19016G25KT 10SM CLR 18/11 A2993 RMK AO2 PK WND 19026/1815 SLP133 T01830111,KAWM,2020-12-11T18:53:00Z,35.13,-90.23,18.3,11.1,190,16,25,10.0,29.929134,1013.3,,TRUE,TRUE,,,,,,,CLR,,,,,,,,VFR,,,,,,,,,,,,METAR,64.0
KAUG 111853Z AUTO 21005KT 10SM CLR 04/M01 A3007 RMK AO2 SLP186 T00391006,KAUG,2020-12-11T18:53:00Z,44.32,-69.8,3.9,-0.6,210,5,,10.0,30.070866,1018.6,,TRUE,TRUE,,,,,,,CLR,,,,,,,,VFR,,,,,,,,,,,,METAR,107.0
KASX 111853Z AUTO 05008KT 10SM BKN022 OVC030 02/M02 A3015 RMK AO2 SLP221 T00171022,KASX,2020-12-11T18:53:00Z,46.55,-90.92,1.7,-2.2,50,8,,10.0,30.15059,1022.1,,TRUE,TRUE,,,,,,,BKN,2200,OVC,3000,,,,,MVFR,,,,,,,,,,,,METAR,249.0
KASD 111853Z AUTO 16013KT 10SM FEW041 23/12 A3003 RMK AO2 SLP167 T02280122,KASD,2020-12-11T18:53:00Z,30.35,-89.82,22.8,12.2,160,13,,10.0,30.029528,1016.7,,TRUE,TRUE,,,,,,,FEW,4100,,,,,,,VFR,,,,,,,,,,,,METAR,8.0
KARB 111853Z 06007KT 6SM BR CLR 12/04 A2992 RMK AO2 SLP133 T01220039 $,KARB,2020-12-11T18:53:00Z,42.22,-83.73,12.2,3.9,60,7,,6.0,29.920275,1013.3,,,TRUE,TRUE,,,,,BR,CLR,,,,,,,,VFR,,,,,,,,,,,,METAR,251.0
KARA 111853Z 15015KT 10SM FEW050 SCT060 23/13 A3000 RMK AO2 SLP157 T02330128,KARA,2020-12-11T18:53:00Z,30.03,-91.88,23.3,12.8,150,15,,10.0,30.0,1015.7,,,TRUE,,,,,,,FEW,5000,SCT,6000,,,,,VFR,,,,,,,,,,,,METAR,5.0
KAPF 111853Z 06008KT 10SM CLR 23/12 A3008 RMK AO2 SLP186 T02280122,KAPF,2020-12-11T18:53:00Z,26.15,-81.77,22.8,12.2,60,8,,10.0,30.079725,1018.6,,,TRUE,,,,,,,CLR,,,,,,,,VFR,,,,,,,,,,,,METAR,2.0
KAOO 111853Z AUTO 22009KT 10SM CLR 15/03 A3003 RMK AO2 SLP174 T01500028,KAOO,2020-12-11T18:53:00Z,40.3,-78.32,15.0,2.8,220,9,,10.0,30.029528,1017.4,,TRUE,TRUE,,,,,,,CLR,,,,,,,,VFR,,,,,,,,,,,,METAR,450.0
KAOH 111853Z AUTO 18010KT 10SM CLR 15/06 A2991 RMK AO2 SLP131 T01500056,KAOH,2020-12-11T18:53:00Z,40.7,-84.02,15.0,5.6,180,10,,10.0,29.911417,1013.1,,TRUE,TRUE,,,,,,,CLR,,,,,,,,VFR,,,,,,,,,,,,METAR,294.0
KANB 111853Z AUTO 23008KT 10SM CLR 20/08 A3009 RMK AO2 SLP191 T02000078,KANB,2020-12-11T18:53:00Z,33.58,-85.85,20.0,7.8,230,8,,10.0,30.088583,1019.1,,TRUE,TRUE,,,,,,,CLR,,,,,,,,VFR,,,,,,,,,,,,METAR,187.0
KAMG 111853Z AUTO 22006KT 10SM CLR 20/07 A3014 RMK AO2 SLP204 T02000072,KAMG,2020-12-11T18:53:00Z,31.53,-82.5,20.0,7.2,220,6,,10.0,30.138779,1020.4,,TRUE,TRUE,,,,,,,CLR,,,,,,,,VFR,,,,,,,,,,,,METAR,61.0
KAMA 111853Z 34005KT 10SM OVC050 05/M02 A2986 RMK AO2 SLP111 T00501017,KAMA,2020-12-11T18:53:00Z,35.22,-101.72,5.0,-1.7,340,5,,10.0,29.861221,1011.1,,,TRUE,,,,,,,OVC,5000,,,,,,,VFR,,,,,,,,,,,,METAR,1102.0
KALW 111853Z 20004KT 10SM FEW055 SCT075 OVC090 04/00 A3007 RMK AO2 SLP194 T00390000,KALW,2020-12-11T18:53:00Z,46.1,-118.28,3.9,0.0,200,4,,10.0,30.070866,1019.4,,,TRUE,,,,,,,FEW,5500,SCT,7500,OVC,9000,,,VFR,,,,,,,,,,,,METAR,355.0
KALI 111853Z AUTO 23008KT 10SM CLR 26/17 A2983 RMK AO2 SLP101 T02560167,KALI,2020-12-11T18:53:00Z,27.73,-98.02,25.6,16.7,230,8,,10.0,29.828741,1010.1,,TRUE,TRUE,,,,,,,CLR,,,,,,,,VFR,,,,,,,,,,,,METAR,52.0
KAIA 111853Z AUTO 03009KT 10SM OVC075 M01/M07 A2997 RMK AO2 SLP176 T10061067,KAIA,2020-12-11T18:53:00Z,42.05,-102.8,-0.6,-6.7,30,9,,10.0,29.970472,1017.6,,TRUE,TRUE,,,,,,,OVC,7500,,,,,,,VFR,,,,,,,,,,,,METAR,1198.0
KAGS 111853Z 00000KT 10SM CLR 21/08 A3013 RMK AO2 SLP201 T02060083,KAGS,2020-12-11T18:53:00Z,33.37,-81.97,20.6,8.3,0,0,,10.0,30.129921,1020.1,,,TRUE,,,,,,,CLR,,,,,,,,VFR,,,,,,,,,,,,METAR,40.0
KAGC 111853Z 22010KT 10SM CLR 16/02 A3001 RMK AO2 SLP169 T01610022,KAGC,2020-12-11T18:53:00Z,40.35,-79.92,16.1,2.2,220,10,,10.0,30.008858,1016.9,,,TRUE,,,,,,,CLR,,,,,,,,VFR,,,,,,,,,,,,METAR,380.0
KAEX 111853Z 17013KT 10SM BR SCT042 21/13 A2994 RMK AO2 SLP142 T02110133,KAEX,2020-12-11T18:53:00Z,31.33,-92.57,21.1,13.3,170,13,,10.0,29.940945,1014.2,,,TRUE,,,,,,BR,SCT,4200,,,,,,,VFR,,,,,,,,,,,,METAR,25.0
KADG 111853Z AUTO 11006KT 9SM CLR 11/03 A2992 RMK AO2 SLP139 T01060033,KADG,2020-12-11T18:53:00Z,41.87,-84.08,10.6,3.3,110,6,,9.0,29.920275,1013.9,,TRUE,TRUE,,,,,,,CLR,,,,,,,,VFR,,,,,,,,,,,,METAR,244.0
KACV 111853Z AUTO 11004KT 10SM -RA OVC047 07/04 A3019 RMK AO2 SLP231 P0003 T00670039,KACV,2020-12-11T18:53:00Z,40.98,-124.1,6.7,3.9,110,4,,10.0,30.188976,1023.1,,TRUE,TRUE,,,,,,-RA,OVC,4700,,,,,,,VFR,,,,,,0.03,,,,,,METAR,63.0
KACK 111853Z 22012KT 10SM FEW032 12/07 A3017 RMK AO2 SLP215 T01220072,KACK,2020-12-11T18:53:00Z,41.25,-70.07,12.2,7.2,220,12,,10.0,30.171259,1021.5,,,TRUE,,,,,,,FEW,3200,,,,,,,VFR,,,,,,,,,,,,METAR,12.0
KABY 111853Z 00000KT 10SM CLR 22/07 A3013 RMK AO2 SLP203 T02170067,KABY,2020-12-11T18:53:00Z,31.53,-84.2,21.7,6.7,0,0,,10.0,30.129921,1020.3,,,TRUE,,,,,,,CLR,,,,,,,,VFR,,,,,,,,,,,,METAR,60.0
KABR 111853Z AUTO 03008KT 10SM OVC008 M02/M05 A3014 RMK AO2 SLP223 T10171050,KABR,2020-12-11T18:53:00Z,45.45,-98.42,-1.7,-5.0,30,8,,10.0,30.138779,1022.3,,TRUE,TRUE,,,,,,,OVC,800,,,,,,,IFR,,,,,,,,,,,,METAR,397.0
KAAF 111853Z AUTO 13010KT 10SM CLR 21/14 A3014 RMK AO2 SLP204 T02060144,KAAF,2020-12-11T18:53:00Z,29.73,-85.03,20.6,14.4,130,10,,10.0,30.138779,1020.4,,TRUE,TRUE,,,,,,,CLR,,,,,,,,VFR,,,,,,,,,,,,METAR,5.0
PTYA 111852Z VRB03KT 12SM SCT016 SCT130 BKN300 26/24 A2979 RMK SLP088 T02570239,PTYA,2020-12-11T18:52:00Z,9.48,138.08,25.7,23.9,0,3,,12.0,29.790354,1008.8,,,,,,,,,,SCT,1600,SCT,13000,BKN,30000,,,VFR,,,,,,,,,,,,METAR,4.0
PKMR 111852Z 09007KT 15SM FEW014TCU SCT050 BKN120 OVC300 27/24 A2977 RMK TCU W SLP081 T02670235,PKMR,2020-12-11T18:52:00Z,7.08,171.38,26.7,23.5,90,7,,15.0,29.769686,1008.1,,,,,,,,,,FEW,1400,SCT,5000,BKN,12000,OVC,30000,VFR,,,,,,,,,,,,METAR,7.0
PAQT 111852Z 07010KT 10SM OVC022 M22/M24 A3056 RMK (SCC FSS),PAQT,2020-12-11T18:52:00Z,70.22,-151.0,-22.0,-24.0,70,10,,10.0,30.561024,,,,,,,,,,,OVC,2200,,,,,,,MVFR,,,,,,,,,,,,METAR,11.0
PABA 111852Z AUTO 08019KT 9SM OVC013 M19/M21 A3056 RMK AO2 SLP355 T11891211 FZRANO,PABA,2020-12-11T18:52:00Z,70.13,-143.58,-18.9,-21.1,80,19,,9.0,30.561024,1035.5,,TRUE,TRUE,,,,TRUE,,,OVC,1300,,,,,,,MVFR,,,,,,,,,,,,SPECI,1.0
MMQT 111852Z 29010KT 10SM FEW025 22/09 A3023 RMK 8/100,MMQT,2020-12-11T18:52:00Z,20.62,-100.18,22.0,9.0,290,10,,10.0,30.230314,,,,,,,,,,,FEW,2500,,,,,,,VFR,,,,,,,,,,,,SPECI,1909.0
KVTN 111852Z AUTO 36009KT 8SM OVC009 M01/M05 A3002 RMK AO2 SLP191 T10111050,KVTN,2020-12-11T18:52:00Z,42.87,-100.55,-1.1,-5.0,360,9,,8.0,30.02067,1019.1,,TRUE,TRUE,,,,,,,OVC,900,,,,,,,IFR,,,,,,,,,,,,METAR,790.0
KTRM 111852Z AUTO VRB03KT 9SM CLR 17/05 A3007 RMK AO2 SLP182 T01720050,KTRM,2020-12-11T18:52:00Z,33.63,-116.17,17.2,5.0,0,3,,9.0,30.070866,1018.2,,TRUE,TRUE,,,,,,,CLR,,,,,,,,VFR,,,,,,,,,,,,METAR,-39.0
KTOL 111852Z 02004KT 10SM CLR 13/04 A2992 RMK AO2 SLP135 T01330039 $,KTOL,2020-12-11T18:52:00Z,41.58,-83.8,13.3,3.9,20,4,,10.0,29.920275,1013.5,,,TRUE,TRUE,,,,,,CLR,,,,,,,,VFR,,,,,,,,,,,,METAR,206.0
KTAN 111852Z AUTO VRB06G15KT 10SM CLR 11/04 A3012 RMK AO2 SLP199 T01110039,KTAN,2020-12-11T18:52:00Z,41.88,-71.02,11.1,3.9,0,6,15,10.0,30.121063,1019.9,,TRUE,TRUE,,,,,,,CLR,,,,,,,,VFR,,,,,,,,,,,,METAR,8.0
KSUX 111852Z 04014G21KT 10SM OVC100 04/M01 A2992 RMK AO2 SLP139 T00391011,KSUX,2020-12-11T18:52:00Z,42.38,-96.38,3.9,-1.1,40,14,21,10.0,29.920275,1013.9,,,TRUE,,,,,,,OVC,10000,,,,,,,VFR,,,,,,,,,,,,METAR,332.0
KSPS 111852Z 32011KT 10SM BKN095 BKN110 10/04 A2987 RMK AO2 SLP111 T01000044,KSPS,2020-12-11T18:52:00Z,33.98,-98.5,10.0,4.4,320,11,,10.0,29.870079,1011.1,,,TRUE,,,,,,,BKN,9500,BKN,11000,,,,,VFR,,,,,,,,,,,,METAR,310.0
KSPI 111852Z 00000KT 10SM SCT065 OVC080 13/06 A2984 RMK AO2 SLP106 T01280056,KSPI,2020-12-11T18:52:00Z,39.85,-89.68,12.8,5.6,0,0,,10.0,29.840551,1010.6,,,TRUE,,,,,,,SCT,6500,OVC,8000,,,,,VFR,,,,,,,,,,,,METAR,179.0
KREO 111852Z AUTO 24011KT 03/M09 A3004 RMK AO1 SLP192 T00281089,KREO,2020-12-11T18:52:00Z,42.58,-117.87,2.8,-8.9,240,11,,,30.041338,1019.2,,TRUE,TRUE,,,,,,,,,,,,,,,,,,,,,,,,,,,METAR,1237.0
KRAP 111852Z 15004KT 10SM OVC095 M01/M06 A3003 RMK AO2 SLP204 T10061061,KRAP,2020-12-11T18:52:00Z,44.05,-103.05,-0.6,-6.1,150,4,,10.0,30.029528,1020.4,,,TRUE,,,,,,,OVC,9500,,,,,,,VFR,,,,,,,,,,,,METAR,965.0
KPYM 111852Z AUTO 22013G18KT 10SM CLR 11/03 A3011 RMK AO2 SLP199 T01060028,KPYM,2020-12-11T18:52:00Z,41.92,-70.73,10.6,2.8,220,13,18,10.0,30.109253,1019.9,,TRUE,TRUE,,,,,,,CLR,,,,,,,,VFR,,,,,,,,,,,,METAR,42.0
KPWK 111852Z 04011G21KT 10SM OVC013 07/03 A2995 RMK AO2 PK WND 36027/1811 SLP147 T00670033,KPWK,2020-12-11T18:52:00Z,42.12,-87.9,6.7,3.3,40,11,21,10.0,29.949802,1014.7,,,TRUE,,,,,,,OVC,1300,,,,,,,MVFR,,,,,,,,,,,,METAR,194.0
KPSX 111852Z AUTO 14010KT 10SM FEW035 SCT043 BKN070 23/19 A2987 RMK AO2 RAB22E32 SLP113 P0000 T02280194 PWINO $,KPSX,2020-12-11T18:52:00Z,28.72,-96.25,22.8,19.4,140,10,,10.0,29.870079,1011.3,,TRUE,TRUE,TRUE,,,,TRUE,,FEW,3500,SCT,4300,BKN,7000,,,VFR,,,,,,0.005,,,,,,METAR,4.0
KPPF 111852Z AUTO A2979 RMK AO2 SLPNO PWINO FZRANO PNO $,KPPF,2020-12-11T18:52:00Z,37.33,-95.5,,,,,,,29.790354,,,TRUE,TRUE,TRUE,,,TRUE,TRUE,,,,,,,,,,,,,,,,,,,,,,METAR,265.0
KP69 111852Z AUTO 00000KT 01/M01 A3009 RMK AO1 SLP212 T00061011,KP69,2020-12-11T18:52:00Z,46.15,-115.6,0.6,-1.1,0,0,,,30.088583,1021.2,,TRUE,TRUE,,,,,,,,,,,,,,,,,,,,,,,,,,,METAR,447.0
KORE 111852Z AUTO 19009KT 10SM CLR 07/01 A3007 RMK AO2 SLP191 T00670011,KORE,2020-12-11T18:52:00Z,42.57,-72.28,6.7,1.1,190,9,,10.0,30.070866,1019.1,,TRUE,TRUE,,,,,,,CLR,,,,,,,,VFR,,,,,,,,,,,,METAR,165.0
KOMA 111852Z 02015G21KT 10SM -RA OVC012 03/01 A2984 RMK AO2 SLP111 P0000 T00280011,KOMA,2020-12-11T18:52:00Z,41.32,-95.9,2.8,1.1,20,15,21,10.0,29.840551,1011.1,,,TRUE,,,,,,-RA,OVC,1200,,,,,,,MVFR,,,,,,0.005,,,,,,METAR,299.0
KOKC 111852Z 30010KT 10SM FEW020 BKN110 BKN250 07/02 A2985 RMK AO2 SLP107 T00720017,KOKC,2020-12-11T18:52:00Z,35.38,-97.6,7.2,1.7,300,10,,10.0,29.84941,1010.7,,,TRUE,,,,,,,FEW,2000,BKN,11000,BKN,25000,,,VFR,,,,,,,,,,,,METAR,391.0
KOKB 111852Z AUTO 19003KT 9SM CLR 16/08 A3013 RMK AO2 SLP202 T01610078,KOKB,2020-12-11T18:52:00Z,33.22,-117.35,16.1,7.8,190,3,,9.0,30.129921,1020.2,,TRUE,TRUE,,,,,,,CLR,,,,,,,,VFR,,,,,,,,,,,,METAR,7.0
KNZY 111852Z VRB04KT 10SM FEW030 FEW250 17/08 A3013 RMK AO2 SLP202 T01670078,KNZY,2020-12-11T18:52:00Z,32.7,-117.22,16.7,7.8,0,4,,10.0,30.129921,1020.2,,,TRUE,,,,,,,FEW,3000,FEW,25000,,,,,VFR,,,,,,,,,,,,METAR,4.0
KNRB 111852Z 09008KT 10SM FEW250 21/12 A3014 RMK AO2 SLP206 T02060117,KNRB,2020-12-11T18:52:00Z,30.38,-81.42,20.6,11.7,90,8,,10.0,30.138779,1020.6,,,TRUE,,,,,,,FEW,25000,,,,,,,VFR,,,,,,,,,,,,METAR,4.0
KNHK 111852Z 20009KT 10SM FEW100 SCT250 14/07 A3013 RMK AO2 SLP204 T01390067 $,KNHK,2020-12-11T18:52:00Z,38.28,-76.4,13.9,6.7,200,9,,10.0,30.129921,1020.4,,,TRUE,TRUE,,,,,,FEW,10000,SCT,25000,,,,,VFR,,,,,,,,,,,,METAR,5.0
KN60 111852Z AUTO VRB03KT M05/M06 A3013 RMK AO1 SLP239 T10501061,KN60,2020-12-11T18:52:00Z,47.65,-101.43,-5.0,-6.1,0,3,,,30.129921,1023.9,,TRUE,TRUE,,,,,,,,,,,,,,,,,,,,,,,,,,,METAR,582.0
KMWH 111852Z 00000KT 2SM BR BKN003 OVC016 02/01 A3006 RMK AO2 SLP190 T00220006,KMWH,2020-12-11T18:52:00Z,47.2,-119.32,2.2,0.6,0,0,,2.0,30.059055,1019.0,,,TRUE,,,,,,BR,BKN,300,OVC,1600,,,,,LIFR,,,,,,,,,,,,METAR,355.0
KMLF 111852Z AUTO 02007KT 10SM CLR 05/M12 A3003 RMK AO2 WSHFT 1823 SLP193 T00501117,KMLF,2020-12-11T18:52:00Z,38.42,-113.02,5.0,-11.7,20,7,,10.0,30.029528,1019.3,,TRUE,TRUE,,,,,,,CLR,,,,,,,,VFR,,,,,,,,,,,,METAR,1537.0
KMKE 111852Z 04017G24KT 7SM -RA BKN013 OVC018 04/02 A3000 RMK AO2 PK WND 03028/1810 SLP164 P0007 T00390017,KMKE,2020-12-11T18:52:00Z,42.95,-87.9,3.9,1.7,40,17,24,7.0,30.0,1016.4,,,TRUE,,,,,,-RA,BKN,1300,OVC,1800,,,,,MVFR,,,,,,0.07,,,,,,METAR,203.0
KMFD 111852Z 19010KT 10SM CLR 15/05 A2995 RMK AO2 SLP146 T01500050,KMFD,2020-12-11T18:52:00Z,40.82,-82.52,15.0,5.0,190,10,,10.0,29.949802,1014.6,,,TRUE,,,,,,,CLR,,,,,,,,VFR,,,,,,,,,,,,METAR,394.0
KMEB 111852Z AUTO 15006KT 10SM CLR 20/09 A3014 RMK AO2 SLP206 T02000089,KMEB,2020-12-11T18:52:00Z,34.78,-79.37,20.0,8.9,150,6,,10.0,30.138779,1020.6,,TRUE,TRUE,,,,,,,CLR,,,,,,,,VFR,,,,,,,,,,,,METAR,65.0
KMDH 111852Z 19013G25KT 10SM CLR 18/11 A2987 RMK AO2 PK WND 21026/1818 SLP113 T01830106,KMDH,2020-12-11T18:52:00Z,37.78,-89.25,18.3,10.6,190,13,25,10.0,29.870079,1011.3,,,TRUE,,,,,,,CLR,,,,,,,,VFR,,,,,,,,,,,,METAR,122.0
KLWC 111852Z AUTO 31007KT 9SM OVC014 07/04 A2976 RMK AO1 SLP081 T00670039,KLWC,2020-12-11T18:52:00Z,39.02,-95.22,6.7,3.9,310,7,,9.0,29.760826,1008.1,,TRUE,TRUE,,,,,,,OVC,1400,,,,,,,MVFR,,,,,,,,,,,,METAR,252.0
KIOW 111852Z AUTO 06010KT 4SM -RA BR OVC008 04/03 A2989 RMK AO2 SLP127 P0005 T00390028,KIOW,2020-12-11T18:52:00Z,41.63,-91.55,3.9,2.8,60,10,,4.0,29.890747,1012.7,,TRUE,TRUE,,,,,,-RA BR,OVC,800,,,,,,,IFR,,,,,,0.05,,,,,,METAR,199.0
KIJD 111852Z AUTO 21009KT 9SM CLR 11/02 A3011 RMK AO2 SLP198 T01060022,KIJD,2020-12-11T18:52:00Z,41.75,-72.18,10.6,2.2,210,9,,9.0,30.109253,1019.8,,TRUE,TRUE,,,,,,,CLR,,,,,,,,VFR,,,,,,,,,,,,METAR,73.0
KIEN 111852Z AUTO VRB03KT 10SM FEW014 FEW060 M01/M06 A3002 RMK AO2 SLP200 T10061056,KIEN,2020-12-11T18:52:00Z,43.03,-102.52,-0.6,-5.6,0,3,,10.0,30.02067,1020.0,,TRUE,TRUE,,,,,,,FEW,1400,FEW,6000,,,,,VFR,,,,,,,,,,,,METAR,1002.0
KIAD 111852Z 19010G16KT 10SM SCT250 16/04 A3010 RMK AO2 SLP191 T01610044,KIAD,2020-12-11T18:52:00Z,38.93,-77.45,16.1,4.4,190,10,16,10.0,30.100393,1019.1,,,TRUE,,,,,,,SCT,25000,,,,,,,VFR,,,,,,,,,,,,METAR,90.0
KHUT 111852Z 33012KT 10SM OVC018 04/M02 A2982 RMK AO2 SLP096 T00391017,KHUT,2020-12-11T18:52:00Z,38.07,-97.87,3.9,-1.7,330,12,,10.0,29.819881,1009.6,,,TRUE,,,,,,,OVC,1800,,,,,,,MVFR,,,,,,,,,,,,METAR,464.0
KHRL 111852Z 19021G26KT 10SM CLR 29/18 A2982 RMK AO2 PK WND 20033/1804 SLP098 T02940183,KHRL,2020-12-11T18:52:00Z,26.23,-97.65,29.4,18.3,190,21,26,10.0,29.819881,1009.8,,,TRUE,,,,,,,CLR,,,,,,,,VFR,,,,,,,,,,,,METAR,9.0
KHIE 111852Z AUTO 00000KT 10SM CLR 03/M02 A3000 RMK AO2 SLP173 T00281022,KHIE,2020-12-11T18:52:00Z,44.37,-71.55,2.8,-2.2,0,0,,10.0,30.0,1017.3,,TRUE,TRUE,,,,,,,CLR,,,,,,,,VFR,,,,,,,,,,,,METAR,321.0
KGLS 111852Z 13011KT 10SM BKN065 22/17 A2991 RMK AO2 SLP129 T02220172,KGLS,2020-12-11T18:52:00Z,29.27,-94.87,22.2,17.2,130,11,,10.0,29.911417,1012.9,,,TRUE,,,,,,,BKN,6500,,,,,,,VFR,,,,,,,,,,,,METAR,2.0
KFIT 111852Z AUTO 18005KT 10SM CLR 09/01 A3007 RMK AO2 SLP188 T00940011,KFIT,2020-12-11T18:52:00Z,42.55,-71.75,9.4,1.1,180,5,,10.0,30.070866,1018.8,,TRUE,TRUE,,,,,,,CLR,,,,,,,,VFR,,,,,,,,,,,,METAR,102.0
KEST 111852Z AUTO 05017KT 10SM OVC100 02/M02 A2997 RMK AO2 PK WND 04026/1832 SLP162 T00171022,KEST,2020-12-11T18:52:00Z,43.4,-94.75,1.7,-2.2,50,17,,10.0,29.970472,1016.2,,TRUE,TRUE,,,,,,,OVC,10000,,,,,,,VFR,,,,,,,,,,,,METAR,401.0
KDCA 111852Z 19008KT 10SM BKN250 16/05 A3012 RMK AO2 SLP198 T01610050,KDCA,2020-12-11T18:52:00Z,38.85,-77.03,16.1,5.0,190,8,,10.0,30.121063,1019.8,,,TRUE,,,,,,,BKN,25000,,,,,,,VFR,,,,,,,,,,,,METAR,4.0
KCVG 111852Z 20012KT 10SM SCT150 BKN230 17/03 A2996 RMK AO2 SLP144 T01670033,KCVG,2020-12-11T18:52:00Z,39.05,-84.67,16.7,3.3,200,12,,10.0,29.958662,1014.4,,,TRUE,,,,,,,SCT,15000,BKN,23000,,,,,VFR,,,,,,,,,,,,METAR,264.0
KCQX 111852Z AUTO 21005KT 10SM CLR 10/06 A3016 RMK AO2 SLP215 T01000056,KCQX,2020-12-11T18:52:00Z,41.68,-70.0,10.0,5.6,210,5,,10.0,30.159449,1021.5,,TRUE,TRUE,,,,,,,CLR,,,,,,,,VFR,,,,,,,,,,,,METAR,17.0
KCNU 111852Z AUTO 28007KT 8SM -RA FEW019 OVC075 07/03 A2979 RMK AO2 RAB45 SLP085 P0000 T00720033,KCNU,2020-12-11T18:52:00Z,37.67,-95.48,7.2,3.3,280,7,,8.0,29.790354,1008.5,,TRUE,TRUE,,,,,,-RA,FEW,1900,OVC,7500,,,,,VFR,,,,,,0.005,,,,,,METAR,301.0
KCLT 111852Z 18008KT 10SM FEW250 17/08 A3015 RMK AO2 SLP209 T01720078,KCLT,2020-12-11T18:52:00Z,35.22,-80.95,17.2,7.8,180,8,,10.0,30.15059,1020.9,,,TRUE,,,,,,,FEW,25000,,,,,,,VFR,,,,,,,,,,,,METAR,223.0
KCKV 111852Z AUTO 20012KT 10SM CLR 18/09 A2997 RMK AO2 SLP147 T01780094,KCKV,2020-12-11T18:52:00Z,36.62,-87.42,17.8,9.4,200,12,,10.0,29.970472,1014.7,,TRUE,TRUE,,,,,,,CLR,,,,,,,,VFR,,,,,,,,,,,,METAR,166.0
KCID 111852Z 06014KT 5SM -RA BR OVC008 03/02 A2987 RMK AO2 UPB04E30 SLP120 P0002 T00280017,KCID,2020-12-11T18:52:00Z,41.88,-91.72,2.8,1.7,60,14,,5.0,29.870079,1012.0,,,TRUE,,,,,,-RA BR,OVC,800,,,,,,,IFR,,,,,,0.02,,,,,,METAR,257.0
KCFV 111852Z AUTO 27011KT 10SM CLR 09/03 A2978 RMK AO2 SLP086 T00890033,KCFV,2020-12-11T18:52:00Z,37.08,-95.57,8.9,3.3,270,11,,10.0,29.778543,1008.6,,TRUE,TRUE,,,,,,,CLR,,,,,,,,VFR,,,,,,,,,,,,METAR,228.0
KCDJ 111852Z AUTO 03006KT 06/05 A2976 RMK AO1 SLP083 P0003 T00560050,KCDJ,2020-12-11T18:52:00Z,39.77,-93.48,5.6,5.0,30,6,,,29.760826,1008.3,,TRUE,TRUE,,,,,,,,,,,,,,,,,,,,,0.03,,,,,,METAR,236.0
KBML 111852Z AUTO 00000KT 10SM CLR 02/M02 A2999 RMK AO2 SLP171 T00221022,KBML,2020-12-11T18:52:00Z,44.58,-71.18,2.2,-2.2,0,0,,10.0,29.991142,1017.1,,TRUE,TRUE,,,,,,,CLR,,,,,,,,VFR,,,,,,,,,,,,METAR,344.0
KBLU 111852Z AUTO 18010KT 10SM SCT075 SCT095 05/M07 A3012 RMK AO2 SLP189 T00501072,KBLU,2020-12-11T18:52:00Z,39.28,-120.7,5.0,-7.2,180,10,,10.0,30.121063,1018.9,,TRUE,TRUE,,,,,,,SCT,7500,SCT,9500,,,,,VFR,,,,,,,,,,,,METAR,1605.0
KBLH 111852Z AUTO 18005KT 10SM CLR 16/09 A3007 RMK AO2 SLP178 T01560089,KBLH,2020-12-11T18:52:00Z,33.62,-114.72,15.6,8.9,180,5,,10.0,30.070866,1017.8,,TRUE,TRUE,,,,,,,CLR,,,,,,,,VFR,,,,,,,,,,,,METAR,119.0
KBLF 111852Z AUTO 24007KT 10SM CLR 16/01 A3011 RMK AO2 SLP181 T01560006,KBLF,2020-12-11T18:52:00Z,37.3,-81.2,15.6,0.6,240,7,,10.0,30.109253,1018.1,,TRUE,TRUE,,,,,,,CLR,,,,,,,,VFR,,,,,,,,,,,,METAR,871.0
KBDR 111852Z 23008KT 9SM CLR 12/05 A3012 RMK AO2 SLP199 T01170050,KBDR,2020-12-11T18:52:00Z,41.17,-73.13,11.7,5.0,230,8,,9.0,30.121063,1019.9,,,TRUE,,,,,,,CLR,,,,,,,,VFR,,,,,,,,,,,,METAR,5.0
KBAN 111852Z AUTO 23007G22KT 200V270 8SM FEW100 BKN120 06/M22 A3006 RMK AO2 SLP164 T00561222 $,KBAN,2020-12-11T18:52:00Z,38.35,-119.52,5.6,-22.2,230,7,22,8.0,30.059055,1016.4,,TRUE,TRUE,TRUE,,,,,,FEW,10000,BKN,12000,,,,,VFR,,,,,,,,,,,,METAR,2067.0
KATL 111852Z 20005KT 10SM BKN200 BKN250 19/04 A3011 RMK AO2 SLP193 T01890044,KATL,2020-12-11T18:52:00Z,33.63,-84.45,18.9,4.4,200,5,,10.0,30.109253,1019.3,,,TRUE,,,,,,,BKN,20000,BKN,25000,,,,,VFR,,,,,,,,,,,,METAR,309.0
KARR 111852Z 05015G24KT 10SM -RA BKN060 OVC070 06/02 A2989 RMK AO2 RAB43 SLP128 P0000 T00610022,KARR,2020-12-11T18:52:00Z,41.77,-88.48,6.1,2.2,50,15,24,10.0,29.890747,1012.8,,,TRUE,,,,,,-RA,BKN,6000,OVC,7000,,,,,VFR,,,,,,0.005,,,,,,METAR,213.0
KAQW 111852Z AUTO 01004KT 10SM CLR 11/02 A3004 RMK AO2 SLP177 T01060017,KAQW,2020-12-11T18:52:00Z,42.7,-73.17,10.6,1.7,10,4,,10.0,30.041338,1017.7,,TRUE,TRUE,,,,,,,CLR,,,,,,,,VFR,,,,,,,,,,,,METAR,196.0
KAFN 111852Z AUTO 19008KT 160V230 10SM CLR 06/00 A3005 RMK AO2 SLP191 T00610000,KAFN,2020-12-11T18:52:00Z,42.8,-72.0,6.1,0.0,190,8,,10.0,30.050198,1019.1,,TRUE,TRUE,,,,,,,CLR,,,,,,,,VFR,,,,,,,,,,,,METAR,308.0
KABQ 111852Z 30024G36KT 10SM SCT070 08/M08 A2994 RMK AO2 PK WND 30036/1843 SLP121 T00831078,KABQ,2020-12-11T18:52:00Z,35.05,-106.62,8.3,-7.8,300,24,36,10.0,29.940945,1012.1,,,TRUE,,,,,,,SCT,7000,,,,,,,VFR,,,,,,,,,,,,METAR,1620.0
KABI 111852Z 33006KT 10SM CLR 16/07 A2988 RMK AO2 SLP104 T01560072,KABI,2020-12-11T18:52:00Z,32.42,-99.68,15.6,7.2,330,6,,10.0,29.878937,1010.4,,,TRUE,,,,,,,CLR,,,,,,,,VFR,,,,,,,,,,,,METAR,543.0
PAMD 111851Z AUTO 07010KT 10SM CLR 02/M01 A3002 RMK AO2 SLP153 T00171006 FZRANO,PAMD,2020-12-11T18:51:00Z,59.43,-146.3,1.7,-0.6,70,10,,10.0,30.02067,1015.3,,TRUE,TRUE,,,,TRUE,,,CLR,,,,,,,,VFR,,,,,,,,,,,,METAR,20.0
MUGM 111851Z 02013G17KT 7SM -RA SCT025 BKN030 BKN100 24/22 A2996 RMK AO2 SLP146 VCSH NW AND N-NE P0061 T02440217 $,MUGM,2020-12-11T18:51:00Z,19.9,-75.2,24.4,21.7,20,13,17,7.0,29.958662,1014.6,,,TRUE,TRUE,,,,,-RA,SCT,2500,BKN,3000,BKN,10000,,,MVFR,,,,,,0.61,,,,,,SPECI,21.0
MTCH 111851Z 04013KT 7000 SCT018CB BKN050 24/21 Q1014 RMK:CB/ALLQDS,MTCH,2020-12-11T18:51:00Z,19.75,-72.18,24.0,21.0,40,13,,4.35,29.940945,,,,,,,,,,,SCT,1800,BKN,5000,,,,,MVFR,,,,,,,,,,,,SPECI,3.0
MMTO 111851Z 24005KT 6SM SCT015 20/04 A3031 RMK 8/100 HZY,MMTO,2020-12-11T18:51:00Z,19.35,-99.57,20.0,4.0,240,5,,6.0,30.31004,,,,,,,,,,,SCT,1500,,,,,,,VFR,,,,,,,,,,,,METAR,2582.0
MMCZ 111851Z 05009KT 8SM SCT015 26/16 A2998 RMK 8/100 SC,MMCZ,2020-12-11T18:51:00Z,20.52,-86.92,26.0,16.0,50,9,,8.0,29.97933,,,,,,,,,,,SCT,1500,,,,,,,VFR,,,,,,,,,,,,METAR,7.0
KYNG 111851Z 20010KT 10SM BKN250 14/03 A2997 RMK AO2 SLP152 T01440028,KYNG,2020-12-11T18:51:00Z,41.25,-80.67,14.4,2.8,200,10,,10.0,29.970472,1015.2,,,TRUE,,,,,,,BKN,25000,,,,,,,VFR,,,,,,,,,,,,METAR,356.0
KTEB 111851Z 17006KT 10SM CLR 12/04 A3009 RMK AO2 SLP190 T01220044,KTEB,2020-12-11T18:51:00Z,40.87,-74.05,12.2,4.4,170,6,,10.0,30.088583,1019.0,,,TRUE,,,,,,,CLR,,,,,,,,VFR,,,,,,,,,,,,METAR,3.0
KSTL 111851Z 12004KT 10SM -RA SCT060 SCT075 OVC100 15/07 A2982 RMK AO2 RAB48 SLP097 P0000 T01500072,KSTL,2020-12-11T18:51:00Z,38.75,-90.37,15.0,7.2,120,4,,10.0,29.819881,1009.7,,,TRUE,,,,,,-RA,SCT,6000,SCT,7500,OVC,10000,,,VFR,,,,,,0.005,,,,,,METAR,163.0
KSNT 111851Z AUTO 00000KT M12/M15 A2992 RMK AO1 SLP195 P0001 T11171150,KSNT,2020-12-11T18:51:00Z,44.17,-114.93,-11.7,-15.0,0,0,,,29.920275,1019.5,,TRUE,TRUE,,,,,,,,,,,,,,,,,,,,,0.01,,,,,,METAR,1980.0
KSMX 111851Z COR 30006KT 8SM FEW007 SCT025 09/07 A3019 RMK AO2 SLP228 T00940067,KSMX,2020-12-11T18:51:00Z,34.9,-120.45,9.4,6.7,300,6,,8.0,30.188976,1022.8,TRUE,,TRUE,,,,,,,FEW,700,SCT,2500,,,,,VFR,,,,,,,,,,,,METAR,73.0
KSMO 111851Z 20004KT 10SM BKN027 15/07 A3013 RMK AO2 SLP203 T01500072,KSMO,2020-12-11T18:51:00Z,34.02,-118.45,15.0,7.2,200,4,,10.0,30.129921,1020.3,,,TRUE,,,,,,,BKN,2700,,,,,,,MVFR,,,,,,,,,,,,METAR,56.0
KSLK 111851Z AUTO 22007KT 10SM BKN120 04/00 A2994 RMK AO2 SLP153 T00440000,KSLK,2020-12-11T18:51:00Z,44.4,-74.2,4.4,0.0,220,7,,10.0,29.940945,1015.3,,TRUE,TRUE,,,,,,,BKN,12000,,,,,,,VFR,,,,,,,,,,,,METAR,502.0
KSJT 111851Z 26017G24KT 10SM CLR 22/04 A2987 RMK AO2 PK WND 28027/1809 SLP099 T02220044,KSJT,2020-12-11T18:51:00Z,31.37,-100.5,22.2,4.4,260,17,24,10.0,29.870079,1009.9,,,TRUE,,,,,,,CLR,,,,,,,,VFR,,,,,,,,,,,,METAR,582.0
KSBD 111851Z 00000KT 5SM HZ OVC025 13/05 A3014,KSBD,2020-12-11T18:51:00Z,34.08,-117.25,13.0,5.0,0,0,,5.0,30.138779,,,,,,,,,,HZ,OVC,2500,,,,,,,MVFR,,,,,,,,,,,,METAR,353.0
KSAN 111851Z 21005KT 10SM SCT030 17/07 A3015 RMK AO2 SLP209 T01670072,KSAN,2020-12-11T18:51:00Z,32.73,-117.18,16.7,7.2,210,5,,10.0,30.15059,1020.9,,,TRUE,,,,,,,SCT,3000,,,,,,,VFR,,,,,,,,,,,,METAR,3.0
KSAD 111851Z AUTO 24006KT 10SM FEW027 12/08 A3008 RMK AO2 SLP169 T01220078,KSAD,2020-12-11T18:51:00Z,32.85,-109.63,12.2,7.8,240,6,,10.0,30.079725,1016.9,,TRUE,TRUE,,,,,,,FEW,2700,,,,,,,VFR,,,,,,,,,,,,METAR,937.0
KRDU 111851Z 23007KT 10SM FEW040 FEW250 19/09 A3014 RMK AO2 SLP207 T01890094,KRDU,2020-12-11T18:51:00Z,35.9,-78.78,18.9,9.4,230,7,,10.0,30.138779,1020.7,,,TRUE,,,,,,,FEW,4000,FEW,25000,,,,,VFR,,,,,,,,,,,,METAR,121.0
KPWM 111851Z 21006KT 10SM FEW120 FEW200 BKN250 07/00 A3007 RMK AO2 SLP185 T00670000,KPWM,2020-12-11T18:51:00Z,43.65,-70.3,6.7,0.0,210,6,,10.0,30.070866,1018.5,,,TRUE,,,,,,,FEW,12000,FEW,20000,BKN,25000,,,VFR,,,,,,,,,,,,METAR,15.0
KPVD 111851Z 20010KT 10SM FEW030 BKN250 11/04 A3013 RMK AO2 SLP201 T01110039,KPVD,2020-12-11T18:51:00Z,41.72,-71.43,11.1,3.9,200,10,,10.0,30.129921,1020.1,,,TRUE,,,,,,,FEW,3000,BKN,25000,,,,,VFR,,,,,,,,,,,,METAR,15.0
KPIT 111851Z 21008KT 10SM OVC250 16/01 A3000 RMK AO2 SLP170 T01560011,KPIT,2020-12-11T18:51:00Z,40.47,-80.2,15.6,1.1,210,8,,10.0,30.0,1017.0,,,TRUE,,,,,,,OVC,25000,,,,,,,VFR,,,,,,,,,,,,METAR,339.0
KPHX 111851Z 12006KT 10SM FEW040 BKN250 16/09 A3008 RMK AO2 SLP179 T01560094,KPHX,2020-12-11T18:51:00Z,33.43,-112.02,15.6,9.4,120,6,,10.0,30.079725,1017.9,,,TRUE,,,,,,,FEW,4000,BKN,25000,,,,,VFR,,,,,,,,,,,,METAR,338.0
KP59 111851Z AUTO 03011KT 00/M03 A3016 RMK AO1 SLP223 T00001028,KP59,2020-12-11T18:51:00Z,47.47,-87.88,0.0,-2.8,30,11,,,30.159449,1022.3,,TRUE,TRUE,,,,,,,,,,,,,,,,,,,,,,,,,,,METAR,185.0
KOXC 111851Z 22009KT 10SM CLR 10/03 A3010 RMK AO2 SLP208 T01000033,KOXC,2020-12-11T18:51:00Z,41.47,-73.13,10.0,3.3,220,9,,10.0,30.100393,1020.8,,,TRUE,,,,,,,CLR,,,,,,,,VFR,,,,,,,,,,,,METAR,211.0
KORF 111851Z 19009G22KT 10SM BKN035 BKN047 19/11 A3016 RMK AO2 SLP211 T01940106,KORF,2020-12-11T18:51:00Z,36.9,-76.2,19.4,10.6,190,9,22,10.0,30.159449,1021.1,,,TRUE,,,,,,,BKN,3500,BKN,4700,,,,,VFR,,,,,,,,,,,,METAR,5.0
KORD 111851Z 03015KT 10SM OVC013 06/03 A2993 RMK AO2 PK WND 03028/1757 SLP140 T00610028,KORD,2020-12-11T18:51:00Z,41.95,-87.93,6.1,2.8,30,15,,10.0,29.929134,1014.0,,,TRUE,,,,,,,OVC,1300,,,,,,,MVFR,,,,,,,,,,,,METAR,202.0
KOCF 111851Z VRB05KT 10SM CLR 22/07 A3014 RMK AO2 SLP207 T02170072 $,KOCF,2020-12-11T18:51:00Z,29.17,-82.22,21.7,7.2,0,5,,10.0,30.138779,1020.7,,,TRUE,TRUE,,,,,,CLR,,,,,,,,VFR,,,,,,,,,,,,METAR,24.0
KNYC 111851Z AUTO VRB03KT 9SM CLR 13/03 A3013 RMK AO2 SLP194 T01330033 $,KNYC,2020-12-11T18:51:00Z,40.78,-73.97,13.3,3.3,0,3,,9.0,30.129921,1019.4,,TRUE,TRUE,TRUE,,,,,,CLR,,,,,,,,VFR,,,,,,,,,,,,METAR,33.0
KMYL 111851Z AUTO 00000KT 8SM BKN060 OVC075 M07/M09 A2994 RMK AO2 SNE42 SLP199 P0001 T10721089,KMYL,2020-12-11T18:51:00Z,44.9,-116.1,-7.2,-8.9,0,0,,8.0,29.940945,1019.9,,TRUE,TRUE,,,,,,,BKN,6000,OVC,7500,,,,,VFR,,,,,,0.01,,,,,,METAR,1532.0
KMQE 111851Z AUTO 20012G19KT 10/02 A3007 RMK AO1 SLP199 T01000022,KMQE,2020-12-11T18:51:00Z,42.22,-71.12,10.0,2.2,200,12,19,,30.070866,1019.9,,TRUE,TRUE,,,,,,,,,,,,,,,,,,,,,,,,,,,METAR,192.0
KMPV 111851Z AUTO 16008KT 10SM CLR 06/M01 A3002 RMK AO2 SLP179 T00561006,KMPV,2020-12-11T18:51:00Z,44.2,-72.57,5.6,-0.6,160,8,,10.0,30.02067,1017.9,,TRUE,TRUE,,,,,,,CLR,,,,,,,,VFR,,,,,,,,,,,,METAR,336.0
KLGU 111851Z AUTO 00000KT 6SM HZ OVC037 M03/M07 A3001 RMK AO2 SLP196 T10331067,KLGU,2020-12-11T18:51:00Z,41.78,-111.85,-3.3,-6.7,0,0,,6.0,30.008858,1019.6,,TRUE,TRUE,,,,,,HZ,OVC,3700,,,,,,,VFR,,,,,,,,,,,,METAR,1359.0
KLGA 111851Z 18008KT 10SM FEW160 BKN250 13/04 A3011 RMK AO2 SLP194 T01280044,KLGA,2020-12-11T18:51:00Z,40.78,-73.88,12.8,4.4,180,8,,10.0,30.109253,1019.4,,,TRUE,,,,,,,FEW,16000,BKN,25000,,,,,VFR,,,,,,,,,,,,METAR,9.0
KJFK 111851Z 20015KT 10SM FEW130 BKN250 11/07 A3013 RMK AO2 SLP202 T01110072 CHINO W $,KJFK,2020-12-11T18:51:00Z,40.63,-73.77,11.1,7.2,200,15,,10.0,30.129921,1020.2,,,TRUE,TRUE,,,,,,FEW,13000,BKN,25000,,,,,VFR,,,,,,,,,,,,SPECI,3.0
KJCT 111851Z AUTO 31004KT 8SM FEW009 19/14 A2990 RMK AO2 SLP100 T01890144,KJCT,2020-12-11T18:51:00Z,30.5,-99.77,18.9,14.4,310,4,,8.0,29.899607,1010.0,,TRUE,TRUE,,,,,,,FEW,900,,,,,,,VFR,,,,,,,,,,,,METAR,522.0
KILG 111851Z 21011KT 10SM CLR 14/04 A3012 RMK AO2 SLP200 T01440044 $,KILG,2020-12-11T18:51:00Z,39.67,-75.6,14.4,4.4,210,11,,10.0,30.121063,1020.0,,,TRUE,TRUE,,,,,,CLR,,,,,,,,VFR,,,,,,,,,,,,METAR,22.0
KIGM 111851Z AUTO 27005KT 10SM CLR 11/01 A3007 RMK AO2 SLP151 T01110006,KIGM,2020-12-11T18:51:00Z,35.25,-113.93,11.1,0.6,270,5,,10.0,30.070866,1015.1,,TRUE,TRUE,,,,,,,CLR,,,,,,,,VFR,,,,,,,,,,,,METAR,1045.0
KIFP 111851Z 16003KT 10SM OVC160 14/06 A3007,KIFP,2020-12-11T18:51:00Z,35.15,-114.57,14.0,6.0,160,3,,10.0,30.070866,,,,,,,,,,,OVC,16000,,,,,,,VFR,,,,,,,,,,,,METAR,210.0
KHTS 111851Z AUTO VRB06KT 10SM CLR 18/03 A3002 RMK AO2 SLP166 T01830028,KHTS,2020-12-11T18:51:00Z,38.37,-82.55,18.3,2.8,0,6,,10.0,30.02067,1016.6,,TRUE,TRUE,,,,,,,CLR,,,,,,,,VFR,,,,,,,,,,,,METAR,252.0
KHSE 111851Z AUTO 17008KT 10SM OVC043 20/13 A3020 RMK AO2 SLP225 T02000133,KHSE,2020-12-11T18:51:00Z,35.23,-75.62,20.0,13.3,170,8,,10.0,30.200787,1022.5,,TRUE,TRUE,,,,,,,OVC,4300,,,,,,,VFR,,,,,,,,,,,,METAR,4.0
KHDO 111851Z AUTO 16004KT 10SM CLR 22/15 A2986 RMK AO2 PRESFR SLP102 T02220150,KHDO,2020-12-11T18:51:00Z,29.37,-99.17,22.2,15.0,160,4,,10.0,29.861221,1010.2,,TRUE,TRUE,,,,,,,CLR,,,,,,,,VFR,,,,,,,,,,,,METAR,280.0
KGDP 111851Z AUTO 25039G45KT 10SM FEW027 11/ A2994 RMK AO2 PK WND 25047/1841 SLP107 T0106,KGDP,2020-12-11T18:51:00Z,31.83,-104.82,10.6,,250,39,45,10.0,29.940945,1010.7,,TRUE,TRUE,,,,,,,FEW,2700,,,,,,,VFR,,,,,,,,,,,,METAR,1664.0
KEWR 111851Z 20011KT 10SM BKN250 14/04 A3010 RMK AO2 SLP193 T01390039,KEWR,2020-12-11T18:51:00Z,40.68,-74.17,13.9,3.9,200,11,,10.0,30.100393,1019.3,,,TRUE,,,,,,,BKN,25000,,,,,,,VFR,,,,,,,,,,,,METAR,2.0
KERI 111851Z 21006KT 10SM CLR 14/03 A2997 RMK AO2 SLP150 T01390033,KERI,2020-12-11T18:51:00Z,42.08,-80.18,13.9,3.3,210,6,,10.0,29.970472,1015.0,,,TRUE,,,,,,,CLR,,,,,,,,VFR,,,,,,,,,,,,METAR,222.0
KELP 111851Z 25020G29KT 10SM FEW034 14/02 A3001 RMK AO2 PK WND 24032/1759 SLP125 T01390022,KELP,2020-12-11T18:51:00Z,31.82,-106.35,13.9,2.2,250,20,29,10.0,30.008858,1012.5,,,TRUE,,,,,,,FEW,3400,,,,,,,VFR,,,,,,,,,,,,METAR,1205.0
KEKN 111851Z AUTO VRB03KT 10SM CLR 18/M01 A3006 RMK AO2 SLP189 T01831006,KEKN,2020-12-11T18:51:00Z,38.88,-79.85,18.3,-0.6,0,3,,10.0,30.059055,1018.9,,TRUE,TRUE,,,,,,,CLR,,,,,,,,VFR,,,,,,,,,,,,METAR,596.0
KDAW 111851Z AUTO 00000KT 10SM CLR 06/M01 A3007 RMK AO2 SLP182 T00561011,KDAW,2020-12-11T18:51:00Z,43.28,-70.92,5.6,-1.1,0,0,,10.0,30.070866,1018.2,,TRUE,TRUE,,,,,,,CLR,,,,,,,,VFR,,,,,,,,,,,,METAR,100.0
KCSG 111851Z 22007KT 10SM CLR 19/09 A3012 RMK AO2 SLP197 T01890094,KCSG,2020-12-11T18:51:00Z,32.52,-84.95,18.9,9.4,220,7,,10.0,30.121063,1019.7,,,TRUE,,,,,,,CLR,,,,,,,,VFR,,,,,,,,,,,,METAR,120.0
KCRP 111851Z 22011KT 10SM FEW024 SCT029 BKN050 BKN150 OVC230 25/19 A2984 RMK AO2 SLP103 T02500189,KCRP,2020-12-11T18:51:00Z,27.77,-97.5,25.0,18.9,220,11,,10.0,29.840551,1010.3,,,TRUE,,,,,,,FEW,2400,SCT,2900,BKN,5000,BKN,15000,VFR,,,,,,,,,,,,METAR,11.0
KCON 111851Z AUTO 15004KT 10SM CLR 04/M02 A3007 RMK AO2 SLP186 T00391017,KCON,2020-12-11T18:51:00Z,43.2,-71.5,3.9,-1.7,150,4,,10.0,30.070866,1018.6,,TRUE,TRUE,,,,,,,CLR,,,,,,,,VFR,,,,,,,,,,,,METAR,102.0
KCMH 111851Z 23009KT 10SM BKN250 17/04 A2998 RMK AO2 SLP153 T01670044,KCMH,2020-12-11T18:51:00Z,40.0,-82.88,16.7,4.4,230,9,,10.0,29.97933,1015.3,,,TRUE,,,,,,,BKN,25000,,,,,,,VFR,,,,,,,,,,,,METAR,257.0
KCLE 111851Z 19007KT 10SM BKN250 13/05 A2993 RMK AO2 SLP151 T01330050,KCLE,2020-12-11T18:51:00Z,41.42,-81.85,13.3,5.0,190,7,,10.0,29.929134,1015.1,,,TRUE,,,,,,,BKN,25000,,,,,,,VFR,,,,,,,,,,,,METAR,237.0
KCAK 111851Z 22013KT 10SM BKN250 15/04 A2997 RMK AO2 SLP151 T01500039,KCAK,2020-12-11T18:51:00Z,40.92,-81.45,15.0,3.9,220,13,,10.0,29.970472,1015.1,,,TRUE,,,,,,,BKN,25000,,,,,,,VFR,,,,,,,,,,,,METAR,369.0
KBKW 111851Z AUTO VRB05KT 10SM CLR 16/01 A3010 RMK AO2 SLP184 T01610011 TSNO,KBKW,2020-12-11T18:51:00Z,37.8,-81.12,16.1,1.1,0,5,,10.0,30.100393,1018.4,,TRUE,TRUE,,,TRUE,,,,CLR,,,,,,,,VFR,,,,,,,,,,,,METAR,762.0
KBHK 111851Z AUTO 11004KT 10SM CLR A3006 RMK AO2 SLPNO PWINO FZRANO PNO $,KBHK,2020-12-11T18:51:00Z,46.35,-104.25,,,110,4,,10.0,30.059055,,,TRUE,TRUE,TRUE,,,TRUE,TRUE,,CLR,,,,,,,,VFR,,,,,,,,,,,,METAR,904.0
KBED 111851Z 22009KT 10SM CLR 10/02 A3007 RMK AO2 SLP199 T01000022,KBED,2020-12-11T18:51:00Z,42.47,-71.3,10.0,2.2,220,9,,10.0,30.070866,1019.9,,,TRUE,,,,,,,CLR,,,,,,,,VFR,,,,,,,,,,,,METAR,39.0
KBDL 111851Z 20010KT 10SM FEW130 OVC250 11/02 A3009 RMK AO2 SLP190 T01060017,KBDL,2020-12-11T18:51:00Z,41.93,-72.68,10.6,1.7,200,10,,10.0,30.088583,1019.0,,,TRUE,,,,,,,FEW,13000,OVC,25000,,,,,VFR,,,,,,,,,,,,METAR,52.0
KBAZ 111851Z 17007KT 10SM FEW015 SCT090 BKN120 22/17 A2985 RMK AO2 RAB28E44 SLP101 P0000 T02170172,KBAZ,2020-12-11T18:51:00Z,29.72,-98.05,21.7,17.2,170,7,,10.0,29.84941,1010.1,,,TRUE,,,,,,,FEW,1500,SCT,9000,BKN,12000,,,VFR,,,,,,0.005,,,,,,METAR,199.0
KALB 111851Z 16009KT 10SM FEW200 BKN250 07/01 A3003 RMK AO2 SLP173 T00720011,KALB,2020-12-11T18:51:00Z,42.75,-73.8,7.2,1.1,160,9,,10.0,30.029528,1017.3,,,TRUE,,,,,,,FEW,20000,BKN,25000,,,,,VFR,,,,,,,,,,,,METAR,82.0
KAHN 111851Z VRB03KT 10SM CLR 19/06 A3013 RMK AO2 SLP202 T01940061,KAHN,2020-12-11T18:51:00Z,33.95,-83.33,19.4,6.1,0,3,,10.0,30.129921,1020.2,,,TRUE,,,,,,,CLR,,,,,,,,VFR,,,,,,,,,,,,METAR,241.0
KABE 111851Z 23006KT 8SM CLR 11/04 A3009 RMK AO2 SLP191 T01110039,KABE,2020-12-11T18:51:00Z,40.65,-75.45,11.1,3.9,230,6,,8.0,30.088583,1019.1,,,TRUE,,,,,,,CLR,,,,,,,,VFR,,,,,,,,,,,,METAR,117.0
K6R6 111851Z AUTO 26019G24KT 23/02 A2992 RMK AO1 SLP105 T02330017,K6R6,2020-12-11T18:51:00Z,30.05,-102.22,23.3,1.7,260,19,24,,29.920275,1010.5,,TRUE,TRUE,,,,,,,,,,,,,,,,,,,,,,,,,,,METAR,702.0
VNKT 111850Z 11003KT 4000 BR FEW015 SCT030 BKN100 12/11 Q1018 NOSIG,VNKT,2020-12-11T18:50:00Z,27.68,85.37,12.0,11.0,110,3,,2.49,30.059055,,,,,,TRUE,,,,BR,FEW,1500,SCT,3000,BKN,10000,,,IFR,,,,,,,,,,,,METAR,1334.0
TJBQ 111850Z 09016KT 10SM CLR 28/21 A2994,TJBQ,2020-12-11T18:50:00Z,18.5,-67.13,28.0,21.0,90,16,,10.0,29.940945,,,,,,,,,,,CLR,,,,,,,,VFR,,,,,,,,,,,,METAR,69.0
SFAL 111850Z 03012KT 9999 BKN012 10/07 Q0991,SFAL,2020-12-11T18:50:00Z,-51.68,-57.77,10.0,7.0,30,12,,6.21,29.26181,,,,,,,,,,,BKN,1200,,,,,,,MVFR,,,,,,,,,,,,METAR,23.0
PTSA 111850Z 14005KT 10SM BKN019TCU BKN130 BKN300 27/25 A2976 RMK TCU W,PTSA,2020-12-11T18:50:00Z,5.35,162.95,27.0,25.0,140,5,,10.0,29.760826,,,,,,,,,,,BKN,1900,BKN,13000,BKN,30000,,,MVFR,,,,,,,,,,,,METAR,3.0
PTRO 111850Z 00000KT 14SM SCT015CB BKN290 26/24 A2977 RMK CB ALQDS,PTRO,2020-12-11T18:50:00Z,7.37,134.55,26.0,24.0,0,0,,14.0,29.769686,,,,,,,,,,,SCT,1500,BKN,29000,,,,,VFR,,,,,,,,,,,,METAR,30.0
PTKK 111850Z 07008KT 15SM FEW014 BKN280 28/25 A2977 RMK SLP083 T02810247,PTKK,2020-12-11T18:50:00Z,7.47,151.85,28.1,24.7,70,8,,15.0,29.769686,1008.3,,,,,,,,,,FEW,1400,BKN,28000,,,,,VFR,,,,,,,,,,,,METAR,3.0
PALP 111850Z 10012KT 10SM OVC017 M20/M23 A3055,PALP,2020-12-11T18:50:00Z,70.33,-150.93,-20.0,-23.0,100,12,,10.0,30.549213,,,,,,,,,,,OVC,1700,,,,,,,MVFR,,,,,,,,,,,,METAR,4.0
OOSH 111850Z AUTO 25004KT //// ////// 20/12 Q1016 RMK 1013,OOSH,2020-12-11T18:50:00Z,24.38,56.62,20.0,12.0,250,4,,,30.0,,,TRUE,,,,,,,,,,,,,,,,,,,,,,,,,,,,METAR,35.0
OOSA 111850Z 03007KT CAVOK 24/M01 Q1017 NOSIG,OOSA,2020-12-11T18:50:00Z,17.03,54.1,24.0,-1.0,30,7,,6.21,30.029528,,,,,,TRUE,,,,,CAVOK,,,,,,,,VFR,,,,,,,,,,,,METAR,20.0
OOMS 111850Z 16004KT CAVOK 19/11 Q1017 NOSIG,OOMS,2020-12-11T18:50:00Z,23.58,58.28,19.0,11.0,160,4,,6.21,30.029528,,,,,,TRUE,,,,,CAVOK,,,,,,,,VFR,,,,,,,,,,,,METAR,8.0
OODQ 111850Z AUTO 07006KT //// R22///// FEW036 BKN075 23/16 Q1017 NOSIG RMK RH67? 0,OODQ,2020-12-11T18:50:00Z,19.52,57.65,23.0,16.0,70,6,,,30.029528,,,TRUE,,,TRUE,,,,,FEW,3600,BKN,7500,,,,,,,,,,,,,,,,,METAR,116.0
OAMS 111850Z 30002KT 2000 BR BKN003 OVC018 02/02 Q1026 YLO YLO TEMPO AMB,OAMS,2020-12-11T18:50:00Z,36.7,67.2,2.0,2.0,300,2,,1.24,30.295275,,,,,,,,,,BR,BKN,300,OVC,1800,,,,,LIFR,,,,,,,,,,,,METAR,382.0
OAKB 111850Z VRB02KT 9999 BKN070 03/M01 Q1018 RMK A3009 BLU BLU,OAKB,2020-12-11T18:50:00Z,34.55,69.22,3.0,-1.0,0,2,,6.21,30.059055,,,,,,,,,,,BKN,7000,,,,,,,VFR,,,,,,,,,,,,SPECI,1786.0
MUVR 111850Z 05007KT 020V090 9000 SCT020 25/18 Q1017,MUVR,2020-12-11T18:50:00Z,23.03,-81.43,25.0,18.0,50,7,,5.59,30.029528,,,,,,,,,,,SCT,2000,,,,,,,VFR,,,,,,,,,,,,METAR,65.0
MUSC 111850Z 07010KT 040V100 9000 BKN019 25/19 Q1016,MUSC,2020-12-11T18:50:00Z,22.5,-79.92,25.0,19.0,70,10,,5.59,30.0,,,,,,,,,,,BKN,1900,,,,,,,MVFR,,,,,,,,,,,,METAR,97.0
MUHG 111850Z 07011KT 030V110 9000 FEW035 SCT049 29/19 Q1015,MUHG,2020-12-11T18:50:00Z,20.78,-76.32,29.0,19.0,70,11,,5.59,29.970472,,,,,,,,,,,FEW,3500,SCT,4900,,,,,VFR,,,,,,,,,,,,METAR,100.0
MUCU 111850Z 15006KT 120V190 9000 SCT020 28/20 Q1014,MUCU,2020-12-11T18:50:00Z,19.97,-75.83,28.0,20.0,150,6,,5.59,29.940945,,,,,,,,,,,SCT,2000,,,,,,,VFR,,,,,,,,,,,,METAR,70.0
MUCM 111850Z 03011KT 9999 SCT018 BKN020 27/19 Q1015,MUCM,2020-12-11T18:50:00Z,21.42,-77.85,27.0,19.0,30,11,,6.21,29.970472,,,,,,,,,,,SCT,1800,BKN,2000,,,,,MVFR,,,,,,,,,,,,METAR,125.0
MUCF 111850Z 07006KT 020V110 9999 SCT030 27/19 Q1016,MUCF,2020-12-11T18:50:00Z,22.15,-80.4,27.0,19.0,70,6,,6.21,30.0,,,,,,,,,,,SCT,3000,,,,,,,VFR,,,,,,,,,,,,METAR,35.0
MUCC 111850Z 07010KT 050V110 9000 FEW020 26/21 Q1015,MUCC,2020-12-11T18:50:00Z,22.47,-78.33,26.0,21.0,70,10,,5.59,29.970472,,,,,,,,,,,FEW,2000,,,,,,,VFR,,,,,,,,,,,,METAR,7.0
MTPP 111850Z 29009KT 9999 SCT027 29/21 Q1012 A2990,MTPP,2020-12-11T18:50:00Z,18.57,-72.3,29.0,21.0,290,9,,6.21,29.88189,,,,,,,,,,,SCT,2700,,,,,,,VFR,,,,,,,,,,,,METAR,36.0
MSSS 111850Z 05003KT 9999 FEW030 27/16 Q1015 A2997,MSSS,2020-12-11T18:50:00Z,13.7,-89.12,27.0,16.0,50,3,,6.21,29.970472,,,,,,,,,,,FEW,3000,,,,,,,VFR,,,,,,,,,,,,METAR,611.0
MSSM 111850Z 09004KT CAVOK 32/20 Q1011 A2985,MSSM,2020-12-11T18:50:00Z,13.43,-88.12,32.0,20.0,90,4,,6.21,29.852362,,,,,,,,,,,CAVOK,,,,,,,,VFR,,,,,,,,,,,,METAR,92.0
MSSA 111850Z 10005KT CAVOK 29/15 Q1017 A3005,MSSA,2020-12-11T18:50:00Z,13.97,-89.53,29.0,15.0,100,5,,6.21,30.029528,,,,,,,,,,,CAVOK,,,,,,,,VFR,,,,,,,,,,,,METAR,656.0
MSLP 111850Z 11004KT 060V190 9999 FEW057 32/19 Q1010 A2984 NOSIG RMK FU NW,MSLP,2020-12-11T18:50:00Z,13.43,-89.05,32.0,19.0,110,4,,6.21,29.822834,,,,,,TRUE,,,,,FEW,5700,,,,,,,VFR,,,,,,,,,,,,METAR,25.0
MSAC 111850Z 16004KT CAVOK 31/20 Q1010 A2984,MSAC,2020-12-11T18:50:00Z,13.57,-89.83,31.0,20.0,160,4,,6.21,29.822834,,,,,,,,,,,CAVOK,,,,,,,,VFR,,,,,,,,,,,,METAR,14.0
MMGL 111850Z 28006KT 12SM SKC 23/08 A3016 RMK ISOL CU,MMGL,2020-12-11T18:50:00Z,20.52,-103.32,23.0,8.0,280,6,,12.0,30.159449,,,,,,,,,,,SKC,,,,,,,,VFR,,,,,,,,,,,,METAR,1531.0
LTFH 111850Z 23007KT 9999 SCT035 13/05 Q1014 NOSIG,LTFH,2020-12-11T18:50:00Z,41.27,36.57,13.0,5.0,230,7,,6.21,29.940945,,,,,,TRUE,,,,,SCT,3500,,,,,,,VFR,,,,,,,,,,,,METAR,7.0
LTFG 111850Z 10005KT 070V130 9999 SCT035 BKN100 13/12 Q1015,LTFG,2020-12-11T18:50:00Z,36.3,32.3,13.0,12.0,100,5,,6.21,29.970472,,,,,,,,,,,SCT,3500,BKN,10000,,,,,VFR,,,,,,,,,,,,METAR,26.0
LTFD 111850Z 06005KT 9999 SCT035 BKN100 10/09 Q1009,LTFD,2020-12-11T18:50:00Z,39.55,27.02,10.0,9.0,60,5,,6.21,29.793306,,,,,,,,,,,SCT,3500,BKN,10000,,,,,VFR,,,,,,,,,,,,METAR,15.0
LTDA 111850Z 06006KT 9999 SCT040 BKN120 11/07 Q1020 NOSIG,LTDA,2020-12-11T18:50:00Z,36.37,36.28,11.0,7.0,60,6,,6.21,30.11811,,,,,,TRUE,,,,,SCT,4000,BKN,12000,,,,,VFR,,,,,,,,,,,,METAR,80.0
LTCN 111850Z VRB02KT 9999 SCT035 BKN090 09/05 Q1021 NOSIG,LTCN,2020-12-11T18:50:00Z,37.53,36.95,9.0,5.0,0,2,,6.21,30.147638,,,,,,TRUE,,,,,SCT,3500,BKN,9000,,,,,VFR,,,,,,,,,,,,METAR,505.0
LTCI 111850Z 09003KT 9999 SCT040 BKN100 M01/M04 Q1023 NOSIG,LTCI,2020-12-11T18:50:00Z,38.47,43.33,-1.0,-4.0,90,3,,6.21,30.206694,,,,,,TRUE,,,,,SCT,4000,BKN,10000,,,,,VFR,,,,,,,,,,,,METAR,1654.0
LTCF 111850Z VRB02KT 9999 BKN035 BKN070 M03/M05 Q1021,LTCF,2020-12-11T18:50:00Z,40.57,43.12,-3.0,-5.0,0,2,,6.21,30.147638,,,,,,,,,,,BKN,3500,BKN,7000,,,,,VFR,,,,,,,,,,,,METAR,1794.0
LTCD 111850Z 01004KT 9999 SCT045 BKN100 M02/M04 Q1021 NOSIG,LTCD,2020-12-11T18:50:00Z,39.72,39.52,-2.0,-4.0,10,4,,6.21,30.147638,,,,,,TRUE,,,,,SCT,4500,BKN,10000,,,,,VFR,,,,,,,,,,,,METAR,1146.0
LTCB 111850Z 25005KT 8000 BKN080 12/10 Q1015 RERA,LTCB,2020-12-11T18:50:00Z,40.97,38.07,12.0,10.0,250,5,,4.97,29.970472,,,,,,,,,,,BKN,8000,,,,,,,MVFR,,,,,,,,,,,,METAR,5.0
LTCA 111850Z VRB01KT 9999 SCT035 BKN080 04/03 Q1022 NOSIG,LTCA,2020-12-11T18:50:00Z,38.6,39.28,4.0,3.0,0,1,,6.21,30.177166,,,,,,TRUE,,,,,SCT,3500,BKN,8000,,,,,VFR,,,,,,,,,,,,METAR,887.0
LTBY 111850Z VRB01KT 9999 FEW040 BKN200 02/00 Q1013,LTBY,2020-12-11T18:50:00Z,39.82,30.52,2.0,0.0,0,1,,6.21,29.911417,,,,,,,,,,,FEW,4000,BKN,20000,,,,,VFR,,,,,,,,,,,,METAR,788.0
LTBQ 111850Z 14001KT 9999 SCT032 SCT100 BKN200 10/06 Q1010 NOSIG,LTBQ,2020-12-11T18:50:00Z,40.73,30.07,10.0,6.0,140,1,,6.21,29.822834,,,,,,TRUE,,,,,SCT,3200,SCT,10000,BKN,20000,,,VFR,,,,,,,,,,,,METAR,51.0
LTBH 111850Z 16007KT 9999 SCT030 BKN090 15/09 Q1008,LTBH,2020-12-11T18:50:00Z,40.13,26.42,15.0,9.0,160,7,,6.21,29.763779,,,,,,,,,,,SCT,3000,BKN,9000,,,,,VFR,,,,,,,,,,,,METAR,8.0
LTBF 111850Z 00000KT 9999 SCT035 BKN100 09/05 Q1010 NOSIG,LTBF,2020-12-11T18:50:00Z,39.62,27.92,9.0,5.0,0,0,,6.21,29.822834,,,,,,TRUE,,,,,SCT,3500,BKN,10000,,,,,VFR,,,,,,,,,,,,METAR,95.0
LTAY 111850Z 15010KT 9999 SCT035 BKN100 10/03 Q1013,LTAY,2020-12-11T18:50:00Z,37.78,29.7,10.0,3.0,150,10,,6.21,29.911417,,,,,,,,,,,SCT,3500,BKN,10000,,,,,VFR,,,,,,,,,,,,METAR,851.0
LTAR 111850Z 10008KT 7000 -RA SCT005 BKN030 BKN080 00/00 Q1018 RESN,LTAR,2020-12-11T18:50:00Z,39.8,36.9,0.0,0.0,100,8,,4.35,30.059055,,,,,,,,,,-RA,SCT,500,BKN,3000,BKN,8000,,,MVFR,,,,,,,,,,,,METAR,1601.0
LTAN 111850Z VRB02KT 9999 SCT040 BKN100 04/03 Q1015 NOSIG,LTAN,2020-12-11T18:50:00Z,37.97,32.55,4.0,3.0,0,2,,6.21,29.970472,,,,,,TRUE,,,,,SCT,4000,BKN,10000,,,,,VFR,,,,,,,,,,,,METAR,1029.0
LTAE 111850Z VRB02KT 9999 FEW040 SCT100 00/M00 Q1014 NOSIG RMK RWY21 05005KT,LTAE,2020-12-11T18:50:00Z,40.07,32.57,0.0,0.0,0,2,,6.21,29.940945,,,,,,TRUE,,,,,FEW,4000,SCT,10000,,,,,VFR,,,,,,,,,,,,METAR,836.0
LOXZ 111850Z VRB01KT 6000 FZBCFG FEW003ST M06/M06 Q1000,LOXZ,2020-12-11T18:50:00Z,47.2,14.75,-6.0,-6.0,0,1,,3.73,29.52756,,,,,,,,,,FZBCFG,,,,,,,,,,,,,,,,,,,,,SPECI,678.0
LIPB 111850Z 33002KT 9999 OVC060 02/M01 Q1003 RMK MON INVIS,LIPB,2020-12-11T18:50:00Z,46.47,11.32,2.0,-1.0,330,2,,6.21,29.616142,,,,,,,,,,,OVC,6000,,,,,,,VFR,,,,,,,,,,,,SPECI,239.0
LIMP 111850Z 33004KT 5000 BR SCT030 05/05 Q1004,LIMP,2020-12-11T18:50:00Z,44.82,10.3,5.0,5.0,330,4,,3.11,29.64567,,,,,,,,,,BR,SCT,3000,,,,,,,MVFR,,,,,,,,,,,,METAR,41.0
LIMG 111850Z 32003KT 240V340 9999 BKN030 BKN080 06/05 Q1003,LIMG,2020-12-11T18:50:00Z,44.03,8.12,6.0,5.0,320,3,,6.21,29.616142,,,,,,,,,,,BKN,3000,BKN,8000,,,,,MVFR,,,,,,,,,,,,METAR,41.0
LICG 111850Z 21008KT 9999 SCT030 12/11 Q1005,LICG,2020-12-11T18:50:00Z,36.82,11.97,12.0,11.0,210,8,,6.21,29.675198,,,,,,,,,,,SCT,3000,,,,,,,VFR,,,,,,,,,,,,METAR,192.0
LIBG 111850Z 36009KT 9999 SCT040 10/08 Q1001,LIBG,2020-12-11T18:50:00Z,40.52,17.4,10.0,8.0,360,9,,6.21,29.557087,,,,,,,,,,,SCT,4000,,,,,,,VFR,,,,,,,,,,,,METAR,64.0
LIBC 111850Z VRB02KT 9999 FEW040 10/08 Q1001,LIBC,2020-12-11T18:50:00Z,39.0,17.07,10.0,8.0,0,2,,6.21,29.557087,,,,,,,,,,,FEW,4000,,,,,,,VFR,,,,,,,,,,,,METAR,158.0
LGSM 111850Z 17013KT 9999 FEW016 SCT020 17/14 Q1010,LGSM,2020-12-11T18:50:00Z,37.68,26.92,17.0,14.0,170,13,,6.21,29.822834,,,,,,,,,,,FEW,1600,SCT,2000,,,,,VFR,,,,,,,,,,,,METAR,5.0
LGRX 111850Z 09006KT 5000 RA FEW010 BKN020 OVC070 11/10 Q1003,LGRX,2020-12-11T18:50:00Z,38.17,21.42,11.0,10.0,90,6,,3.11,29.616142,,,,,,,,,,RA,FEW,1000,BKN,2000,OVC,7000,,,MVFR,,,,,,,,,,,,METAR,16.0
LGPZ 111850Z 03004KT 8000 -RA SCT010 SCT016TCU BKN018 12/10 Q1002 RMK OVC070 BLU,LGPZ,2020-12-11T18:50:00Z,38.92,20.77,12.0,10.0,30,4,,4.97,29.586615,,,,,,,,,,-RA,SCT,1000,SCT,1600,BKN,1800,,,MVFR,,,,,,,,,,,,METAR,3.0
LGLM 111850Z 20012KT 9999 -RA FEW020 14/10 Q1007,LGLM,2020-12-11T18:50:00Z,39.92,25.23,14.0,10.0,200,12,,6.21,29.734253,,,,,,,,,,-RA,FEW,2000,,,,,,,VFR,,,,,,,,,,,,METAR,4.0
LGHI 111850Z 25005KT 9000 -RA FEW018TCU BKN020 13/10 Q1008,LGHI,2020-12-11T18:50:00Z,38.33,26.13,13.0,10.0,250,5,,5.59,29.763779,,,,,,,,,,-RA,FEW,1800,BKN,2000,,,,,MVFR,,,,,,,,,,,,METAR,6.0
LGBL 111850Z 00000KT 8000 -RA SCT025 BKN080 11/10 Q1005,LGBL,2020-12-11T18:50:00Z,39.22,22.8,11.0,10.0,0,0,,4.97,29.675198,,,,,,,,,,-RA,SCT,2500,BKN,8000,,,,,MVFR,,,,,,,,,,,,METAR,13.0
LGAL 111850Z VRB03KT 9999 SCT020 10/08 Q1007,LGAL,2020-12-11T18:50:00Z,40.85,25.95,10.0,8.0,0,3,,6.21,29.734253,,,,,,,,,,,SCT,2000,,,,,,,VFR,,,,,,,,,,,,METAR,5.0
KWDG 111850Z 30011KT 10SM OVC 025 08/01 A2984,KWDG,2020-12-11T18:50:00Z,36.37,-97.78,8.0,1.0,300,11,,10.0,29.840551,,,,,,,,,,,OVC,2500,,,,,,,MVFR,,,,,,,,,,,,METAR,352.0
KVQQ 111850Z 18007KT 10SM CLR 24/08 A3014,KVQQ,2020-12-11T18:50:00Z,30.22,-81.88,24.0,8.0,180,7,,10.0,30.138779,,,,,,,,,,,CLR,,,,,,,,VFR,,,,,,,,,,,,METAR,21.0
KTOA 111850Z 00000KT 8SM BKN024 15/09 A3013,KTOA,2020-12-11T18:50:00Z,33.8,-118.33,15.0,9.0,0,0,,8.0,30.129921,,,,,,,,,,,BKN,2400,,,,,,,MVFR,,,,,,,,,,,,METAR,30.0
KRYY 111850Z VRB03KT 10SM CLR 18/05 A3011 RMK AO2 SLP917 T01830050 $,KRYY,2020-12-11T18:50:00Z,34.02,-84.6,18.3,5.0,0,3,,10.0,30.109253,991.7,,,TRUE,TRUE,,,,,,CLR,,,,,,,,VFR,,,,,,,,,,,,METAR,306.0
KOQU 111850Z 23018KT 10SM BKN250 11/05 A3012,KOQU,2020-12-11T18:50:00Z,41.6,-71.42,11.0,5.0,230,18,,10.0,30.121063,,,,,,,,,,,BKN,25000,,,,,,,VFR,,,,,,,,,,,,METAR,6.0
KOMN 111850Z 07007KT 10SM SCT055 20/09 A3014,KOMN,2020-12-11T18:50:00Z,29.3,-81.12,20.0,9.0,70,7,,10.0,30.138779,,,,,,,,,,,SCT,5500,,,,,,,VFR,,,,,,,,,,,,METAR,7.0
KOLV 111850Z 18013KT 10SM SCT085 BKN120 BKN250 20/12 A2994,KOLV,2020-12-11T18:50:00Z,34.98,-89.78,20.0,12.0,180,13,,10.0,29.940945,,,,,,,,,,,SCT,8500,BKN,12000,BKN,25000,,,VFR,,,,,,,,,,,,METAR,124.0
KNQA 111850Z 20010G15KT 10SM FEW049 20/10 A2993,KNQA,2020-12-11T18:50:00Z,35.35,-89.87,20.0,10.0,200,10,15,10.0,29.929134,,,,,,,,,,,FEW,4900,,,,,,,VFR,,,,,,,,,,,,METAR,90.0
KMMU 111850Z 22005KT 10SM SCT250 12/06 A3010,KMMU,2020-12-11T18:50:00Z,40.78,-74.42,12.0,6.0,220,5,,10.0,30.100393,,,,,,,,,,,SCT,25000,,,,,,,VFR,,,,,,,,,,,,METAR,55.0
KLWB 111850Z 20003KT 10SM CLR 14/00 A3011,KLWB,2020-12-11T18:50:00Z,37.87,-80.4,14.0,0.0,200,3,,10.0,30.109253,,,,,,,,,,,CLR,,,,,,,,VFR,,,,,,,,,,,,METAR,702.0
KLAL 111850Z 10003KT 10SM SCT050 23/09 A3013,KLAL,2020-12-11T18:50:00Z,27.98,-82.02,23.0,9.0,100,3,,10.0,30.129921,,,,,,,,,,,SCT,5000,,,,,,,VFR,,,,,,,,,,,,METAR,39.0
KJQF 111850Z 20003KT 10SM CLR 18/07 A3017,KJQF,2020-12-11T18:50:00Z,35.38,-80.72,18.0,7.0,200,3,,10.0,30.171259,,,,,,,,,,,CLR,,,,,,,,VFR,,,,,,,,,,,,METAR,204.0
KIWA 111850Z 00000KT 10SM BKN040 14/10 A3012,KIWA,2020-12-11T18:50:00Z,33.3,-111.65,14.0,10.0,0,0,,10.0,30.121063,,,,,,,,,,,BKN,4000,,,,,,,VFR,,,,,,,,,,,,METAR,420.0
KHXD 111850Z 00000KT 10SM CLR 19/11 A3016,KHXD,2020-12-11T18:50:00Z,32.22,-80.7,19.0,11.0,0,0,,10.0,30.159449,,,,,,,,,,,CLR,,,,,,,,VFR,,,,,,,,,,,,METAR,5.0
KHSA 111850Z 19008KT 7SM BKN050 23/12 A3003,KHSA,2020-12-11T18:50:00Z,30.37,-89.45,23.0,12.0,190,8,,7.0,30.029528,,,,,,,,,,,BKN,5000,,,,,,,VFR,,,,,,,,,,,,METAR,6.0
KHQZ 111850Z 16007KT 4SM -RA OVC004 16/16 A2985,KHQZ,2020-12-11T18:50:00Z,32.75,-96.53,16.0,16.0,160,7,,4.0,29.84941,,,,,,,,,,-RA,OVC,400,,,,,,,LIFR,,,,,,,,,,,,METAR,136.0
KHOB 111850Z 26015G20KT 10SM SKC 16/M01 A2990,KHOB,2020-12-11T18:50:00Z,32.67,-103.22,16.0,-1.0,260,15,20,10.0,29.899607,,,,,,,,,,,SKC,,,,,,,,VFR,,,,,,,,,,,,METAR,1112.0
KGYI 111850Z 22004KT 10SM BKN008 OVC029 15/14 A2984,KGYI,2020-12-11T18:50:00Z,33.72,-96.67,15.0,14.0,220,4,,10.0,29.840551,,,,,,,,,,,BKN,800,OVC,2900,,,,,IFR,,,,,,,,,,,,METAR,227.0
KGPM 111850Z 18008KT 10SM BR OVC004 17/17 A2984,KGPM,2020-12-11T18:50:00Z,32.7,-97.05,17.0,17.0,180,8,,10.0,29.840551,,,,,,,,,,BR,OVC,400,,,,,,,LIFR,,,,,,,,,,,,METAR,178.0
KFIN 111850Z 06006KT 10SM CLR 22/09 A3013,KFIN,2020-12-11T18:50:00Z,29.47,-81.2,22.0,9.0,60,6,,10.0,30.129921,,,,,,,,,,,CLR,,,,,,,,VFR,,,,,,,,,,,,METAR,10.0
KESN 111850Z 18011KT 10SM CLR 16/06 A3017,KESN,2020-12-11T18:50:00Z,38.8,-76.07,16.0,6.0,180,11,,10.0,30.171259,,,,,,,,,,,CLR,,,,,,,,VFR,,,,,,,,,,,,METAR,14.0
KEKM 111850Z 08007KT 10SM SKC 09/03 A2988 RMK AO2,KEKM,2020-12-11T18:50:00Z,41.72,-86.0,9.0,3.0,80,7,,10.0,29.878937,,,,TRUE,,,,,,,SKC,,,,,,,,VFR,,,,,,,,,,,,METAR,236.0
KDAG 111850Z AUTO 23003KT 10SM CLR 13/M07 A3004 RMK AO2 SLP166 T01281067,KDAG,2020-12-11T18:50:00Z,34.85,-116.78,12.8,-6.7,230,3,,10.0,30.041338,1016.6,,TRUE,TRUE,,,,,,,CLR,,,,,,,,VFR,,,,,,,,,,,,METAR,584.0
KBOW 111850Z 13008KT 10SM SCT045 22/09 A3013,KBOW,2020-12-11T18:50:00Z,27.93,-81.77,22.0,9.0,130,8,,10.0,30.129921,,,,,,,,,,,SCT,4500,,,,,,,VFR,,,,,,,,,,,,METAR,38.0
KANE 111850Z 03008KT 10SM BKN017 OVC120 02/M02 A3011,KANE,2020-12-11T18:50:00Z,45.15,-93.22,2.0,-2.0,30,8,,10.0,30.109253,,,,,,,,,,,BKN,1700,OVC,12000,,,,,MVFR,,,,,,,,,,,,METAR,276.0
KALN 111850Z 18006KT 10SM OVC060 15/08 A2984,KALN,2020-12-11T18:50:00Z,38.88,-90.03,15.0,8.0,180,6,,10.0,29.840551,,,,,,,,,,,OVC,6000,,,,,,,VFR,,,,,,,,,,,,METAR,159.0
KAEG 111850Z 27023G30KT 10SM CLR 07/M06 A2994,KAEG,2020-12-11T18:50:00Z,35.13,-106.8,7.0,-6.0,270,23,30,10.0,29.940945,,,,,,,,,,,CLR,,,,,,,,VFR,,,,,,,,,,,,METAR,1771.0
KADM 111850Z 33009KT 10SM OVC020 10/08 A2983,KADM,2020-12-11T18:50:00Z,34.3,-97.02,10.0,8.0,330,9,,10.0,29.828741,,,,,,,,,,,OVC,2000,,,,,,,MVFR,,,,,,,,,,,,METAR,223.0
ENSR 111850Z 18005KT CAVOK M02/M05 Q1015 RMK WIND 1119FT 14013KT,ENSR,2020-12-11T18:50:00Z,69.78,20.97,-2.0,-5.0,180,5,,6.21,29.970472,,,,,,,,,,,CAVOK,,,,,,,,VFR,,,,,,,,,,,,METAR,5.0
ENSG 111850Z 04009KT 9999 BKN040 02/M05 Q1004 RMK WIND 3806FT 10020KT,ENSG,2020-12-11T18:50:00Z,61.15,7.13,2.0,-5.0,40,9,,6.21,29.64567,,,,,,,,,,,BKN,4000,,,,,,,VFR,,2.0,,,,,,,,,,METAR,493.0
ENRM 111850Z 12017KT CAVOK 03/M03 Q1009,ENRM,2020-12-11T18:50:00Z,64.83,11.13,3.0,-3.0,120,17,,6.21,29.793306,,,,,,,,,,,CAVOK,,,,,,,,VFR,,,,,,,,,,,,METAR,4.0
ENHK 111850Z 10014KT CAVOK 01/M02 Q1015,ENHK,2020-12-11T18:50:00Z,70.48,22.13,1.0,-2.0,100,14,,6.21,29.970472,,,,,,,,,,,CAVOK,,,,,,,,VFR,,,,,,,,,,,,METAR,6.0
ENGC 111850Z 15024KT 9999 FEW040 BKN080 07/M01 Q1001 W07/S5,ENGC,2020-12-11T18:50:00Z,61.02,2.02,7.0,-1.0,150,24,,6.21,29.557087,,,,,,,,,,,FEW,4000,BKN,8000,,,,,VFR,,,,,,,,,,,,METAR,10.0
EGYM 111850Z AUTO 15002KT 4300 BR OVC006/// 07/07 Q0986,EGYM,2020-12-11T18:50:00Z,52.63,0.57,7.0,7.0,150,2,,2.67,29.114174,,,TRUE,,,,,,,BR,OVC,600,,,,,,,IFR,,,,,,,,,,,,METAR,25.0
EGYD 111850Z AUTO 18002KT 0150 // VV/// 05/05 Q0986,EGYD,2020-12-11T18:50:00Z,53.03,-0.5,5.0,5.0,180,2,,0.09,29.114174,,,TRUE,,,,,,,,OVX,0,,,,,,,LIFR,,,,,,,,,,,,METAR,65.0
EGXZ 111850Z AUTO 12002KT 2500 -DZ BKN009/// 07/07 Q0987,EGXZ,2020-12-11T18:50:00Z,54.2,-1.38,7.0,7.0,120,2,,1.55,29.143702,,,TRUE,,,,,,,-DZ,BKN,900,,,,,,,IFR,,,,,,,,,,,,METAR,24.0
EGXW 111850Z AUTO 18003KT 0100 FG VV/// 07/06 Q0986,EGXW,2020-12-11T18:50:00Z,53.18,-0.52,7.0,6.0,180,3,,0.06,29.114174,,,TRUE,,,,,,,FG,OVX,0,,,,,,,LIFR,,,,,,,,,,,,METAR,70.0
EGXV 111850Z AUTO 09003KT 1600 OVC001/// 08/07 Q0986,EGXV,2020-12-11T18:50:00Z,53.87,-0.45,8.0,7.0,90,3,,0.99,29.114174,,,TRUE,,,,,,,,OVC,100,,,,,,,LIFR,,,,,,,,,,,,METAR,6.0
EGXU 111850Z AUTO 06003KT 1400 BR BKN002/// BKN009/// 07/07 Q0986 RERA,EGXU,2020-12-11T18:50:00Z,54.05,-1.25,7.0,7.0,60,3,,0.87,29.114174,,,TRUE,,,,,,,BR,BKN,200,BKN,900,,,,,LIFR,,,,,,,,,,,,METAR,14.0
EGXT 111850Z AUTO 21001KT 0150 FG FEW017/// BKN048/// 05/05 Q0986,EGXT,2020-12-11T18:50:00Z,52.62,-0.47,5.0,5.0,210,1,,0.09,29.114174,,,TRUE,,,,,,,FG,FEW,1700,BKN,4800,,,,,LIFR,,,,,,,,,,,,METAR,74.0
EGXS 111850Z AUTO 12008KT 5000 // OVC004/// 07/07 Q0986,EGXS,2020-12-11T18:50:00Z,53.48,0.15,7.0,7.0,120,8,,3.11,29.114174,,,TRUE,,,,,,,,OVC,400,,,,,,,LIFR,,,,,,,,,,,,METAR,6.0
EGXP 111850Z AUTO 12003KT 0100 // VV/// 08/08 Q0986,EGXP,2020-12-11T18:50:00Z,53.3,-0.55,8.0,8.0,120,3,,0.06,29.114174,,,TRUE,,,,,,,,OVX,0,,,,,,,LIFR,,,,,,,,,,,,METAR,58.0
EGXE 111850Z AUTO 25001KT 2600 BKN002/// SCT007/// BKN009/// 07/07 Q0986,EGXE,2020-12-11T18:50:00Z,54.28,-1.52,7.0,7.0,250,1,,1.62,29.114174,,,TRUE,,,,,,,,BKN,200,SCT,700,BKN,900,,,LIFR,,,,,,,,,,,,METAR,30.0
EGXC 111850Z 11004KT 0400 FG OVC000 08/08 Q0986 RMK RED,EGXC,2020-12-11T18:50:00Z,53.1,-0.17,8.0,8.0,110,4,,0.25,29.114174,,,,,,,,,,FG,OVC,0,,,,,,,LIFR,,,,,,,,,,,,METAR,9.0
EGVP 111850Z AUTO 23003KT 9999 BKN032/// 07/07 Q0987 REDZ,EGVP,2020-12-11T18:50:00Z,51.13,-1.57,7.0,7.0,230,3,,6.21,29.143702,,,TRUE,,,,,,,,BKN,3200,,,,,,,VFR,,,,,,,,,,,,METAR,80.0
EGVO 111850Z AUTO 20005KT 9999 FEW032/// SCT130/// 06/05 Q0987,EGVO,2020-12-11T18:50:00Z,51.23,-0.95,6.0,5.0,200,5,,6.21,29.143702,,,TRUE,,,,,,,,FEW,3200,SCT,13000,,,,,VFR,,,,,,,,,,,,METAR,118.0
EGVN 111850Z 27003KT 4500 BR FEW010 07/06 Q0986 NOSIG RMK GRN GRN,EGVN,2020-12-11T18:50:00Z,51.77,-1.58,7.0,6.0,270,3,,2.8,29.114174,,,,,,TRUE,,,,BR,FEW,1000,,,,,,,IFR,,,,,,,,,,,,METAR,83.0
EGUW 111850Z AUTO 11002KT 2000 SCT005/// BKN080/// 08/07 Q0986,EGUW,2020-12-11T18:50:00Z,52.12,0.97,8.0,7.0,110,2,,1.24,29.114174,,,TRUE,,,,,,,,SCT,500,BKN,8000,,,,,IFR,,,,,,,,,,,,METAR,86.0
EGUB 111850Z AUTO 18003KT 9999 // FEW025/// BKN029/// BKN110/// 06/06 Q0986,EGUB,2020-12-11T18:50:00Z,51.62,-1.08,6.0,6.0,180,3,,6.21,29.114174,,,TRUE,,,,,,,,FEW,2500,BKN,2900,BKN,11000,,,MVFR,,,,,,,,,,,,METAR,56.0
EGQS 111850Z 13013KT 9999 FEW014 07/06 Q0987 TEMPO SCT014 RMK BLU TEMPO GRN,EGQS,2020-12-11T18:50:00Z,57.72,-3.32,7.0,6.0,130,13,,6.21,29.143702,,,,,,,,,,,FEW,1400,,,,,,,VFR,,,,,,,,,,,,METAR,6.0
EGQM 111850Z AUTO 27003KT 9999 SCT011/// BKN021/// 07/06 Q0987,EGQM,2020-12-11T18:50:00Z,55.42,-1.6,7.0,6.0,270,3,,6.21,29.143702,,,TRUE,,,,,,,,SCT,1100,BKN,2100,,,,,MVFR,,,,,,,,,,,,METAR,24.0
EGQL 111850Z 09002KT 9999 BKN011 07/07 Q0987 GRN,EGQL,2020-12-11T18:50:00Z,56.38,-2.87,7.0,7.0,90,2,,6.21,29.143702,,,,,,,,,,,BKN,1100,,,,,,,MVFR,,,,,,,,,,,,METAR,11.0
EGQK 111850Z AUTO 09007KT 9999 SCT018/// BKN031/// 08/06 Q0987,EGQK,2020-12-11T18:50:00Z,57.65,-3.57,8.0,6.0,90,7,,6.21,29.143702,,,TRUE,,,,,,,,SCT,1800,BKN,3100,,,,,VFR,,,,,,,,,,,,METAR,5.0
EGOV 111850Z AUTO 30005KT 9999 FEW021/// BKN028/// 08/07 Q0987,EGOV,2020-12-11T18:50:00Z,53.25,-4.53,8.0,7.0,300,5,,6.21,29.143702,,,TRUE,,,,,,,,FEW,2100,BKN,2800,,,,,MVFR,,,,,,,,,,,,METAR,11.0
EGOS 111850Z AUTO 26006KT 9999 BKN026/// SCT035/// 08/07 Q0986,EGOS,2020-12-11T18:50:00Z,52.8,-2.67,8.0,7.0,260,6,,6.21,29.114174,,,TRUE,,,,,,,,BKN,2600,SCT,3500,,,,,MVFR,,,,,,,,,,,,METAR,76.0
EGOP 111850Z AUTO 32004KT 9999 // FEW038/// BKN060/// 08/08 Q0988,EGOP,2020-12-11T18:50:00Z,51.72,-4.37,8.0,8.0,320,4,,6.21,29.17323,,,TRUE,,,,,,,,FEW,3800,BKN,6000,,,,,VFR,,,,,,,,,,,,METAR,8.0
EGOM 111850Z AUTO 08005KT 0200 FG VV/// 05/05 Q0986,EGOM,2020-12-11T18:50:00Z,55.05,-2.55,5.0,5.0,80,5,,0.12,29.114174,,,TRUE,,,,,,,FG,OVX,0,,,,,,,LIFR,,,,,,,,,,,,METAR,286.0
EGDY 111850Z AUTO 22003KT 9999 NCD 06/05 Q0987,EGDY,2020-12-11T18:50:00Z,51.0,-2.63,6.0,5.0,220,3,,6.21,29.143702,,,TRUE,,,,,,,,CLR,,,,,,,,VFR,,,,,,,,,,,,METAR,21.0
EGDM 111850Z AUTO 24007KT 2800 BR FEW021/// BKN034/// 07/07 Q0987,EGDM,2020-12-11T18:50:00Z,51.17,-1.75,7.0,7.0,240,7,,1.74,29.143702,,,TRUE,,,,,,,BR,FEW,2100,BKN,3400,,,,,IFR,,,,,,,,,,,,METAR,122.0
EGBJ 111850Z 22003KT 9999 FEW007 BKN025 09/08 Q0987,EGBJ,2020-12-11T18:50:00Z,51.9,-2.17,9.0,8.0,220,3,,6.21,29.143702,,,,,,,,,,,FEW,700,BKN,2500,,,,,MVFR,,,,,,,,,,,,METAR,27.0
EEEI 111850Z 12005KT 090V160 9999 FEW007 OVC030 M01/M03 Q1016 R06/190095 NOSIG,EEEI,2020-12-11T18:50:00Z,59.27,24.2,-1.0,-3.0,120,5,,6.21,30.0,,,,,,TRUE,,,,,FEW,700,OVC,3000,,,,,MVFR,,,,,,,,,,,,METAR,19.0
EDTL 111850Z 24003KT 9999 FEW031 OVC041 05/03 Q0995,EDTL,2020-12-11T18:50:00Z,48.37,7.83,5.0,3.0,240,3,,6.21,29.379921,,,,,,,,,,,FEW,3100,OVC,4100,,,,,VFR,,,,,,,,,,,,METAR,152.0
EDQM 111850Z 14009KT 9999 SCT008 BKN045 M00/M01 Q0996,EDQM,2020-12-11T18:50:00Z,50.3,11.85,0.0,-1.0,140,9,,6.21,29.409449,,,,,,,,,,,SCT,800,BKN,4500,,,,,VFR,,,,,,,,,,,,METAR,578.0
EDFM 111850Z 15006KT 110V180 9999 OVC016 05/02 Q0995,EDFM,2020-12-11T18:50:00Z,49.47,8.52,5.0,2.0,150,6,,6.21,29.379921,,,,,,,,,,,OVC,1600,,,,,,,MVFR,,,,,,,,,,,,METAR,94.0
BGSF 111850Z AUTO 05009KT 9999NDV FEW022/// SCT027/// M20/M23 Q1009,BGSF,2020-12-11T18:50:00Z,67.0,-50.72,-20.0,-23.0,50,9,,,29.793306,,,TRUE,,,,,,,,FEW,2200,SCT,2700,,,,,,,,,,,,,,,,,METAR,75.0
BGKK 111850Z 00000KT 9999 BKN060 M01/M09 Q1005,BGKK,2020-12-11T18:50:00Z,65.57,-37.13,-1.0,-9.0,0,0,,6.21,29.675198,,,,,,,,,,,BKN,6000,,,,,,,VFR,,,,,,,,,,,,METAR,37.0
BGJN 111850Z 09010KT 9999 FEW120 M10/M20 Q1008,BGJN,2020-12-11T18:50:00Z,69.25,-51.07,-10.0,-20.0,90,10,,6.21,29.763779,,,,,,,,,,,FEW,12000,,,,,,,VFR,,,,,,,,,,,,METAR,22.0
BGGH 111850Z 10004KT 9999 FEW200 M08/M12 Q1008,BGGH,2020-12-11T18:50:00Z,64.2,-51.68,-8.0,-12.0,100,4,,6.21,29.763779,,,,,,,,,,,FEW,20000,,,,,,,VFR,,,,,,,,,,,,METAR,76.0
BGBW 111850Z 04005KT 330V110 9999 FEW090 M10/M18 Q1007,BGBW,2020-12-11T18:50:00Z,61.17,-45.42,-10.0,-18.0,40,5,,6.21,29.734253,,,,,,,,,,,FEW,9000,,,,,,,VFR,,,,,,,,,,,,METAR,49.0
MMPN 111849Z 24008KT 15SM FEW045TCU 22/13 A3015 RMK 8/200 HZY CI,MMPN,2020-12-11T18:49:00Z,19.38,-102.03,22.0,13.0,240,8,,15.0,30.15059,,,,,,,,,,,FEW,4500,,,,,,,VFR,,,,,,,,,,,,METAR,1602.0
KSCH 111849Z 15005KT 15SM CLR 09/01 A3003,KSCH,2020-12-11T18:49:00Z,42.85,-73.92,9.0,1.0,150,5,,15.0,30.029528,,,,,,,,,,,CLR,,,,,,,,VFR,,,,,,,,,,,,METAR,100.0
MMSP 111848Z 24012KT 15SM FEW020 23/03 A3016 RMK 8/500 ISOL CI,MMSP,2020-12-11T18:48:00Z,22.25,-100.93,23.0,3.0,240,12,,15.0,30.159449,,,,,,,,,,,FEW,2000,,,,,,,VFR,,,,,,,,,,,,METAR,1841.0
MMPS 111848Z 16006KT 12SM FEW020 SCT200 26/19 A2991 RMK 8/101 HZY MSG TX MMMX,MMPS,2020-12-11T18:48:00Z,15.87,-97.08,26.0,19.0,160,6,,12.0,29.911417,,,,,,,,,,,FEW,2000,SCT,20000,,,,,VFR,,,,,,,,,,,,METAR,65.0
MMMD 111848Z 10010KT 7SM FEW025 28/16 A2997 RMK 8/100 CI,MMMD,2020-12-11T18:48:00Z,20.95,-89.65,28.0,16.0,100,10,,7.0,29.970472,,,,,,,,,,,FEW,2500,,,,,,,VFR,,,,,,,,,,,,METAR,10.0
KJDN 111848Z AUTO 09005KT M04/M06 A3006 RMK AO1 SLP225 T10441056,KJDN,2020-12-11T18:48:00Z,47.33,-106.95,-4.4,-5.6,90,5,,,30.059055,1022.5,,TRUE,TRUE,,,,,,,,,,,,,,,,,,,,,,,,,,,METAR,802.0
KCIC 111848Z 25SM BKN120 OVC200 10/00 A3018,KCIC,2020-12-11T18:48:00Z,39.78,-121.85,10.0,0.0,,,,25.0,30.180119,,,,,,,,,,,BKN,12000,OVC,20000,,,,,VFR,,,,,,,,,,,,METAR,72.0
KASG 111848Z 20010G17KT 10SM BKN014 BKN021 OVC030 15/15 A2980,KASG,2020-12-11T18:48:00Z,36.17,-94.12,15.0,15.0,200,10,17,10.0,29.799213,,,,,,,,,,,BKN,1400,BKN,2100,OVC,3000,,,MVFR,,,,,,,,,,,,METAR,410.0
MMZO 111847Z 00000KT 10SM SCT200 29/24 A2990 RMK 8/004,MMZO,2020-12-11T18:47:00Z,19.13,-104.57,29.0,24.0,0,0,,10.0,29.899607,,,,,,,,,,,SCT,20000,,,,,,,VFR,,,,,,,,,,,,METAR,11.0
MMSD 111847Z 00000KT 10SM BKN030 BKN200 26/12 A2999 RMK 8/108,MMSD,2020-12-11T18:47:00Z,23.15,-109.72,26.0,12.0,0,0,,10.0,29.991142,,,,,,,,,,,BKN,3000,BKN,20000,,,,,MVFR,,,,,,,,,,,,METAR,107.0
MMPR 111847Z 22004KT 15SM FEW250 26/19 A2993 RMK 8/001 ST/4QUAD CU/E,MMPR,2020-12-11T18:47:00Z,20.67,-105.25,26.0,19.0,220,4,,15.0,29.929134,,,,,,,,,,,FEW,25000,,,,,,,VFR,,,,,,,,,,,,SPECI,6.0
MMCV 111847Z 14010KT 10SM FEW180 28/13 A2985 RMK 8/009//,MMCV,2020-12-11T18:47:00Z,23.72,-98.97,28.0,13.0,140,10,,10.0,29.84941,,,,,,,,,,,FEW,18000,,,,,,,VFR,,,,,,,,,,,,SPECI,230.0
MMCB 111847Z 00000KT 8SM FEW020 SCT200 27/12 A3008 RMK 8/101,MMCB,2020-12-11T18:47:00Z,18.83,-99.27,27.0,12.0,0,0,,8.0,30.079725,,,,,,,,,,,FEW,2000,SCT,20000,,,,,VFR,,,,,,,,,,,,METAR,1281.0
KSUN 111847Z 12010KT 10SM FEW060 M04/M08 A2994,KSUN,2020-12-11T18:47:00Z,43.5,-114.28,-4.0,-8.0,120,10,,10.0,29.940945,,,,,,,,,,,FEW,6000,,,,,,,VFR,,,,,,,,,,,,METAR,1619.0
KSUA 111847Z 01006KT 10SM BKN055 22/13 A3015,KSUA,2020-12-11T18:47:00Z,27.18,-80.22,22.0,13.0,10,6,,10.0,30.15059,,,,,,,,,,,BKN,5500,,,,,,,VFR,,,,,,,,,,,,METAR,4.0
KSQL 111847Z 00000KT 10SM FEW020 BKB200 12/04 A3022,KSQL,2020-12-11T18:47:00Z,37.52,-122.25,12.0,4.0,0,0,,10.0,30.221457,,,,,,,,,,,FEW,2000,,,,,,,VFR,,,,,,,,,,,,METAR,1.0
KSEE 111847Z 00000KT 10SM SKC 15/06 A3013,KSEE,2020-12-11T18:47:00Z,32.82,-116.97,15.0,6.0,0,0,,10.0,30.129921,,,,,,,,,,,SKC,,,,,,,,VFR,,,,,,,,,,,,METAR,113.0
KRHV 111847Z 00000KT 10SM OVC060 12/04 A3021,KRHV,2020-12-11T18:47:00Z,37.33,-121.82,12.0,4.0,0,0,,10.0,30.209646,,,,,,,,,,,OVC,6000,,,,,,,VFR,,,,,,,,,,,,METAR,37.0
KPOC 111847Z 25004KT 10SM BKN025 12/06 A3014,KPOC,2020-12-11T18:47:00Z,34.1,-117.77,12.0,6.0,250,4,,10.0,30.138779,,,,,,,,,,,BKN,2500,,,,,,,MVFR,,,,,,,,,,,,METAR,304.0
KPAO 111847Z VRB03KT 10SM SCT120 11/05 A3021,KPAO,2020-12-11T18:47:00Z,37.47,-122.12,11.0,5.0,0,3,,10.0,30.209646,,,,,,,,,,,SCT,12000,,,,,,,VFR,,,,,,,,,,,,METAR,2.0
KLBE 111847Z 21012G20KT 10SM CLR 16/02 A3003,KLBE,2020-12-11T18:47:00Z,40.27,-79.4,16.0,2.0,210,12,20,10.0,30.029528,,,,,,,,,,,CLR,,,,,,,,VFR,,,,,,,,,,,,METAR,345.0
KHUM 111847Z 16006KT 7SM BKN055 22/12 A3003,KHUM,2020-12-11T18:47:00Z,29.57,-90.67,22.0,12.0,160,6,,7.0,30.029528,,,,,,,,,,,BKN,5500,,,,,,,VFR,,,,,,,,,,,,METAR,1.0
KGYR 111847Z 09005KT 10SM FEW040 SCT220 BKN250 13/11 A3012,KGYR,2020-12-11T18:47:00Z,33.42,-112.37,13.0,11.0,90,5,,10.0,30.121063,,,,,,,,,,,FEW,4000,SCT,22000,BKN,25000,,,VFR,,,,,,,,,,,,METAR,292.0
KGYH 111847Z 00000KT 10SM CLR 18/07 A3013,KGYH,2020-12-11T18:47:00Z,34.75,-82.38,18.0,7.0,0,0,,10.0,30.129921,,,,,,,,,,,CLR,,,,,,,,VFR,,,,,,,,,,,,METAR,283.0
KGEU 111847Z 06003KT 10SM FEW055 SCT200 15/11 A3011,KGEU,2020-12-11T18:47:00Z,33.53,-112.3,15.0,11.0,60,3,,10.0,30.109253,,,,,,,,,,,FEW,5500,SCT,20000,,,,,VFR,,,,,,,,,,,,METAR,319.0
KFDK 111847Z 22006KT 10SM CLR 14/05 A3010,KFDK,2020-12-11T18:47:00Z,39.42,-77.37,14.0,5.0,220,6,,10.0,30.100393,,,,,,,,,,,CLR,,,,,,,,VFR,,,,,,,,,,,,METAR,82.0
KEVB 111847Z 10SM SCT060 RMK AWOS OTS.,KEVB,2020-12-11T18:47:00Z,29.05,-80.95,,,,,,10.0,,,,,TRUE,,,,,,,SCT,6000,,,,,,,VFR,,,,,,,,,,,,METAR,2.0
KCWA 111847Z 05007KT 10SM FEW020 OVC120 01/M04 A3007,KCWA,2020-12-11T18:47:00Z,44.78,-89.67,1.0,-4.0,50,7,,10.0,30.070866,,,,,,,,,,,FEW,2000,OVC,12000,,,,,VFR,,,,,,,,,,,,METAR,387.0
KCHD 111847Z 00000KT 10SM SKC 16/10 A3010,KCHD,2020-12-11T18:47:00Z,33.27,-111.82,16.0,10.0,0,0,,10.0,30.100393,,,,,,,,,,,SKC,,,,,,,,VFR,,,,,,,,,,,,METAR,378.0
KBCT 111847Z 09010KT 10SM SCT035 26/16 A3009,KBCT,2020-12-11T18:47:00Z,26.38,-80.1,26.0,16.0,90,10,,10.0,30.088583,,,,,,,,,,,SCT,3500,,,,,,,VFR,,,,,,,,,,,,METAR,3.0
KADS 111847Z 21004KT 10SM -RA OVC007 17/16 A2983,KADS,2020-12-11T18:47:00Z,32.97,-96.83,17.0,16.0,210,4,,10.0,29.828741,,,,,,,,,,-RA,OVC,700,,,,,,,IFR,,,,,,,,,,,,METAR,198.0
MMPA 111846Z 33008KT 8SM SKC 26/22 A2990 RMK HZY METAR ,MMPA,2020-12-11T18:46:00Z,20.6,-97.47,26.0,22.0,330,8,,8.0,29.899607,,,,,,,,,,,SKC,,,,,,,,VFR,,,,,,,,,,,,METAR,153.0
MMCL 111846Z 23005KT 10SM BKN030 23/19 A2997 RMK 8/500,MMCL,2020-12-11T18:46:00Z,24.77,-107.47,23.0,19.0,230,5,,10.0,29.970472,,,,,,,,,,,BKN,3000,,,,,,,MVFR,,,,,,,,,,,,METAR,35.0
KVCV 111846Z 25015G22KT 10SM SCT080 A3004,KVCV,2020-12-11T18:46:00Z,34.58,-117.38,,,250,15,22,10.0,30.041338,,,,,,,,,,,SCT,8000,,,,,,,VFR,,,,,,,,,,,,METAR,871.0
TJIG 111845Z 10014G20KT 10SM SCT025 SCT035 BKN060 27/22 A2994,TJIG,2020-12-11T18:45:00Z,18.45,-66.1,27.0,22.0,100,14,20,10.0,29.940945,,,,,,,,,,,SCT,2500,SCT,3500,BKN,6000,,,VFR,,,,,,,,,,,,METAR,3.0
PHJH 111845Z 00000KT 15SM CLR 25/17 A3009,PHJH,2020-12-11T18:45:00Z,20.97,-156.67,25.0,17.0,0,0,,15.0,30.088583,,,,,,,,,,,CLR,,,,,,,,VFR,,,,,,,,,,,,METAR,67.0
PAKU 111845Z 08013KT 1 1/2SM R06/P6000FT -SN BR FEW008 OVC017 M20/M21 A3056,PAKU,2020-12-11T18:45:00Z,70.32,-149.6,-20.0,-21.0,80,13,,1.5,30.561024,,,,,,,,,,-SN BR,FEW,800,OVC,1700,,,,,IFR,,,,,,,,,,,,METAR,23.0
MMVR 111845Z 11002KT 6SM SKC 27/17 A2989 RMK HZY ISOL CUFRA,MMVR,2020-12-11T18:45:00Z,19.15,-96.18,27.0,17.0,110,2,,6.0,29.890747,,,,,,,,,,,SKC,,,,,,,,VFR,,,,,,,,,,,,METAR,26.0
MMPB 111845Z 16008KT 8SM SKC 22/06 A3026 RMK HZY,MMPB,2020-12-11T18:45:00Z,19.17,-98.37,22.0,6.0,160,8,,8.0,30.259842,,,,,,,,,,,SKC,,,,,,,,VFR,,,,,,,,,,,,METAR,2250.0
MMEP 111845Z 00000KT 12SM SCT250 27/13 A3008 RMK 8/001 ISOL SC,MMEP,2020-12-11T18:45:00Z,21.42,-104.85,27.0,13.0,0,0,,12.0,30.079725,,,,,,,,,,,SCT,25000,,,,,,,VFR,,,,,,,,,,,,METAR,921.0
MMCE 111845Z 11015KT 7SM FEW280 27/20 A2990 RMK 8/009,MMCE,2020-12-11T18:45:00Z,18.65,-91.8,27.0,20.0,110,15,,7.0,29.899607,,,,,,,,,,,FEW,28000,,,,,,,VFR,,,,,,,,,,,,METAR,5.0
KTRK 111845Z 00000KT 10SM SCT100 04/M14 A3009 RMK ACLS N,KTRK,2020-12-11T18:45:00Z,39.32,-120.13,4.0,-14.0,0,0,,10.0,30.088583,,,,,,,,,,,SCT,10000,,,,,,,VFR,,,,,,,,,,,,METAR,1800.0
KSWF 111845Z 28005KT 10SM SKC 11/04 A3007 RMK HAZY,KSWF,2020-12-11T18:45:00Z,41.5,-74.08,11.0,4.0,280,5,,10.0,30.070866,,,,,,,,,,,SKC,,,,,,,,VFR,,,,,,,,,,,,METAR,139.0
KRYN 111845Z 00000KT 10SM CLR 17/07 A3012,KRYN,2020-12-11T18:45:00Z,32.15,-111.17,17.0,7.0,0,0,,10.0,30.121063,,,,,,,,,,,CLR,,,,,,,,VFR,,,,,,,,,,,,METAR,731.0
KOUN 111845Z 30010KT 10SM BKN095 08/03 A2983,KOUN,2020-12-11T18:45:00Z,35.25,-97.47,8.0,3.0,300,10,,10.0,29.828741,,,,,,,,,,,BKN,9500,,,,,,,VFR,,,,,,,,,,,,METAR,359.0
KMWC 111845Z 04013G19KT 10SM -RA OVC014 03/00 A3002,KMWC,2020-12-11T18:45:00Z,43.12,-88.03,3.0,0.0,40,13,19,10.0,30.02067,,,,,,,,,,-RA,OVC,1400,,,,,,,MVFR,,,,,,,,,,,,METAR,225.0
KMWA 111845Z 20014KT 20SM BKN028 18/11 A2988,KMWA,2020-12-11T18:45:00Z,37.77,-89.02,18.0,11.0,200,14,,20.0,29.878937,,,,,,,,,,,BKN,2800,,,,,,,MVFR,,,,,,,,,,,,METAR,142.0
KMHR 111845Z 17004KT 10SM BKN200 10/02 A3019,KMHR,2020-12-11T18:45:00Z,38.55,-121.28,10.0,2.0,170,4,,10.0,30.188976,,,,,,,,,,,BKN,20000,,,,,,,VFR,,,,,,,,,,,,METAR,30.0
KJVL 111845Z 05014G19KT 5SM -RA BR SCT010 BKN017 OVC040 04/04 A2996,KJVL,2020-12-11T18:45:00Z,42.62,-89.05,4.0,4.0,50,14,19,5.0,29.958662,,,,,,,,,,-RA BR,SCT,1000,BKN,1700,OVC,4000,,,MVFR,,,,,,,,,,,,METAR,244.0
KGYY 111845Z 01009KT 4SM BR OVC010 06/04 A2992,KGYY,2020-12-11T18:45:00Z,41.62,-87.42,6.0,4.0,10,9,,4.0,29.920275,,,,,,,,,,BR,OVC,1000,,,,,,,MVFR,,,,,,,,,,,,METAR,179.0
KFWS 111845Z 20009G14KT 7SM SCT008 SCT100 18/17 A2984,KFWS,2020-12-11T18:45:00Z,32.57,-97.3,18.0,17.0,200,9,14,7.0,29.840551,,,,,,,,,,,SCT,800,SCT,10000,,,,,VFR,,,,,,,,,,,,METAR,211.0
KEMT 111845Z 00000KT 10SM OVC028 14/07 A3014,KEMT,2020-12-11T18:45:00Z,34.08,-118.03,14.0,7.0,0,0,,10.0,30.138779,,,,,,,,,,,OVC,2800,,,,,,,MVFR,,,,,,,,,,,,METAR,84.0
KCGF 111845Z 19004KT 20SM SCT180 13/04 A2995,KCGF,2020-12-11T18:45:00Z,41.57,-81.47,13.0,4.0,190,4,,20.0,29.949802,,,,,,,,,,,SCT,18000,,,,,,,VFR,,,,,,,,,,,,METAR,265.0
KBJC 111845Z 36009KT 1SM -SN OVC007 M04/M05 A2991,KBJC,2020-12-11T18:45:00Z,39.9,-105.1,-4.0,-5.0,360,9,,1.0,29.911417,,,,,,,,,,-SN,OVC,700,,,,,,,IFR,,,,,,,,,,,,METAR,1694.0
KBAK 111845Z 19012G14KT 10SM CLR 16/03 A2992,KBAK,2020-12-11T18:45:00Z,39.27,-85.9,16.0,3.0,190,12,14,10.0,29.920275,,,,,,,,,,,CLR,,,,,,,,VFR,,,,,,,,,,,,METAR,199.0
KATW 111845Z 04015G20KT 10SM BKN022 OVC080 02/M07 A3004,KATW,2020-12-11T18:45:00Z,44.27,-88.52,2.0,-7.0,40,15,20,10.0,30.041338,,,,,,,,,,,BKN,2200,OVC,8000,,,,,MVFR,,,,,,,,,,,,METAR,266.0
MMTM 111844Z 09008G18KT 6SM SCT025 26/20 A2987 RMK 8/100 HZY,MMTM,2020-12-11T18:44:00Z,22.28,-97.87,26.0,20.0,90,8,18,6.0,29.870079,,,,,,,,,,,SCT,2500,,,,,,,VFR,,,,,,,,,,,,METAR,21.0
MMRX 111844Z 21012KT 6SM FEW300 29/13 A2983 RMK 8/001 HZY PRESFR,MMRX,2020-12-11T18:44:00Z,26.02,-98.22,29.0,13.0,210,12,,6.0,29.828741,,,,,,,,,,,FEW,30000,,,,,,,VFR,,,,,,,,,,,,METAR,45.0
MMBT 111844Z 00000KT 10SM SCT260 29/21 A2990 RMK 8/001 CU N,MMBT,2020-12-11T18:44:00Z,15.77,-96.27,29.0,21.0,0,0,,10.0,29.899607,,,,,,,,,,,SCT,26000,,,,,,,VFR,,,,,,,,,,,,METAR,137.0
MMAA 111844Z 26009KT 7SM FEW010 SCT300 29/22 A2987 RMK 8/101 HZY,MMAA,2020-12-11T18:44:00Z,16.75,-99.75,29.0,22.0,260,9,,7.0,29.870079,,,,,,,,,,,FEW,1000,SCT,30000,,,,,VFR,,,,,,,,,,,,METAR,5.0
MMVA 111843Z 06008KT 7SM SKC 26/20 A2992,MMVA,2020-12-11T18:43:00Z,18.0,-92.82,26.0,20.0,60,8,,7.0,29.920275,,,,,,,,,,,SKC,,,,,,,,VFR,,,,,,,,,,,,METAR,13.0
MMTJ 111842Z 33003KT 6SM SKC 15/07 A3015 RMK HZY,MMTJ,2020-12-11T18:42:00Z,32.53,-116.97,15.0,7.0,330,3,,6.0,30.15059,,,,,,,,,,,SKC,,,,,,,,VFR,,,,,,,,,,,,METAR,150.0
MMTG 111842Z 36003KT 6SM SCT300 28/17 A2994 RMK 8/001 HZY,MMTG,2020-12-11T18:42:00Z,16.57,-93.03,28.0,17.0,360,3,,6.0,29.940945,,,,,,,,,,,SCT,30000,,,,,,,VFR,,,,,,,,,,,,METAR,463.0
MMLP 111842Z 36008KT 10SM SCT025 23/15 A3001 RMK 8/100 MDT CU 3-4QUAD ISOL AC/CI,MMLP,2020-12-11T18:42:00Z,24.07,-110.37,23.0,15.0,360,8,,10.0,30.008858,,,,,,,,,,,SCT,2500,,,,,,,VFR,,,,,,,,,,,,METAR,16.0
MMCS 111842Z 24016KT 10SM FEW040 13/02 A3006 RMK 8/500,MMCS,2020-12-11T18:42:00Z,31.63,-106.42,13.0,2.0,240,16,,10.0,30.059055,,,,,,,,,,,FEW,4000,,,,,,,VFR,,,,,,,,,,,,METAR,1194.0
MMAS 111842Z 26006KT 13SM SCT040 SCT200 22/04 A3021 RMK 8/101,MMAS,2020-12-11T18:42:00Z,21.7,-102.32,22.0,4.0,260,6,,13.0,30.209646,,,,,,,,,,,SCT,4000,SCT,20000,,,,,VFR,,,,,,,,,,,,METAR,1866.0
MMTC 111841Z 00000KT 10SM FEW030 SCT080 BKN200 24/09 A3005 RMK 8/572,MMTC,2020-12-11T18:41:00Z,25.57,-103.4,24.0,9.0,0,0,,10.0,30.050198,,,,,,,,,,,FEW,3000,SCT,8000,BKN,20000,,,VFR,,,,,,,,,,,,METAR,1128.0
MMML 111841Z 00000KT 7SM FEW200 16/08 A3008 RMK 8/005 VCBR,MMML,2020-12-11T18:41:00Z,32.62,-115.23,16.0,8.0,0,0,,7.0,30.079725,,,,,,,,,,,FEW,20000,,,,,,,VFR,,,,,,,,,,,,METAR,21.0
MMMA 111841Z 17023KT 7SM SCT200 27/20 A2984 RMK 8/001 HZY,MMMA,2020-12-11T18:41:00Z,25.77,-97.52,27.0,20.0,170,23,,7.0,29.840551,,,,,,,,,,,SCT,20000,,,,,,,VFR,,,,,,,,,,,,METAR,7.0
MMLO 111841Z 30008KT 8SM SKC 22/07 A3025 RMK HZY,MMLO,2020-12-11T18:41:00Z,21.0,-101.47,22.0,7.0,300,8,,8.0,30.250984,,,,,,,,,,,SKC,,,,,,,,VFR,,,,,,,,,,,,METAR,1805.0
MMLM 111841Z 26009KT 10SM SKC 24/13 A3000 RMK HZY,MMLM,2020-12-11T18:41:00Z,25.68,-109.08,24.0,13.0,260,9,,10.0,30.0,,,,,,,,,,,SKC,,,,,,,,VFR,,,,,,,,,,,,METAR,6.0
MMDO 111841Z 23010KT 10SM SCT020 BKN080 20/02 A3018 RMK 8/110,MMDO,2020-12-11T18:41:00Z,24.12,-104.52,20.0,2.0,230,10,,10.0,30.180119,,,,,,,,,,,SCT,2000,BKN,8000,,,,,VFR,,,,,,,,,,,,METAR,1863.0
MMCN 111841Z 24005KT 10SM SKC 24/09 A2999 RMK HZY,MMCN,2020-12-11T18:41:00Z,27.4,-109.83,24.0,9.0,240,5,,10.0,29.991142,,,,,,,,,,,SKC,,,,,,,,VFR,,,,,,,,,,,,METAR,57.0
MMZH 111840Z 22010KT 7SM SKC 30/23 A2993 RMK HZY ISOL SC,MMZH,2020-12-11T18:40:00Z,17.6,-101.47,30.0,23.0,220,10,,7.0,29.929134,,,,,,,,,,,SKC,,,,,,,,VFR,,,,,,,,,,,,METAR,9.0
MMUN 111840Z 12012KT 7SM SCT020 SCT070 26/16 A3001 RMK 8/130,MMUN,2020-12-11T18:40:00Z,21.03,-86.85,26.0,16.0,120,12,,7.0,30.008858,,,,,,,,,,,SCT,2000,SCT,7000,,,,,VFR,,,,,,,,,,,,METAR,13.0
MMTP 111840Z 26009KT 10SM FEW030 FEW200 31/25 A2986 RMK 8/101 HZY,MMTP,2020-12-11T18:40:00Z,14.78,-92.37,31.0,25.0,260,9,,10.0,29.861221,,,,,,,,,,,FEW,3000,FEW,20000,,,,,VFR,,,,,,,,,,,,METAR,27.0
MMSL 111840Z 19005KT 10SM SCT030 SCT230 23/17 A3002 RMK 8/508 CU,MMSL,2020-12-11T18:40:00Z,22.95,-109.93,23.0,17.0,190,5,,10.0,30.02067,,,,,,,,,,,SCT,3000,SCT,23000,,,,,VFR,,,,,,,,,,,,METAR,205.0
MMPG 111840Z 00000KT 8SM BKN050 20/15 A2992 RMK 8/500 HZY,MMPG,2020-12-11T18:40:00Z,28.62,-100.53,20.0,15.0,0,0,,8.0,29.920275,,,,,,,,,,,BKN,5000,,,,,,,VFR,,,,,,,,,,,,SPECI,224.0
MMNL 111840Z 35008KT 10SM SCT100 BKN200 25/12 A2988 RMK 8/072,MMNL,2020-12-11T18:40:00Z,27.43,-99.57,25.0,12.0,350,8,,10.0,29.878937,,,,,,,,,,,SCT,10000,BKN,20000,,,,,VFR,,,,,,,,,,,,METAR,146.0
MMMZ 111840Z 17004KT 15SM BKN240 31/16 A2993 RMK 8/008 ISOL CU AND AC,MMMZ,2020-12-11T18:40:00Z,23.17,-106.27,31.0,16.0,170,4,,15.0,29.929134,,,,,,,,,,,BKN,24000,,,,,,,VFR,,,,,,,,,,,,METAR,7.0
MMMY 111840Z 17004KT 8SM BKN100 26/11 A2986 RMK 8/030 HZY,MMMY,2020-12-11T18:40:00Z,25.77,-100.1,26.0,11.0,170,4,,8.0,29.861221,,,,,,,,,,,BKN,10000,,,,,,,VFR,,,,,,,,,,,,METAR,382.0
MMMV 111840Z 10004KT 6SM SCT100 23/09 A2992 RMK 8/040 HZY,MMMV,2020-12-11T18:40:00Z,26.95,-101.47,23.0,9.0,100,4,,6.0,29.920275,,,,,,,,,,,SCT,10000,,,,,,,VFR,,,,,,,,,,,,SPECI,567.0
MMMT 111840Z 00000KT 7SM FEW020 27/21 A2985 RMK 8/100,MMMT,2020-12-11T18:40:00Z,18.1,-94.57,27.0,21.0,0,0,,7.0,29.84941,,,,,,,,,,,FEW,2000,,,,,,,VFR,,,,,,,,,,,,METAR,15.0
MMMM 111840Z 31006KT 8SM SCT020 23/10 A3019 RMK 8/100 CI,MMMM,2020-12-11T18:40:00Z,19.85,-101.03,23.0,10.0,310,6,,8.0,30.188976,,,,,,,,,,,SCT,2000,,,,,,,VFR,,,,,,,,,,,,METAR,1840.0
MMIO 111840Z 27008KT 10SM BKN040 23/10 A3008 RMK 8/500,MMIO,2020-12-11T18:40:00Z,25.55,-100.93,23.0,10.0,270,8,,10.0,30.079725,,,,,,,,,,,BKN,4000,,,,,,,VFR,,,,,,,,,,,,METAR,1790.0
MMIA 111840Z 00000KT 6SM FEW020 26/18 A3002 RMK 8/100,MMIA,2020-12-11T18:40:00Z,19.27,-103.57,26.0,18.0,0,0,,6.0,30.02067,,,,,,,,,,,FEW,2000,,,,,,,VFR,,,,,,,,,,,,SPECI,744.0
MMHO 111840Z 00000KT 10SM SKC 21/13 A3009 RMK ISOL CU HZY,MMHO,2020-12-11T18:40:00Z,29.08,-111.05,21.0,13.0,0,0,,10.0,30.088583,,,,,,,,,,,SKC,,,,,,,,VFR,,,,,,,,,,,,METAR,186.0
MMGM 111840Z 02007KT 10SM SKC 22/14 A2999,MMGM,2020-12-11T18:40:00Z,27.95,-110.92,22.0,14.0,20,7,,10.0,29.991142,,,,,,,,,,,SKC,,,,,,,,VFR,,,,,,,,,,,,METAR,13.0
MMCU 111840Z 01004KT 10SM SKC 15/00 A3011,MMCU,2020-12-11T18:40:00Z,28.7,-105.97,15.0,0.0,10,4,,10.0,30.109253,,,,,,,,,,,SKC,,,,,,,,VFR,,,,,,,,,,,,METAR,1349.0
MMCP 111840Z 14010KT 7SM SCT040 SCT300 28/18 A2994 RMK 8/101,MMCP,2020-12-11T18:40:00Z,19.82,-90.5,28.0,18.0,140,10,,7.0,29.940945,,,,,,,,,,,SCT,4000,SCT,30000,,,,,VFR,,,,,,,,,,,,METAR,9.0
MMCM 111840Z 11005KT 7SM BKN100 27/18 A2996 RMK 8/030,MMCM,2020-12-11T18:40:00Z,18.5,-88.33,27.0,18.0,110,5,,7.0,29.958662,,,,,,,,,,,BKN,10000,,,,,,,VFR,,,,,,,,,,,,METAR,10.0
MMAN 111840Z 36012KT 15SM FEW050 SCT090 BKN200 28/08 A2989 RMK 8/537,MMAN,2020-12-11T18:40:00Z,25.87,-100.23,28.0,8.0,360,12,,15.0,29.890747,,,,,,,,,,,FEW,5000,SCT,9000,BKN,20000,,,VFR,,,,,,,,,,,,METAR,447.0
UAAT 111830Z 19001MPS 0700 R02/1900U FZFG VV001 M17/M18 Q1031 R02/950252 NOSIG RMK QBB050 QFE721/0962,UAAT,2020-12-11T18:30:00Z,45.12,78.45,-17.0,-18.0,190,2,,0.43,30.442913,,,,,,TRUE,,,,FZFG,OVX,0,,,,,,,LIFR,,,,,,,,,,,100,METAR,588.0
LEGT 111830Z 24014KT 210V280 9999 FEW010 SCT020 BKN030 14/13 Q1010,LEGT,2020-12-11T18:30:00Z,40.28,-3.72,14.0,13.0,240,14,,6.21,29.822834,,,,,,,,,,,FEW,1000,SCT,2000,BKN,3000,,,MVFR,,,,,,,,,,,,METAR,619.0
HRYR 111830Z 18002KT 9999 FEW025 19/16 Q1021 NOSIG,HRYR,2020-12-11T18:30:00Z,-1.97,30.13,19.0,16.0,180,2,,6.21,30.147638,,,,,,TRUE,,,,,FEW,2500,,,,,,,VFR,,,,,,,,,,,,METAR,1493.0
